<?xml version="1.0" encoding="UTF-8"?>
<gpx version="1.1" creator="Mi Diario del Camino de Santiago" xmlns="http://www.topografix.com/GPX/1/1">
<metadata><name>Etapa 28A: Triacastela - Sarria</name><copyright author="OpenStreetMap contributors"><license>https://opendatacommons.org/licenses/odbl/1-0/</license></copyright></metadata>
<trk><name>Etapa 28A: Triacastela - Sarria</name><trkseg><trkpt lat="42.755994" lon="-7.239186"><ele>669</ele></trkpt><trkpt lat="42.755915" lon="-7.240406"><ele>667</ele></trkpt><trkpt lat="42.755873" lon="-7.241629"><ele>663</ele></trkpt><trkpt lat="42.75548" lon="-7.242723"><ele>658</ele></trkpt><trkpt lat="42.75525" lon="-7.243712"><ele>660</ele></trkpt><trkpt lat="42.756004" lon="-7.243701"><ele>655</ele></trkpt><trkpt lat="42.756871" lon="-7.244026"><ele>654</ele></trkpt><trkpt lat="42.75772" lon="-7.244402"><ele>663</ele></trkpt><trkpt lat="42.758468" lon="-7.245082"><ele>670</ele></trkpt><trkpt lat="42.759218" lon="-7.245759"><ele>674</ele></trkpt><trkpt lat="42.760033" lon="-7.246258"><ele>677</ele></trkpt><trkpt lat="42.760575" lon="-7.247215"><ele>690</ele></trkpt><trkpt lat="42.761072" lon="-7.248191"><ele>700</ele></trkpt><trkpt lat="42.761846" lon="-7.248757"><ele>703</ele></trkpt><trkpt lat="42.762725" lon="-7.248975"><ele>696</ele></trkpt><trkpt lat="42.763572" lon="-7.249362"><ele>694</ele></trkpt><trkpt lat="42.764412" lon="-7.249701"><ele>701</ele></trkpt><trkpt lat="42.76493" lon="-7.250697"><ele>705</ele></trkpt><trkpt lat="42.765375" lon="-7.25176"><ele>706</ele></trkpt><trkpt lat="42.765836" lon="-7.252751"><ele>717</ele></trkpt><trkpt lat="42.76616" lon="-7.253822"><ele>717</ele></trkpt><trkpt lat="42.766867" lon="-7.254431"><ele>725</ele></trkpt><trkpt lat="42.767579" lon="-7.255098"><ele>729</ele></trkpt><trkpt lat="42.768322" lon="-7.255737"><ele>733</ele></trkpt><trkpt lat="42.768786" lon="-7.256656"><ele>735</ele></trkpt><trkpt lat="42.769042" lon="-7.257795"><ele>752</ele></trkpt><trkpt lat="42.769661" lon="-7.258664"><ele>761</ele></trkpt><trkpt lat="42.770173" lon="-7.259661"><ele>765</ele></trkpt><trkpt lat="42.770561" lon="-7.260762"><ele>772</ele></trkpt><trkpt lat="42.770373" lon="-7.261921"><ele>787</ele></trkpt><trkpt lat="42.76978" lon="-7.262826"><ele>800</ele></trkpt><trkpt lat="42.769526" lon="-7.263993"><ele>808</ele></trkpt><trkpt lat="42.768899" lon="-7.264799"><ele>818</ele></trkpt><trkpt lat="42.768697" lon="-7.265988"><ele>824</ele></trkpt><trkpt lat="42.768567" lon="-7.2672"><ele>836</ele></trkpt><trkpt lat="42.768515" lon="-7.268291"><ele>849</ele></trkpt><trkpt lat="42.768088" lon="-7.269368"><ele>856</ele></trkpt><trkpt lat="42.767653" lon="-7.270431"><ele>862</ele></trkpt><trkpt lat="42.76723" lon="-7.271455"><ele>866</ele></trkpt><trkpt lat="42.766507" lon="-7.272176"><ele>863</ele></trkpt><trkpt lat="42.765991" lon="-7.273137"><ele>863</ele></trkpt><trkpt lat="42.765738" lon="-7.27431"><ele>859</ele></trkpt><trkpt lat="42.765842" lon="-7.275503"><ele>870</ele></trkpt><trkpt lat="42.765124" lon="-7.276217"><ele>864</ele></trkpt><trkpt lat="42.764612" lon="-7.277221"><ele>870</ele></trkpt><trkpt lat="42.764322" lon="-7.278371"><ele>865</ele></trkpt><trkpt lat="42.764309" lon="-7.279594"><ele>866</ele></trkpt><trkpt lat="42.764497" lon="-7.280777"><ele>866</ele></trkpt><trkpt lat="42.765074" lon="-7.281713"><ele>863</ele></trkpt><trkpt lat="42.765725" lon="-7.282556"><ele>859</ele></trkpt><trkpt lat="42.766577" lon="-7.282897"><ele>864</ele></trkpt><trkpt lat="42.767472" lon="-7.282842"><ele>874</ele></trkpt><trkpt lat="42.768067" lon="-7.283199"><ele>882</ele></trkpt><trkpt lat="42.767901" lon="-7.284396"><ele>884</ele></trkpt><trkpt lat="42.767487" lon="-7.285461"><ele>890</ele></trkpt><trkpt lat="42.767516" lon="-7.286656"><ele>896</ele></trkpt><trkpt lat="42.767731" lon="-7.287827"><ele>889</ele></trkpt><trkpt lat="42.767597" lon="-7.288997"><ele>875</ele></trkpt><trkpt lat="42.76719" lon="-7.290086"><ele>863</ele></trkpt><trkpt lat="42.766884" lon="-7.291237"><ele>847</ele></trkpt><trkpt lat="42.766554" lon="-7.292374"><ele>828</ele></trkpt><trkpt lat="42.766401" lon="-7.293572"><ele>810</ele></trkpt><trkpt lat="42.766144" lon="-7.294726"><ele>795</ele></trkpt><trkpt lat="42.765994" lon="-7.29593"><ele>774</ele></trkpt><trkpt lat="42.766455" lon="-7.296699"><ele>755</ele></trkpt><trkpt lat="42.766726" lon="-7.297763"><ele>752</ele></trkpt><trkpt lat="42.766684" lon="-7.298886"><ele>752</ele></trkpt><trkpt lat="42.766728" lon="-7.300082"><ele>758</ele></trkpt><trkpt lat="42.766533" lon="-7.301263"><ele>758</ele></trkpt><trkpt lat="42.766584" lon="-7.302466"><ele>760</ele></trkpt><trkpt lat="42.767265" lon="-7.302955"><ele>761</ele></trkpt><trkpt lat="42.767899" lon="-7.303771"><ele>757</ele></trkpt><trkpt lat="42.768433" lon="-7.304756"><ele>758</ele></trkpt><trkpt lat="42.768456" lon="-7.30582"><ele>758</ele></trkpt><trkpt lat="42.767869" lon="-7.306719"><ele>751</ele></trkpt><trkpt lat="42.767853" lon="-7.307912"><ele>745</ele></trkpt><trkpt lat="42.768479" lon="-7.30877"><ele>739</ele></trkpt><trkpt lat="42.768961" lon="-7.309748"><ele>725</ele></trkpt><trkpt lat="42.769721" lon="-7.310387"><ele>711</ele></trkpt><trkpt lat="42.770607" lon="-7.31057"><ele>700</ele></trkpt><trkpt lat="42.771485" lon="-7.310532"><ele>695</ele></trkpt><trkpt lat="42.772341" lon="-7.310163"><ele>689</ele></trkpt><trkpt lat="42.772923" lon="-7.309912"><ele>688</ele></trkpt><trkpt lat="42.772232" lon="-7.31069"><ele>686</ele></trkpt><trkpt lat="42.771401" lon="-7.311137"><ele>680</ele></trkpt><trkpt lat="42.771605" lon="-7.311744"><ele>666</ele></trkpt><trkpt lat="42.771083" lon="-7.312684"><ele>663</ele></trkpt><trkpt lat="42.770829" lon="-7.313849"><ele>664</ele></trkpt><trkpt lat="42.771328" lon="-7.314797"><ele>674</ele></trkpt><trkpt lat="42.771192" lon="-7.315921"><ele>677</ele></trkpt><trkpt lat="42.771394" lon="-7.317093"><ele>675</ele></trkpt><trkpt lat="42.771779" lon="-7.318188"><ele>666</ele></trkpt><trkpt lat="42.772496" lon="-7.318655"><ele>665</ele></trkpt><trkpt lat="42.772551" lon="-7.319868"><ele>663</ele></trkpt><trkpt lat="42.772672" lon="-7.321025"><ele>659</ele></trkpt><trkpt lat="42.773035" lon="-7.322136"><ele>659</ele></trkpt><trkpt lat="42.773454" lon="-7.323213"><ele>663</ele></trkpt><trkpt lat="42.773724" lon="-7.324379"><ele>657</ele></trkpt><trkpt lat="42.773857" lon="-7.325504"><ele>659</ele></trkpt><trkpt lat="42.773689" lon="-7.326704"><ele>666</ele></trkpt><trkpt lat="42.7729" lon="-7.327211"><ele>669</ele></trkpt><trkpt lat="42.772808" lon="-7.328185"><ele>674</ele></trkpt><trkpt lat="42.773212" lon="-7.329273"><ele>675</ele></trkpt><trkpt lat="42.773196" lon="-7.330496"><ele>673</ele></trkpt><trkpt lat="42.773071" lon="-7.331706"><ele>672</ele></trkpt><trkpt lat="42.772897" lon="-7.332908"><ele>673</ele></trkpt><trkpt lat="42.772813" lon="-7.334116"><ele>668</ele></trkpt><trkpt lat="42.77296" lon="-7.335324"><ele>662</ele></trkpt><trkpt lat="42.77333" lon="-7.336433"><ele>654</ele></trkpt><trkpt lat="42.773784" lon="-7.337489"><ele>644</ele></trkpt><trkpt lat="42.773981" lon="-7.338614"><ele>632</ele></trkpt><trkpt lat="42.774058" lon="-7.339701"><ele>624</ele></trkpt><trkpt lat="42.774581" lon="-7.340607"><ele>619</ele></trkpt><trkpt lat="42.774875" lon="-7.341747"><ele>619</ele></trkpt><trkpt lat="42.774715" lon="-7.342941"><ele>617</ele></trkpt><trkpt lat="42.774505" lon="-7.344132"><ele>614</ele></trkpt><trkpt lat="42.774277" lon="-7.345316"><ele>610</ele></trkpt><trkpt lat="42.774021" lon="-7.34648"><ele>603</ele></trkpt><trkpt lat="42.774014" lon="-7.347705"><ele>594</ele></trkpt><trkpt lat="42.773979" lon="-7.348928"><ele>586</ele></trkpt><trkpt lat="42.77385" lon="-7.350126"><ele>576</ele></trkpt><trkpt lat="42.773852" lon="-7.351344"><ele>562</ele></trkpt><trkpt lat="42.773698" lon="-7.352513"><ele>547</ele></trkpt><trkpt lat="42.773351" lon="-7.35362"><ele>537</ele></trkpt><trkpt lat="42.773656" lon="-7.354767"><ele>523</ele></trkpt><trkpt lat="42.773859" lon="-7.355903"><ele>517</ele></trkpt><trkpt lat="42.773842" lon="-7.357128"><ele>514</ele></trkpt><trkpt lat="42.773735" lon="-7.358341"><ele>509</ele></trkpt><trkpt lat="42.773747" lon="-7.359515"><ele>504</ele></trkpt><trkpt lat="42.773811" lon="-7.360726"><ele>501</ele></trkpt><trkpt lat="42.773634" lon="-7.361912"><ele>496</ele></trkpt><trkpt lat="42.773433" lon="-7.363054"><ele>490</ele></trkpt><trkpt lat="42.773186" lon="-7.364232"><ele>489</ele></trkpt><trkpt lat="42.773378" lon="-7.365404"><ele>486</ele></trkpt><trkpt lat="42.773259" lon="-7.366599"><ele>484</ele></trkpt><trkpt lat="42.773161" lon="-7.367814"><ele>483</ele></trkpt><trkpt lat="42.773196" lon="-7.369034"><ele>479</ele></trkpt><trkpt lat="42.773257" lon="-7.370254"><ele>481</ele></trkpt><trkpt lat="42.77331" lon="-7.371477"><ele>486</ele></trkpt><trkpt lat="42.773526" lon="-7.372662"><ele>486</ele></trkpt><trkpt lat="42.773539" lon="-7.373868"><ele>486</ele></trkpt><trkpt lat="42.773746" lon="-7.375037"><ele>486</ele></trkpt><trkpt lat="42.773991" lon="-7.376205"><ele>490</ele></trkpt><trkpt lat="42.774122" lon="-7.377417"><ele>490</ele></trkpt><trkpt lat="42.774442" lon="-7.378547"><ele>480</ele></trkpt><trkpt lat="42.774855" lon="-7.379634"><ele>472</ele></trkpt><trkpt lat="42.775183" lon="-7.380774"><ele>467</ele></trkpt><trkpt lat="42.775474" lon="-7.381933"><ele>464</ele></trkpt><trkpt lat="42.775795" lon="-7.383073"><ele>454</ele></trkpt><trkpt lat="42.776423" lon="-7.383935"><ele>452</ele></trkpt><trkpt lat="42.776516" lon="-7.385024"><ele>445</ele></trkpt><trkpt lat="42.776291" lon="-7.386205"><ele>443</ele></trkpt><trkpt lat="42.776235" lon="-7.387427"><ele>446</ele></trkpt><trkpt lat="42.776137" lon="-7.388644"><ele>449</ele></trkpt><trkpt lat="42.776153" lon="-7.389867"><ele>449</ele></trkpt><trkpt lat="42.776265" lon="-7.391083"><ele>445</ele></trkpt><trkpt lat="42.776344" lon="-7.392302"><ele>438</ele></trkpt><trkpt lat="42.776405" lon="-7.393522"><ele>435</ele></trkpt><trkpt lat="42.776315" lon="-7.394741"><ele>435</ele></trkpt><trkpt lat="42.776233" lon="-7.395961"><ele>431</ele></trkpt><trkpt lat="42.776217" lon="-7.397184"><ele>427</ele></trkpt><trkpt lat="42.776163" lon="-7.398403"><ele>424</ele></trkpt><trkpt lat="42.775856" lon="-7.399551"><ele>424</ele></trkpt><trkpt lat="42.775637" lon="-7.400718"><ele>421</ele></trkpt><trkpt lat="42.775769" lon="-7.401924"><ele>421</ele></trkpt><trkpt lat="42.775779" lon="-7.40314"><ele>421</ele></trkpt><trkpt lat="42.775692" lon="-7.404328"><ele>422</ele></trkpt><trkpt lat="42.77596" lon="-7.405489"><ele>422</ele></trkpt><trkpt lat="42.775847" lon="-7.40657"><ele>425</ele></trkpt><trkpt lat="42.775529" lon="-7.407474"><ele>423</ele></trkpt><trkpt lat="42.774936" lon="-7.408312"><ele>421</ele></trkpt><trkpt lat="42.775378" lon="-7.409231"><ele>421</ele></trkpt><trkpt lat="42.775658" lon="-7.410351"><ele>422</ele></trkpt><trkpt lat="42.775875" lon="-7.411348"><ele>423</ele></trkpt><trkpt lat="42.776667" lon="-7.41107"><ele>423</ele></trkpt><trkpt lat="42.776272" lon="-7.411812"><ele>424</ele></trkpt><trkpt lat="42.776396" lon="-7.412773"><ele>432</ele></trkpt><trkpt lat="42.777001" lon="-7.413322"><ele>438</ele></trkpt><trkpt lat="42.777286" lon="-7.414351"><ele>446</ele></trkpt></trkseg></trk></gpx>