<?xml version="1.0" encoding="UTF-8"?>
<gpx version="1.1" creator="Mi Diario del Camino de Santiago" xmlns="http://www.topografix.com/GPX/1/1">
<metadata><name>Etapa 28B: Triacastela - Sarria</name><copyright author="OpenStreetMap contributors"><license>https://opendatacommons.org/licenses/odbl/1-0/</license></copyright></metadata>
<trk><name>Etapa 28B: Triacastela - Sarria</name><trkseg><trkpt lat="42.755994" lon="-7.239186"><ele>669</ele></trkpt><trkpt lat="42.755915" lon="-7.240406"><ele>667</ele></trkpt><trkpt lat="42.755873" lon="-7.241629"><ele>663</ele></trkpt><trkpt lat="42.75548" lon="-7.242723"><ele>658</ele></trkpt><trkpt lat="42.754959" lon="-7.243554"><ele>658</ele></trkpt><trkpt lat="42.754182" lon="-7.243952"><ele>656</ele></trkpt><trkpt lat="42.753428" lon="-7.244206"><ele>662</ele></trkpt><trkpt lat="42.752642" lon="-7.244614"><ele>666</ele></trkpt><trkpt lat="42.752477" lon="-7.245808"><ele>674</ele></trkpt><trkpt lat="42.752602" lon="-7.246999"><ele>663</ele></trkpt><trkpt lat="42.753168" lon="-7.247948"><ele>664</ele></trkpt><trkpt lat="42.753612" lon="-7.249007"><ele>672</ele></trkpt><trkpt lat="42.753782" lon="-7.250205"><ele>673</ele></trkpt><trkpt lat="42.753878" lon="-7.251423"><ele>676</ele></trkpt><trkpt lat="42.753765" lon="-7.252623"><ele>678</ele></trkpt><trkpt lat="42.75328" lon="-7.253645"><ele>685</ele></trkpt><trkpt lat="42.752556" lon="-7.254365"><ele>682</ele></trkpt><trkpt lat="42.751916" lon="-7.25521"><ele>672</ele></trkpt><trkpt lat="42.751445" lon="-7.256252"><ele>650</ele></trkpt><trkpt lat="42.751386" lon="-7.257445"><ele>653</ele></trkpt><trkpt lat="42.751716" lon="-7.258584"><ele>647</ele></trkpt><trkpt lat="42.751744" lon="-7.259789"><ele>649</ele></trkpt><trkpt lat="42.751334" lon="-7.260843"><ele>648</ele></trkpt><trkpt lat="42.750691" lon="-7.261693"><ele>638</ele></trkpt><trkpt lat="42.750229" lon="-7.262743"><ele>637</ele></trkpt><trkpt lat="42.749816" lon="-7.263827"><ele>637</ele></trkpt><trkpt lat="42.749219" lon="-7.264735"><ele>645</ele></trkpt><trkpt lat="42.748442" lon="-7.265352"><ele>642</ele></trkpt><trkpt lat="42.747669" lon="-7.265975"><ele>643</ele></trkpt><trkpt lat="42.746975" lon="-7.266753"><ele>639</ele></trkpt><trkpt lat="42.746255" lon="-7.267486"><ele>630</ele></trkpt><trkpt lat="42.745729" lon="-7.268428"><ele>621</ele></trkpt><trkpt lat="42.745803" lon="-7.269646"><ele>618</ele></trkpt><trkpt lat="42.745468" lon="-7.270738"><ele>615</ele></trkpt><trkpt lat="42.744637" lon="-7.271153"><ele>619</ele></trkpt><trkpt lat="42.743924" lon="-7.271811"><ele>621</ele></trkpt><trkpt lat="42.743444" lon="-7.272807"><ele>607</ele></trkpt><trkpt lat="42.742554" lon="-7.272897"><ele>605</ele></trkpt><trkpt lat="42.741699" lon="-7.273218"><ele>608</ele></trkpt><trkpt lat="42.740844" lon="-7.273147"><ele>603</ele></trkpt><trkpt lat="42.740309" lon="-7.273262"><ele>599</ele></trkpt><trkpt lat="42.740082" lon="-7.27437"><ele>597</ele></trkpt><trkpt lat="42.740405" lon="-7.275461"><ele>603</ele></trkpt><trkpt lat="42.740558" lon="-7.276665"><ele>600</ele></trkpt><trkpt lat="42.740978" lon="-7.277707"><ele>607</ele></trkpt><trkpt lat="42.741134" lon="-7.278891"><ele>613</ele></trkpt><trkpt lat="42.741138" lon="-7.280098"><ele>607</ele></trkpt><trkpt lat="42.741511" lon="-7.281208"><ele>609</ele></trkpt><trkpt lat="42.741822" lon="-7.282353"><ele>601</ele></trkpt><trkpt lat="42.742215" lon="-7.283415"><ele>600</ele></trkpt><trkpt lat="42.742575" lon="-7.284506"><ele>607</ele></trkpt><trkpt lat="42.742654" lon="-7.285711"><ele>606</ele></trkpt><trkpt lat="42.742435" lon="-7.286893"><ele>605</ele></trkpt><trkpt lat="42.742094" lon="-7.288025"><ele>603</ele></trkpt><trkpt lat="42.741488" lon="-7.28891"><ele>578</ele></trkpt><trkpt lat="42.740918" lon="-7.28941"><ele>581</ele></trkpt><trkpt lat="42.740442" lon="-7.290309"><ele>586</ele></trkpt><trkpt lat="42.739902" lon="-7.29082"><ele>593</ele></trkpt><trkpt lat="42.739639" lon="-7.291641"><ele>593</ele></trkpt><trkpt lat="42.739423" lon="-7.292824"><ele>586</ele></trkpt><trkpt lat="42.73996" lon="-7.293679"><ele>574</ele></trkpt><trkpt lat="42.740343" lon="-7.294775"><ele>585</ele></trkpt><trkpt lat="42.740492" lon="-7.295894"><ele>592</ele></trkpt><trkpt lat="42.740233" lon="-7.29704"><ele>595</ele></trkpt><trkpt lat="42.739649" lon="-7.29793"><ele>582</ele></trkpt><trkpt lat="42.739563" lon="-7.299033"><ele>579</ele></trkpt><trkpt lat="42.739775" lon="-7.300213"><ele>581</ele></trkpt><trkpt lat="42.740074" lon="-7.301321"><ele>578</ele></trkpt><trkpt lat="42.740748" lon="-7.302133"><ele>579</ele></trkpt><trkpt lat="42.741421" lon="-7.302943"><ele>589</ele></trkpt><trkpt lat="42.741788" lon="-7.304027"><ele>594</ele></trkpt><trkpt lat="42.741865" lon="-7.305244"><ele>588</ele></trkpt><trkpt lat="42.742192" lon="-7.30618"><ele>587</ele></trkpt><trkpt lat="42.742374" lon="-7.306873"><ele>586</ele></trkpt><trkpt lat="42.742334" lon="-7.307949"><ele>586</ele></trkpt><trkpt lat="42.742059" lon="-7.308972"><ele>579</ele></trkpt><trkpt lat="42.741884" lon="-7.310134"><ele>586</ele></trkpt><trkpt lat="42.741461" lon="-7.311195"><ele>599</ele></trkpt><trkpt lat="42.740657" lon="-7.311646"><ele>589</ele></trkpt><trkpt lat="42.739958" lon="-7.311922"><ele>577</ele></trkpt><trkpt lat="42.739853" lon="-7.313128"><ele>591</ele></trkpt><trkpt lat="42.739376" lon="-7.314138"><ele>576</ele></trkpt><trkpt lat="42.738613" lon="-7.31442"><ele>556</ele></trkpt><trkpt lat="42.73778" lon="-7.314152"><ele>557</ele></trkpt><trkpt lat="42.737331" lon="-7.314736"><ele>564</ele></trkpt><trkpt lat="42.737769" lon="-7.315769"><ele>561</ele></trkpt><trkpt lat="42.737225" lon="-7.316333"><ele>565</ele></trkpt><trkpt lat="42.736476" lon="-7.316504"><ele>578</ele></trkpt><trkpt lat="42.736341" lon="-7.31744"><ele>579</ele></trkpt><trkpt lat="42.735925" lon="-7.318523"><ele>591</ele></trkpt><trkpt lat="42.7356" lon="-7.319648"><ele>604</ele></trkpt><trkpt lat="42.735274" lon="-7.320457"><ele>610</ele></trkpt><trkpt lat="42.734876" lon="-7.321518"><ele>606</ele></trkpt><trkpt lat="42.734174" lon="-7.322279"><ele>597</ele></trkpt><trkpt lat="42.733395" lon="-7.322771"><ele>585</ele></trkpt><trkpt lat="42.732535" lon="-7.322925"><ele>586</ele></trkpt><trkpt lat="42.731878" lon="-7.323752"><ele>570</ele></trkpt><trkpt lat="42.731114" lon="-7.324366"><ele>554</ele></trkpt><trkpt lat="42.73044" lon="-7.323743"><ele>562</ele></trkpt><trkpt lat="42.730409" lon="-7.324946"><ele>541</ele></trkpt><trkpt lat="42.730927" lon="-7.325615"><ele>534</ele></trkpt><trkpt lat="42.731784" lon="-7.325341"><ele>535</ele></trkpt><trkpt lat="42.732292" lon="-7.325143"><ele>533</ele></trkpt><trkpt lat="42.732762" lon="-7.3261"><ele>543</ele></trkpt><trkpt lat="42.732086" lon="-7.326874"><ele>555</ele></trkpt><trkpt lat="42.731197" lon="-7.32688"><ele>547</ele></trkpt><trkpt lat="42.730336" lon="-7.326584"><ele>538</ele></trkpt><trkpt lat="42.729548" lon="-7.327112"><ele>540</ele></trkpt><trkpt lat="42.729084" lon="-7.32815"><ele>538</ele></trkpt><trkpt lat="42.728979" lon="-7.32935"><ele>535</ele></trkpt><trkpt lat="42.729459" lon="-7.330375"><ele>537</ele></trkpt><trkpt lat="42.730029" lon="-7.331321"><ele>541</ele></trkpt><trkpt lat="42.730487" lon="-7.332368"><ele>540</ele></trkpt><trkpt lat="42.730502" lon="-7.333521"><ele>539</ele></trkpt><trkpt lat="42.729778" lon="-7.334236"><ele>535</ele></trkpt><trkpt lat="42.728961" lon="-7.334746"><ele>530</ele></trkpt><trkpt lat="42.728136" lon="-7.335233"><ele>528</ele></trkpt><trkpt lat="42.727311" lon="-7.33572"><ele>526</ele></trkpt><trkpt lat="42.72649" lon="-7.33622"><ele>523</ele></trkpt><trkpt lat="42.725904" lon="-7.337098"><ele>524</ele></trkpt><trkpt lat="42.725703" lon="-7.338288"><ele>529</ele></trkpt><trkpt lat="42.725201" lon="-7.339298"><ele>531</ele></trkpt><trkpt lat="42.724644" lon="-7.340259"><ele>524</ele></trkpt><trkpt lat="42.724114" lon="-7.341244"><ele>523</ele></trkpt><trkpt lat="42.724259" lon="-7.342381"><ele>524</ele></trkpt><trkpt lat="42.724948" lon="-7.342912"><ele>523</ele></trkpt><trkpt lat="42.725843" lon="-7.342956"><ele>526</ele></trkpt><trkpt lat="42.726392" lon="-7.34386"><ele>522</ele></trkpt><trkpt lat="42.726803" lon="-7.344949"><ele>521</ele></trkpt><trkpt lat="42.727256" lon="-7.346003"><ele>521</ele></trkpt><trkpt lat="42.727913" lon="-7.346832"><ele>517</ele></trkpt><trkpt lat="42.728571" lon="-7.347661"><ele>515</ele></trkpt><trkpt lat="42.729252" lon="-7.348025"><ele>517</ele></trkpt><trkpt lat="42.730132" lon="-7.34826"><ele>517</ele></trkpt><trkpt lat="42.731027" lon="-7.34828"><ele>512</ele></trkpt><trkpt lat="42.731857" lon="-7.347851"><ele>514</ele></trkpt><trkpt lat="42.732591" lon="-7.347285"><ele>521</ele></trkpt><trkpt lat="42.733398" lon="-7.346854"><ele>527</ele></trkpt><trkpt lat="42.734256" lon="-7.346613"><ele>532</ele></trkpt><trkpt lat="42.735114" lon="-7.346896"><ele>532</ele></trkpt><trkpt lat="42.735921" lon="-7.346415"><ele>550</ele></trkpt><trkpt lat="42.736746" lon="-7.346398"><ele>555</ele></trkpt><trkpt lat="42.73684" lon="-7.347605"><ele>546</ele></trkpt><trkpt lat="42.737172" lon="-7.348737"><ele>540</ele></trkpt><trkpt lat="42.737363" lon="-7.349925"><ele>531</ele></trkpt><trkpt lat="42.736848" lon="-7.350749"><ele>518</ele></trkpt><trkpt lat="42.737569" lon="-7.350461"><ele>523</ele></trkpt><trkpt lat="42.73781" lon="-7.350951"><ele>517</ele></trkpt><trkpt lat="42.738278" lon="-7.351985"><ele>514</ele></trkpt><trkpt lat="42.738731" lon="-7.353039"><ele>510</ele></trkpt><trkpt lat="42.739545" lon="-7.353378"><ele>513</ele></trkpt><trkpt lat="42.740139" lon="-7.353995"><ele>515</ele></trkpt><trkpt lat="42.740081" lon="-7.355208"><ele>503</ele></trkpt><trkpt lat="42.740872" lon="-7.355428"><ele>501</ele></trkpt><trkpt lat="42.74155" lon="-7.356191"><ele>502</ele></trkpt><trkpt lat="42.742228" lon="-7.356984"><ele>501</ele></trkpt><trkpt lat="42.743117" lon="-7.357099"><ele>503</ele></trkpt><trkpt lat="42.743889" lon="-7.35769"><ele>497</ele></trkpt><trkpt lat="42.744765" lon="-7.35791"><ele>497</ele></trkpt><trkpt lat="42.74566" lon="-7.357963"><ele>497</ele></trkpt><trkpt lat="42.74654" lon="-7.358215"><ele>493</ele></trkpt><trkpt lat="42.747335" lon="-7.358582"><ele>492</ele></trkpt><trkpt lat="42.748064" lon="-7.358423"><ele>493</ele></trkpt><trkpt lat="42.748318" lon="-7.357289"><ele>500</ele></trkpt><trkpt lat="42.74828" lon="-7.356075"><ele>498</ele></trkpt><trkpt lat="42.748858" lon="-7.355382"><ele>497</ele></trkpt><trkpt lat="42.749719" lon="-7.355622"><ele>496</ele></trkpt><trkpt lat="42.750527" lon="-7.356132"><ele>500</ele></trkpt><trkpt lat="42.751373" lon="-7.356528"><ele>506</ele></trkpt><trkpt lat="42.751882" lon="-7.355827"><ele>491</ele></trkpt><trkpt lat="42.752394" lon="-7.354985"><ele>482</ele></trkpt><trkpt lat="42.753046" lon="-7.354232"><ele>485</ele></trkpt><trkpt lat="42.753934" lon="-7.354136"><ele>487</ele></trkpt><trkpt lat="42.754786" lon="-7.353768"><ele>491</ele></trkpt><trkpt lat="42.755612" lon="-7.353292"><ele>489</ele></trkpt><trkpt lat="42.756329" lon="-7.35303"><ele>486</ele></trkpt><trkpt lat="42.756568" lon="-7.351958"><ele>491</ele></trkpt><trkpt lat="42.757413" lon="-7.352074"><ele>496</ele></trkpt><trkpt lat="42.758276" lon="-7.352338"><ele>498</ele></trkpt><trkpt lat="42.758973" lon="-7.353084"><ele>493</ele></trkpt><trkpt lat="42.759693" lon="-7.353798"><ele>488</ele></trkpt><trkpt lat="42.760587" lon="-7.353797"><ele>490</ele></trkpt><trkpt lat="42.761451" lon="-7.353667"><ele>495</ele></trkpt><trkpt lat="42.762051" lon="-7.352756"><ele>492</ele></trkpt><trkpt lat="42.762175" lon="-7.351676"><ele>494</ele></trkpt><trkpt lat="42.762733" lon="-7.350716"><ele>492</ele></trkpt><trkpt lat="42.763391" lon="-7.350132"><ele>488</ele></trkpt><trkpt lat="42.764281" lon="-7.350105"><ele>482</ele></trkpt><trkpt lat="42.765167" lon="-7.350298"><ele>484</ele></trkpt><trkpt lat="42.765987" lon="-7.350073"><ele>493</ele></trkpt><trkpt lat="42.766655" lon="-7.34927"><ele>510</ele></trkpt><trkpt lat="42.767362" lon="-7.349052"><ele>514</ele></trkpt><trkpt lat="42.76729" lon="-7.350256"><ele>506</ele></trkpt><trkpt lat="42.767868" lon="-7.351065"><ele>505</ele></trkpt><trkpt lat="42.768749" lon="-7.350824"><ele>517</ele></trkpt><trkpt lat="42.769395" lon="-7.351429"><ele>518</ele></trkpt><trkpt lat="42.769369" lon="-7.352629"><ele>512</ele></trkpt><trkpt lat="42.769299" lon="-7.353815"><ele>497</ele></trkpt><trkpt lat="42.76978" lon="-7.354841"><ele>489</ele></trkpt><trkpt lat="42.770507" lon="-7.355507"><ele>486</ele></trkpt><trkpt lat="42.771218" lon="-7.356242"><ele>482</ele></trkpt><trkpt lat="42.771645" lon="-7.35728"><ele>479</ele></trkpt><trkpt lat="42.772089" lon="-7.358334"><ele>480</ele></trkpt><trkpt lat="42.772555" lon="-7.359334"><ele>491</ele></trkpt><trkpt lat="42.772828" lon="-7.360486"><ele>495</ele></trkpt><trkpt lat="42.773193" lon="-7.361559"><ele>497</ele></trkpt><trkpt lat="42.77365" lon="-7.362352"><ele>494</ele></trkpt><trkpt lat="42.773332" lon="-7.363475"><ele>489</ele></trkpt><trkpt lat="42.773192" lon="-7.364665"><ele>489</ele></trkpt><trkpt lat="42.773403" lon="-7.365843"><ele>485</ele></trkpt><trkpt lat="42.773199" lon="-7.367033"><ele>484</ele></trkpt><trkpt lat="42.773142" lon="-7.368256"><ele>482</ele></trkpt><trkpt lat="42.773235" lon="-7.369473"><ele>478</ele></trkpt><trkpt lat="42.773273" lon="-7.370696"><ele>483</ele></trkpt><trkpt lat="42.77336" lon="-7.371913"><ele>486</ele></trkpt><trkpt lat="42.773598" lon="-7.373093"><ele>486</ele></trkpt><trkpt lat="42.773541" lon="-7.374309"><ele>486</ele></trkpt><trkpt lat="42.773879" lon="-7.37544"><ele>487</ele></trkpt><trkpt lat="42.774027" lon="-7.376645"><ele>491</ele></trkpt><trkpt lat="42.774183" lon="-7.37785"><ele>486</ele></trkpt><trkpt lat="42.774591" lon="-7.378939"><ele>476</ele></trkpt><trkpt lat="42.774985" lon="-7.380039"><ele>469</ele></trkpt><trkpt lat="42.775285" lon="-7.381194"><ele>466</ele></trkpt><trkpt lat="42.775577" lon="-7.382353"><ele>461</ele></trkpt><trkpt lat="42.775992" lon="-7.383422"><ele>452</ele></trkpt><trkpt lat="42.776627" lon="-7.38428"><ele>450</ele></trkpt><trkpt lat="42.776404" lon="-7.385439"><ele>443</ele></trkpt><trkpt lat="42.776269" lon="-7.386646"><ele>444</ele></trkpt><trkpt lat="42.77619" lon="-7.387865"><ele>447</ele></trkpt><trkpt lat="42.776128" lon="-7.389086"><ele>449</ele></trkpt><trkpt lat="42.77619" lon="-7.390307"><ele>448</ele></trkpt><trkpt lat="42.7763" lon="-7.391522"><ele>443</ele></trkpt><trkpt lat="42.776379" lon="-7.392742"><ele>436</ele></trkpt><trkpt lat="42.776376" lon="-7.393963"><ele>436</ele></trkpt><trkpt lat="42.776283" lon="-7.395181"><ele>434</ele></trkpt><trkpt lat="42.776205" lon="-7.396402"><ele>429</ele></trkpt><trkpt lat="42.776228" lon="-7.397626"><ele>425</ele></trkpt><trkpt lat="42.776071" lon="-7.398826"><ele>424</ele></trkpt><trkpt lat="42.775725" lon="-7.399957"><ele>423</ele></trkpt><trkpt lat="42.775699" lon="-7.401147"><ele>420</ele></trkpt><trkpt lat="42.775799" lon="-7.402365"><ele>421</ele></trkpt><trkpt lat="42.775695" lon="-7.403568"><ele>422</ele></trkpt><trkpt lat="42.775809" lon="-7.404741"><ele>421</ele></trkpt><trkpt lat="42.775943" lon="-7.405927"><ele>424</ele></trkpt><trkpt lat="42.775687" lon="-7.40685"><ele>425</ele></trkpt><trkpt lat="42.775255" lon="-7.407684"><ele>422</ele></trkpt><trkpt lat="42.774962" lon="-7.408748"><ele>421</ele></trkpt><trkpt lat="42.775554" lon="-7.409582"><ele>421</ele></trkpt><trkpt lat="42.775757" lon="-7.410749"><ele>423</ele></trkpt><trkpt lat="42.776199" lon="-7.411383"><ele>422</ele></trkpt><trkpt lat="42.776788" lon="-7.411468"><ele>423</ele></trkpt><trkpt lat="42.77608" lon="-7.412133"><ele>426</ele></trkpt><trkpt lat="42.776694" lon="-7.412716"><ele>432</ele></trkpt><trkpt lat="42.777172" lon="-7.413699"><ele>442</ele></trkpt><trkpt lat="42.777286" lon="-7.414351"><ele>446</ele></trkpt></trkseg></trk></gpx>