<?xml version="1.0" encoding="UTF-8"?>
<gpx version="1.1" creator="Mi Diario del Camino de Santiago" xmlns="http://www.topografix.com/GPX/1/1">
<metadata><name>Etapa F3M: Olveiroa - Muxía</name><copyright author="OpenStreetMap contributors"><license>https://opendatacommons.org/licenses/odbl/1-0/</license></copyright></metadata>
<trk><name>Etapa F3M: Olveiroa - Muxía</name><trkseg><trkpt lat="42.966671" lon="-9.039602"><ele>275</ele></trkpt><trkpt lat="42.966617" lon="-9.040741"><ele>270</ele></trkpt><trkpt lat="42.967044" lon="-9.041819"><ele>266</ele></trkpt><trkpt lat="42.966607" lon="-9.042292"><ele>264</ele></trkpt><trkpt lat="42.965839" lon="-9.042885"><ele>267</ele></trkpt><trkpt lat="42.965084" lon="-9.043321"><ele>270</ele></trkpt><trkpt lat="42.964238" lon="-9.043733"><ele>278</ele></trkpt><trkpt lat="42.963356" lon="-9.043922"><ele>284</ele></trkpt><trkpt lat="42.96307" lon="-9.04441"><ele>283</ele></trkpt><trkpt lat="42.963732" lon="-9.045225"><ele>287</ele></trkpt><trkpt lat="42.964356" lon="-9.046109"><ele>292</ele></trkpt><trkpt lat="42.96498" lon="-9.046994"><ele>303</ele></trkpt><trkpt lat="42.965138" lon="-9.048156"><ele>299</ele></trkpt><trkpt lat="42.965534" lon="-9.049242"><ele>309</ele></trkpt><trkpt lat="42.965803" lon="-9.050365"><ele>316</ele></trkpt><trkpt lat="42.965675" lon="-9.051577"><ele>316</ele></trkpt><trkpt lat="42.965408" lon="-9.052741"><ele>312</ele></trkpt><trkpt lat="42.965662" lon="-9.053879"><ele>313</ele></trkpt><trkpt lat="42.966338" lon="-9.054688"><ele>310</ele></trkpt><trkpt lat="42.966902" lon="-9.055633"><ele>303</ele></trkpt><trkpt lat="42.967323" lon="-9.056719"><ele>294</ele></trkpt><trkpt lat="42.967706" lon="-9.057828"><ele>292</ele></trkpt><trkpt lat="42.967853" lon="-9.059013"><ele>284</ele></trkpt><trkpt lat="42.96828" lon="-9.059997"><ele>281</ele></trkpt><trkpt lat="42.968857" lon="-9.060912"><ele>282</ele></trkpt><trkpt lat="42.969048" lon="-9.062021"><ele>276</ele></trkpt><trkpt lat="42.968913" lon="-9.063217"><ele>270</ele></trkpt><trkpt lat="42.968135" lon="-9.063552"><ele>274</ele></trkpt><trkpt lat="42.967593" lon="-9.064502"><ele>289</ele></trkpt><trkpt lat="42.968211" lon="-9.064713"><ele>290</ele></trkpt><trkpt lat="42.969051" lon="-9.064539"><ele>285</ele></trkpt><trkpt lat="42.969858" lon="-9.065069"><ele>291</ele></trkpt><trkpt lat="42.970713" lon="-9.065421"><ele>295</ele></trkpt><trkpt lat="42.971581" lon="-9.065711"><ele>292</ele></trkpt><trkpt lat="42.972311" lon="-9.066429"><ele>296</ele></trkpt><trkpt lat="42.973033" lon="-9.067159"><ele>299</ele></trkpt><trkpt lat="42.97384" lon="-9.06754"><ele>295</ele></trkpt><trkpt lat="42.974524" lon="-9.068284"><ele>298</ele></trkpt><trkpt lat="42.975304" lon="-9.068888"><ele>305</ele></trkpt><trkpt lat="42.976127" lon="-9.069352"><ele>311</ele></trkpt><trkpt lat="42.97692" lon="-9.0699"><ele>319</ele></trkpt><trkpt lat="42.977706" lon="-9.070285"><ele>323</ele></trkpt><trkpt lat="42.978525" lon="-9.07073"><ele>323</ele></trkpt><trkpt lat="42.979251" lon="-9.071442"><ele>325</ele></trkpt><trkpt lat="42.979657" lon="-9.072526"><ele>330</ele></trkpt><trkpt lat="42.980027" lon="-9.073632"><ele>331</ele></trkpt><trkpt lat="42.980561" lon="-9.074621"><ele>329</ele></trkpt><trkpt lat="42.98098" lon="-9.075698"><ele>335</ele></trkpt><trkpt lat="42.98156" lon="-9.076637"><ele>340</ele></trkpt><trkpt lat="42.982166" lon="-9.077537"><ele>340</ele></trkpt><trkpt lat="42.982834" lon="-9.078097"><ele>343</ele></trkpt><trkpt lat="42.982384" lon="-9.079106"><ele>348</ele></trkpt><trkpt lat="42.982528" lon="-9.080242"><ele>350</ele></trkpt><trkpt lat="42.983044" lon="-9.081248"><ele>354</ele></trkpt><trkpt lat="42.983619" lon="-9.08213"><ele>355</ele></trkpt><trkpt lat="42.984511" lon="-9.082147"><ele>363</ele></trkpt><trkpt lat="42.985366" lon="-9.082467"><ele>369</ele></trkpt><trkpt lat="42.985228" lon="-9.083296"><ele>369</ele></trkpt><trkpt lat="42.985411" lon="-9.084305"><ele>369</ele></trkpt><trkpt lat="42.986024" lon="-9.085201"><ele>370</ele></trkpt><trkpt lat="42.986726" lon="-9.085899"><ele>369</ele></trkpt><trkpt lat="42.987623" lon="-9.085972"><ele>369</ele></trkpt><trkpt lat="42.988521" lon="-9.08604"><ele>373</ele></trkpt><trkpt lat="42.989362" lon="-9.086462"><ele>374</ele></trkpt><trkpt lat="42.990074" lon="-9.087158"><ele>373</ele></trkpt><trkpt lat="42.99" lon="-9.088369"><ele>366</ele></trkpt><trkpt lat="42.990475" lon="-9.089383"><ele>359</ele></trkpt><trkpt lat="42.991038" lon="-9.090342"><ele>352</ele></trkpt><trkpt lat="42.991607" lon="-9.091294"><ele>346</ele></trkpt><trkpt lat="42.992268" lon="-9.092127"><ele>342</ele></trkpt><trkpt lat="42.992947" lon="-9.092933"><ele>337</ele></trkpt><trkpt lat="42.993305" lon="-9.093832"><ele>331</ele></trkpt><trkpt lat="42.99358" lon="-9.094828"><ele>329</ele></trkpt><trkpt lat="42.99349" lon="-9.09597"><ele>328</ele></trkpt><trkpt lat="42.993824" lon="-9.0971"><ele>326</ele></trkpt><trkpt lat="42.994546" lon="-9.097748"><ele>325</ele></trkpt><trkpt lat="42.995023" lon="-9.09844"><ele>324</ele></trkpt><trkpt lat="42.995138" lon="-9.099647"><ele>324</ele></trkpt><trkpt lat="42.995309" lon="-9.10084"><ele>315</ele></trkpt><trkpt lat="42.995924" lon="-9.101651"><ele>301</ele></trkpt><trkpt lat="42.996585" lon="-9.102417"><ele>293</ele></trkpt><trkpt lat="42.996968" lon="-9.103506"><ele>282</ele></trkpt><trkpt lat="42.997616" lon="-9.104359"><ele>264</ele></trkpt><trkpt lat="42.998278" lon="-9.104927"><ele>254</ele></trkpt><trkpt lat="42.998991" lon="-9.105676"><ele>251</ele></trkpt><trkpt lat="42.999013" lon="-9.106303"><ele>244</ele></trkpt><trkpt lat="42.998693" lon="-9.106975"><ele>229</ele></trkpt><trkpt lat="42.998969" lon="-9.108129"><ele>206</ele></trkpt><trkpt lat="42.999485" lon="-9.108751"><ele>201</ele></trkpt><trkpt lat="43.000267" lon="-9.109307"><ele>199</ele></trkpt><trkpt lat="43.000733" lon="-9.110321"><ele>197</ele></trkpt><trkpt lat="43.00138" lon="-9.110817"><ele>198</ele></trkpt><trkpt lat="43.00225" lon="-9.110518"><ele>196</ele></trkpt><trkpt lat="43.003133" lon="-9.110306"><ele>195</ele></trkpt><trkpt lat="43.003307" lon="-9.11126"><ele>193</ele></trkpt><trkpt lat="43.003994" lon="-9.111935"><ele>192</ele></trkpt><trkpt lat="43.004746" lon="-9.112535"><ele>188</ele></trkpt><trkpt lat="43.005579" lon="-9.1122"><ele>188</ele></trkpt><trkpt lat="43.006263" lon="-9.111978"><ele>190</ele></trkpt><trkpt lat="43.00656" lon="-9.113083"><ele>194</ele></trkpt><trkpt lat="43.007442" lon="-9.113096"><ele>198</ele></trkpt><trkpt lat="43.008249" lon="-9.113357"><ele>199</ele></trkpt><trkpt lat="43.008669" lon="-9.11442"><ele>198</ele></trkpt><trkpt lat="43.009273" lon="-9.115322"><ele>196</ele></trkpt><trkpt lat="43.009793" lon="-9.116326"><ele>191</ele></trkpt><trkpt lat="43.010038" lon="-9.117446"><ele>187</ele></trkpt><trkpt lat="43.010667" lon="-9.118187"><ele>183</ele></trkpt><trkpt lat="43.011555" lon="-9.118347"><ele>184</ele></trkpt><trkpt lat="43.01223" lon="-9.11885"><ele>184</ele></trkpt><trkpt lat="43.012644" lon="-9.11994"><ele>179</ele></trkpt><trkpt lat="43.013263" lon="-9.120829"><ele>174</ele></trkpt><trkpt lat="43.013819" lon="-9.121714"><ele>170</ele></trkpt><trkpt lat="43.014394" lon="-9.122659"><ele>167</ele></trkpt><trkpt lat="43.014998" lon="-9.123502"><ele>165</ele></trkpt><trkpt lat="43.015874" lon="-9.123707"><ele>164</ele></trkpt><trkpt lat="43.016127" lon="-9.124544"><ele>158</ele></trkpt><trkpt lat="43.015925" lon="-9.125711"><ele>159</ele></trkpt><trkpt lat="43.015426" lon="-9.126725"><ele>164</ele></trkpt><trkpt lat="43.01525" lon="-9.127783"><ele>170</ele></trkpt><trkpt lat="43.015399" lon="-9.128996"><ele>180</ele></trkpt><trkpt lat="43.0154" lon="-9.130226"><ele>186</ele></trkpt><trkpt lat="43.015401" lon="-9.131456"><ele>189</ele></trkpt><trkpt lat="43.015376" lon="-9.132685"><ele>193</ele></trkpt><trkpt lat="43.016083" lon="-9.133271"><ele>191</ele></trkpt><trkpt lat="43.016836" lon="-9.133934"><ele>193</ele></trkpt><trkpt lat="43.017654" lon="-9.134431"><ele>200</ele></trkpt><trkpt lat="43.018453" lon="-9.134989"><ele>203</ele></trkpt><trkpt lat="43.019224" lon="-9.135208"><ele>204</ele></trkpt><trkpt lat="43.01974" lon="-9.136215"><ele>205</ele></trkpt><trkpt lat="43.020329" lon="-9.137019"><ele>199</ele></trkpt><trkpt lat="43.021195" lon="-9.13685"><ele>197</ele></trkpt><trkpt lat="43.021763" lon="-9.137788"><ele>185</ele></trkpt><trkpt lat="43.022247" lon="-9.138824"><ele>172</ele></trkpt><trkpt lat="43.023095" lon="-9.13904"><ele>169</ele></trkpt><trkpt lat="43.023213" lon="-9.140199"><ele>157</ele></trkpt><trkpt lat="43.023652" lon="-9.141199"><ele>145</ele></trkpt><trkpt lat="43.024471" lon="-9.141369"><ele>141</ele></trkpt><trkpt lat="43.025277" lon="-9.140894"><ele>143</ele></trkpt><trkpt lat="43.026137" lon="-9.140907"><ele>134</ele></trkpt><trkpt lat="43.026092" lon="-9.141998"><ele>126</ele></trkpt><trkpt lat="43.026422" lon="-9.143141"><ele>121</ele></trkpt><trkpt lat="43.0266" lon="-9.144328"><ele>116</ele></trkpt><trkpt lat="43.027028" lon="-9.145407"><ele>112</ele></trkpt><trkpt lat="43.027387" lon="-9.14653"><ele>106</ele></trkpt><trkpt lat="43.02785" lon="-9.147445"><ele>111</ele></trkpt><trkpt lat="43.028506" lon="-9.14828"><ele>119</ele></trkpt><trkpt lat="43.029269" lon="-9.148855"><ele>124</ele></trkpt><trkpt lat="43.030079" lon="-9.149301"><ele>127</ele></trkpt><trkpt lat="43.030949" lon="-9.149515"><ele>131</ele></trkpt><trkpt lat="43.031754" lon="-9.149933"><ele>131</ele></trkpt><trkpt lat="43.032421" lon="-9.150751"><ele>131</ele></trkpt><trkpt lat="43.033133" lon="-9.15149"><ele>126</ele></trkpt><trkpt lat="43.03376" lon="-9.152188"><ele>126</ele></trkpt><trkpt lat="43.034388" lon="-9.152361"><ele>129</ele></trkpt><trkpt lat="43.035184" lon="-9.152465"><ele>134</ele></trkpt><trkpt lat="43.036074" lon="-9.152288"><ele>136</ele></trkpt><trkpt lat="43.036967" lon="-9.152175"><ele>136</ele></trkpt><trkpt lat="43.037606" lon="-9.151338"><ele>131</ele></trkpt><trkpt lat="43.038429" lon="-9.150864"><ele>132</ele></trkpt><trkpt lat="43.039278" lon="-9.150462"><ele>132</ele></trkpt><trkpt lat="43.040118" lon="-9.150025"><ele>135</ele></trkpt><trkpt lat="43.040945" lon="-9.149558"><ele>138</ele></trkpt><trkpt lat="43.041699" lon="-9.148892"><ele>140</ele></trkpt><trkpt lat="43.042395" lon="-9.148972"><ele>141</ele></trkpt><trkpt lat="43.043226" lon="-9.149443"><ele>142</ele></trkpt><trkpt lat="43.044058" lon="-9.149912"><ele>144</ele></trkpt><trkpt lat="43.044897" lon="-9.150353"><ele>141</ele></trkpt><trkpt lat="43.045512" lon="-9.151228"><ele>134</ele></trkpt><trkpt lat="43.046006" lon="-9.152257"><ele>130</ele></trkpt><trkpt lat="43.046462" lon="-9.153315"><ele>128</ele></trkpt><trkpt lat="43.047234" lon="-9.15374"><ele>124</ele></trkpt><trkpt lat="43.048129" lon="-9.153754"><ele>125</ele></trkpt><trkpt lat="43.049006" lon="-9.153765"><ele>122</ele></trkpt><trkpt lat="43.049667" lon="-9.153037"><ele>124</ele></trkpt><trkpt lat="43.050194" lon="-9.154034"><ele>121</ele></trkpt><trkpt lat="43.050721" lon="-9.155032"><ele>124</ele></trkpt><trkpt lat="43.051335" lon="-9.155203"><ele>126</ele></trkpt><trkpt lat="43.052067" lon="-9.154494"><ele>130</ele></trkpt><trkpt lat="43.052953" lon="-9.154559"><ele>135</ele></trkpt><trkpt lat="43.053847" lon="-9.154493"><ele>138</ele></trkpt><trkpt lat="43.054745" lon="-9.154512"><ele>142</ele></trkpt><trkpt lat="43.055644" lon="-9.154481"><ele>150</ele></trkpt><trkpt lat="43.056543" lon="-9.154449"><ele>158</ele></trkpt><trkpt lat="43.057442" lon="-9.154416"><ele>165</ele></trkpt><trkpt lat="43.058281" lon="-9.154084"><ele>171</ele></trkpt><trkpt lat="43.059085" lon="-9.153534"><ele>174</ele></trkpt><trkpt lat="43.059882" lon="-9.152968"><ele>174</ele></trkpt><trkpt lat="43.060587" lon="-9.152218"><ele>179</ele></trkpt><trkpt lat="43.061309" lon="-9.151497"><ele>181</ele></trkpt><trkpt lat="43.062116" lon="-9.150955"><ele>183</ele></trkpt><trkpt lat="43.062918" lon="-9.150407"><ele>183</ele></trkpt><trkpt lat="43.063808" lon="-9.15056"><ele>185</ele></trkpt><trkpt lat="43.064702" lon="-9.150641"><ele>182</ele></trkpt><trkpt lat="43.065589" lon="-9.150838"><ele>179</ele></trkpt><trkpt lat="43.066486" lon="-9.150911"><ele>174</ele></trkpt><trkpt lat="43.067359" lon="-9.151129"><ele>170</ele></trkpt><trkpt lat="43.068139" lon="-9.15172"><ele>165</ele></trkpt><trkpt lat="43.069001" lon="-9.151981"><ele>155</ele></trkpt><trkpt lat="43.069865" lon="-9.152165"><ele>148</ele></trkpt><trkpt lat="43.07065" lon="-9.152759"><ele>140</ele></trkpt><trkpt lat="43.071515" lon="-9.152854"><ele>132</ele></trkpt><trkpt lat="43.072311" lon="-9.152368"><ele>120</ele></trkpt><trkpt lat="43.072998" lon="-9.152259"><ele>121</ele></trkpt><trkpt lat="43.073868" lon="-9.152459"><ele>120</ele></trkpt><trkpt lat="43.074733" lon="-9.152793"><ele>117</ele></trkpt><trkpt lat="43.075626" lon="-9.15292"><ele>114</ele></trkpt><trkpt lat="43.076521" lon="-9.153037"><ele>115</ele></trkpt><trkpt lat="43.077413" lon="-9.153187"><ele>117</ele></trkpt><trkpt lat="43.078306" lon="-9.153337"><ele>114</ele></trkpt><trkpt lat="43.079199" lon="-9.153487"><ele>109</ele></trkpt><trkpt lat="43.080095" lon="-9.153545"><ele>108</ele></trkpt><trkpt lat="43.080991" lon="-9.153482"><ele>102</ele></trkpt><trkpt lat="43.081814" lon="-9.153122"><ele>96</ele></trkpt><trkpt lat="43.082512" lon="-9.152417"><ele>92</ele></trkpt><trkpt lat="43.083289" lon="-9.151894"><ele>89</ele></trkpt><trkpt lat="43.083999" lon="-9.152246"><ele>84</ele></trkpt><trkpt lat="43.08437" lon="-9.153301"><ele>80</ele></trkpt><trkpt lat="43.084549" lon="-9.154494"><ele>75</ele></trkpt><trkpt lat="43.084633" lon="-9.155634"><ele>75</ele></trkpt><trkpt lat="43.084643" lon="-9.156852"><ele>75</ele></trkpt><trkpt lat="43.084641" lon="-9.158076"><ele>74</ele></trkpt><trkpt lat="43.084506" lon="-9.159292"><ele>71</ele></trkpt><trkpt lat="43.084139" lon="-9.160066"><ele>66</ele></trkpt><trkpt lat="43.084182" lon="-9.160789"><ele>62</ele></trkpt><trkpt lat="43.084244" lon="-9.16199"><ele>54</ele></trkpt><trkpt lat="43.084077" lon="-9.163174"><ele>47</ele></trkpt><trkpt lat="43.084308" lon="-9.164342"><ele>43</ele></trkpt><trkpt lat="43.084159" lon="-9.165438"><ele>48</ele></trkpt><trkpt lat="43.08447" lon="-9.166507"><ele>60</ele></trkpt><trkpt lat="43.085312" lon="-9.166416"><ele>59</ele></trkpt><trkpt lat="43.086152" lon="-9.166598"><ele>65</ele></trkpt><trkpt lat="43.087011" lon="-9.16625"><ele>68</ele></trkpt><trkpt lat="43.087253" lon="-9.166514"><ele>74</ele></trkpt><trkpt lat="43.086981" lon="-9.167666"><ele>90</ele></trkpt><trkpt lat="43.086491" lon="-9.168674"><ele>91</ele></trkpt><trkpt lat="43.0862" lon="-9.169825"><ele>97</ele></trkpt><trkpt lat="43.085636" lon="-9.170783"><ele>105</ele></trkpt><trkpt lat="43.08512" lon="-9.17178"><ele>114</ele></trkpt><trkpt lat="43.085675" lon="-9.172249"><ele>123</ele></trkpt><trkpt lat="43.086285" lon="-9.173154"><ele>137</ele></trkpt><trkpt lat="43.086906" lon="-9.174007"><ele>134</ele></trkpt><trkpt lat="43.087276" lon="-9.175129"><ele>133</ele></trkpt><trkpt lat="43.087841" lon="-9.176067"><ele>128</ele></trkpt><trkpt lat="43.088556" lon="-9.176814"><ele>120</ele></trkpt><trkpt lat="43.088933" lon="-9.177839"><ele>113</ele></trkpt><trkpt lat="43.089645" lon="-9.17858"><ele>110</ele></trkpt><trkpt lat="43.09049" lon="-9.178982"><ele>104</ele></trkpt><trkpt lat="43.091373" lon="-9.178839"><ele>101</ele></trkpt><trkpt lat="43.092178" lon="-9.178293"><ele>84</ele></trkpt><trkpt lat="43.092952" lon="-9.177669"><ele>64</ele></trkpt><trkpt lat="43.093809" lon="-9.177316"><ele>46</ele></trkpt><trkpt lat="43.094451" lon="-9.177755"><ele>33</ele></trkpt><trkpt lat="43.094359" lon="-9.178958"><ele>28</ele></trkpt><trkpt lat="43.094129" lon="-9.180112"><ele>25</ele></trkpt><trkpt lat="43.093798" lon="-9.18122"><ele>27</ele></trkpt><trkpt lat="43.092925" lon="-9.181377"><ele>27</ele></trkpt><trkpt lat="43.092061" lon="-9.181688"><ele>24</ele></trkpt><trkpt lat="43.09125" lon="-9.182211"><ele>24</ele></trkpt><trkpt lat="43.0905" lon="-9.182883"><ele>25</ele></trkpt><trkpt lat="43.089765" lon="-9.183585"><ele>41</ele></trkpt><trkpt lat="43.089043" lon="-9.184316"><ele>45</ele></trkpt><trkpt lat="43.088215" lon="-9.184708"><ele>55</ele></trkpt><trkpt lat="43.087376" lon="-9.184345"><ele>58</ele></trkpt><trkpt lat="43.086516" lon="-9.184093"><ele>55</ele></trkpt><trkpt lat="43.085646" lon="-9.183812"><ele>61</ele></trkpt><trkpt lat="43.084848" lon="-9.184201"><ele>61</ele></trkpt><trkpt lat="43.084298" lon="-9.185131"><ele>58</ele></trkpt><trkpt lat="43.084321" lon="-9.186343"><ele>51</ele></trkpt><trkpt lat="43.083845" lon="-9.187339"><ele>48</ele></trkpt><trkpt lat="43.083748" lon="-9.188526"><ele>44</ele></trkpt><trkpt lat="43.083017" lon="-9.189043"><ele>44</ele></trkpt><trkpt lat="43.083088" lon="-9.190195"><ele>41</ele></trkpt><trkpt lat="43.083" lon="-9.191279"><ele>34</ele></trkpt><trkpt lat="43.082919" lon="-9.1924"><ele>34</ele></trkpt><trkpt lat="43.083307" lon="-9.193507"><ele>27</ele></trkpt><trkpt lat="43.083851" lon="-9.194463"><ele>21</ele></trkpt><trkpt lat="43.08451" lon="-9.195301"><ele>15</ele></trkpt><trkpt lat="43.085292" lon="-9.195773"><ele>17</ele></trkpt><trkpt lat="43.08603" lon="-9.196308"><ele>27</ele></trkpt><trkpt lat="43.086301" lon="-9.197376"><ele>42</ele></trkpt><trkpt lat="43.085795" lon="-9.198266"><ele>53</ele></trkpt><trkpt lat="43.085891" lon="-9.198739"><ele>59</ele></trkpt><trkpt lat="43.085257" lon="-9.199603"><ele>59</ele></trkpt><trkpt lat="43.085321" lon="-9.200805"><ele>67</ele></trkpt><trkpt lat="43.085626" lon="-9.201911"><ele>74</ele></trkpt><trkpt lat="43.085946" lon="-9.202622"><ele>81</ele></trkpt><trkpt lat="43.086814" lon="-9.202555"><ele>86</ele></trkpt><trkpt lat="43.087629" lon="-9.202033"><ele>98</ele></trkpt><trkpt lat="43.088193" lon="-9.201875"><ele>102</ele></trkpt><trkpt lat="43.088917" lon="-9.202595"><ele>107</ele></trkpt><trkpt lat="43.089739" lon="-9.203076"><ele>110</ele></trkpt><trkpt lat="43.090476" lon="-9.203737"><ele>106</ele></trkpt><trkpt lat="43.091371" lon="-9.203827"><ele>102</ele></trkpt><trkpt lat="43.092264" lon="-9.203737"><ele>96</ele></trkpt><trkpt lat="43.093162" lon="-9.203705"><ele>92</ele></trkpt><trkpt lat="43.094049" lon="-9.20383"><ele>92</ele></trkpt><trkpt lat="43.094781" lon="-9.203653"><ele>85</ele></trkpt><trkpt lat="43.095598" lon="-9.203722"><ele>78</ele></trkpt><trkpt lat="43.096202" lon="-9.204542"><ele>76</ele></trkpt><trkpt lat="43.096563" lon="-9.205668"><ele>78</ele></trkpt><trkpt lat="43.097283" lon="-9.205379"><ele>72</ele></trkpt><trkpt lat="43.098134" lon="-9.205223"><ele>59</ele></trkpt><trkpt lat="43.098975" lon="-9.205307"><ele>41</ele></trkpt><trkpt lat="43.099706" lon="-9.205823"><ele>22</ele></trkpt><trkpt lat="43.099467" lon="-9.20694"><ele>15</ele></trkpt><trkpt lat="43.099526" lon="-9.208033"><ele>10</ele></trkpt><trkpt lat="43.099672" lon="-9.209014"><ele>7</ele></trkpt><trkpt lat="43.100015" lon="-9.210115"><ele>3</ele></trkpt><trkpt lat="43.100073" lon="-9.211337"><ele>5</ele></trkpt><trkpt lat="43.099486" lon="-9.212135"><ele>7</ele></trkpt><trkpt lat="43.098937" lon="-9.212872"><ele>7</ele></trkpt><trkpt lat="43.099785" lon="-9.213112"><ele>7</ele></trkpt><trkpt lat="43.100661" lon="-9.213198"><ele>11</ele></trkpt><trkpt lat="43.101508" lon="-9.213442"><ele>7</ele></trkpt><trkpt lat="43.102003" lon="-9.213757"><ele>8</ele></trkpt></trkseg></trk></gpx>