<?xml version="1.0" encoding="UTF-8"?>
<gpx version="1.1" creator="Mi Diario del Camino de Santiago" xmlns="http://www.topografix.com/GPX/1/1">
<metadata><name>Etapa F1: Santiago de Compostela - Negreira</name><copyright author="OpenStreetMap contributors"><license>https://opendatacommons.org/licenses/odbl/1-0/</license></copyright></metadata>
<trk><name>Etapa F1: Santiago de Compostela - Negreira</name><trkseg><trkpt lat="42.880494" lon="-8.545749"><ele>255</ele></trkpt><trkpt lat="42.88084" lon="-8.546485"><ele>248</ele></trkpt><trkpt lat="42.880555" lon="-8.547647"><ele>235</ele></trkpt><trkpt lat="42.880229" lon="-8.54879"><ele>234</ele></trkpt><trkpt lat="42.880441" lon="-8.549566"><ele>235</ele></trkpt><trkpt lat="42.880212" lon="-8.550745"><ele>234</ele></trkpt><trkpt lat="42.879824" lon="-8.551849"><ele>231</ele></trkpt><trkpt lat="42.879371" lon="-8.552907"><ele>230</ele></trkpt><trkpt lat="42.878908" lon="-8.55394"><ele>231</ele></trkpt><trkpt lat="42.878595" lon="-8.555064"><ele>232</ele></trkpt><trkpt lat="42.87863" lon="-8.556205"><ele>229</ele></trkpt><trkpt lat="42.878925" lon="-8.557329"><ele>222</ele></trkpt><trkpt lat="42.878885" lon="-8.558408"><ele>213</ele></trkpt><trkpt lat="42.878969" lon="-8.559567"><ele>202</ele></trkpt><trkpt lat="42.879121" lon="-8.560602"><ele>194</ele></trkpt><trkpt lat="42.879041" lon="-8.561771"><ele>192</ele></trkpt><trkpt lat="42.879159" lon="-8.562966"><ele>194</ele></trkpt><trkpt lat="42.878823" lon="-8.564033"><ele>201</ele></trkpt><trkpt lat="42.87897" lon="-8.565187"><ele>212</ele></trkpt><trkpt lat="42.879008" lon="-8.566385"><ele>218</ele></trkpt><trkpt lat="42.879396" lon="-8.567471"><ele>232</ele></trkpt><trkpt lat="42.879147" lon="-8.568576"><ele>235</ele></trkpt><trkpt lat="42.878434" lon="-8.567979"><ele>228</ele></trkpt><trkpt lat="42.877675" lon="-8.567408"><ele>221</ele></trkpt><trkpt lat="42.877333" lon="-8.568401"><ele>230</ele></trkpt><trkpt lat="42.877185" lon="-8.569609"><ele>237</ele></trkpt><trkpt lat="42.876422" lon="-8.570102"><ele>238</ele></trkpt><trkpt lat="42.875666" lon="-8.570675"><ele>234</ele></trkpt><trkpt lat="42.875158" lon="-8.571595"><ele>233</ele></trkpt><trkpt lat="42.875229" lon="-8.572807"><ele>229</ele></trkpt><trkpt lat="42.875506" lon="-8.573956"><ele>224</ele></trkpt><trkpt lat="42.875608" lon="-8.575168"><ele>220</ele></trkpt><trkpt lat="42.875698" lon="-8.576354"><ele>213</ele></trkpt><trkpt lat="42.876473" lon="-8.576596"><ele>205</ele></trkpt><trkpt lat="42.877231" lon="-8.576573"><ele>200</ele></trkpt><trkpt lat="42.877964" lon="-8.577203"><ele>184</ele></trkpt><trkpt lat="42.878811" lon="-8.577472"><ele>173</ele></trkpt><trkpt lat="42.878939" lon="-8.577994"><ele>161</ele></trkpt><trkpt lat="42.879441" lon="-8.578916"><ele>153</ele></trkpt><trkpt lat="42.879301" lon="-8.5801"><ele>158</ele></trkpt><trkpt lat="42.878746" lon="-8.58103"><ele>162</ele></trkpt><trkpt lat="42.877961" lon="-8.581628"><ele>161</ele></trkpt><trkpt lat="42.87777" lon="-8.58257"><ele>162</ele></trkpt><trkpt lat="42.878034" lon="-8.583742"><ele>160</ele></trkpt><trkpt lat="42.8783" lon="-8.584915"><ele>159</ele></trkpt><trkpt lat="42.879136" lon="-8.585109"><ele>169</ele></trkpt><trkpt lat="42.879055" lon="-8.586317"><ele>155</ele></trkpt><trkpt lat="42.879772" lon="-8.587036"><ele>153</ele></trkpt><trkpt lat="42.880347" lon="-8.587655"><ele>150</ele></trkpt><trkpt lat="42.880122" lon="-8.588843"><ele>146</ele></trkpt><trkpt lat="42.879569" lon="-8.589751"><ele>152</ele></trkpt><trkpt lat="42.878757" lon="-8.590274"><ele>156</ele></trkpt><trkpt lat="42.878857" lon="-8.591002"><ele>162</ele></trkpt><trkpt lat="42.879437" lon="-8.591938"><ele>166</ele></trkpt><trkpt lat="42.88008" lon="-8.592796"><ele>173</ele></trkpt><trkpt lat="42.880469" lon="-8.59388"><ele>175</ele></trkpt><trkpt lat="42.881206" lon="-8.59434"><ele>179</ele></trkpt><trkpt lat="42.881504" lon="-8.595287"><ele>189</ele></trkpt><trkpt lat="42.880751" lon="-8.595877"><ele>186</ele></trkpt><trkpt lat="42.879923" lon="-8.596306"><ele>186</ele></trkpt><trkpt lat="42.880103" lon="-8.597286"><ele>194</ele></trkpt><trkpt lat="42.880289" lon="-8.598422"><ele>212</ele></trkpt><trkpt lat="42.879935" lon="-8.599482"><ele>212</ele></trkpt><trkpt lat="42.879287" lon="-8.600311"><ele>203</ele></trkpt><trkpt lat="42.879418" lon="-8.601442"><ele>193</ele></trkpt><trkpt lat="42.879959" lon="-8.602421"><ele>186</ele></trkpt><trkpt lat="42.880647" lon="-8.603161"><ele>190</ele></trkpt><trkpt lat="42.881156" lon="-8.604072"><ele>185</ele></trkpt><trkpt lat="42.881485" lon="-8.605076"><ele>178</ele></trkpt><trkpt lat="42.881612" lon="-8.606204"><ele>172</ele></trkpt><trkpt lat="42.88245" lon="-8.606621"><ele>168</ele></trkpt><trkpt lat="42.882703" lon="-8.607219"><ele>160</ele></trkpt><trkpt lat="42.883342" lon="-8.607774"><ele>151</ele></trkpt><trkpt lat="42.882657" lon="-8.608563"><ele>151</ele></trkpt><trkpt lat="42.881943" lon="-8.60931"><ele>147</ele></trkpt><trkpt lat="42.881508" lon="-8.6102"><ele>145</ele></trkpt><trkpt lat="42.881617" lon="-8.611418"><ele>144</ele></trkpt><trkpt lat="42.881709" lon="-8.612636"><ele>151</ele></trkpt><trkpt lat="42.8816" lon="-8.613847"><ele>157</ele></trkpt><trkpt lat="42.881303" lon="-8.615006"><ele>163</ele></trkpt><trkpt lat="42.881007" lon="-8.616165"><ele>170</ele></trkpt><trkpt lat="42.880806" lon="-8.617255"><ele>169</ele></trkpt><trkpt lat="42.881438" lon="-8.618124"><ele>179</ele></trkpt><trkpt lat="42.881315" lon="-8.619283"><ele>180</ele></trkpt><trkpt lat="42.881038" lon="-8.620451"><ele>177</ele></trkpt><trkpt lat="42.881271" lon="-8.621279"><ele>182</ele></trkpt><trkpt lat="42.881685" lon="-8.621833"><ele>185</ele></trkpt><trkpt lat="42.882001" lon="-8.622799"><ele>183</ele></trkpt><trkpt lat="42.881557" lon="-8.623652"><ele>174</ele></trkpt><trkpt lat="42.88117" lon="-8.624396"><ele>173</ele></trkpt><trkpt lat="42.881772" lon="-8.625308"><ele>166</ele></trkpt><trkpt lat="42.882606" lon="-8.62573"><ele>156</ele></trkpt><trkpt lat="42.883501" lon="-8.625721"><ele>151</ele></trkpt><trkpt lat="42.884194" lon="-8.626455"><ele>144</ele></trkpt><trkpt lat="42.884782" lon="-8.627383"><ele>136</ele></trkpt><trkpt lat="42.885376" lon="-8.628182"><ele>134</ele></trkpt><trkpt lat="42.885918" lon="-8.62916"><ele>132</ele></trkpt><trkpt lat="42.88627" lon="-8.630269"><ele>128</ele></trkpt><trkpt lat="42.886414" lon="-8.631418"><ele>118</ele></trkpt><trkpt lat="42.886434" lon="-8.632568"><ele>106</ele></trkpt><trkpt lat="42.886155" lon="-8.633661"><ele>97</ele></trkpt><trkpt lat="42.886542" lon="-8.634694"><ele>93</ele></trkpt><trkpt lat="42.887334" lon="-8.634599"><ele>95</ele></trkpt><trkpt lat="42.88784" lon="-8.635255"><ele>97</ele></trkpt><trkpt lat="42.888029" lon="-8.636454"><ele>95</ele></trkpt><trkpt lat="42.888134" lon="-8.637673"><ele>91</ele></trkpt><trkpt lat="42.888251" lon="-8.63889"><ele>83</ele></trkpt><trkpt lat="42.888367" lon="-8.640107"><ele>76</ele></trkpt><trkpt lat="42.888482" lon="-8.641324"><ele>70</ele></trkpt><trkpt lat="42.888598" lon="-8.642542"><ele>64</ele></trkpt><trkpt lat="42.888712" lon="-8.643759"><ele>61</ele></trkpt><trkpt lat="42.888824" lon="-8.644977"><ele>60</ele></trkpt><trkpt lat="42.888959" lon="-8.64619"><ele>56</ele></trkpt><trkpt lat="42.889163" lon="-8.647385"><ele>52</ele></trkpt><trkpt lat="42.889421" lon="-8.648561"><ele>49</ele></trkpt><trkpt lat="42.889684" lon="-8.649735"><ele>50</ele></trkpt><trkpt lat="42.889477" lon="-8.650418"><ele>55</ele></trkpt><trkpt lat="42.888613" lon="-8.650698"><ele>60</ele></trkpt><trkpt lat="42.88864" lon="-8.651807"><ele>71</ele></trkpt><trkpt lat="42.888851" lon="-8.653"><ele>81</ele></trkpt><trkpt lat="42.889042" lon="-8.654199"><ele>87</ele></trkpt><trkpt lat="42.889215" lon="-8.655402"><ele>95</ele></trkpt><trkpt lat="42.889215" lon="-8.656626"><ele>110</ele></trkpt><trkpt lat="42.889305" lon="-8.657841"><ele>122</ele></trkpt><trkpt lat="42.88893" lon="-8.658907"><ele>138</ele></trkpt><trkpt lat="42.888874" lon="-8.660068"><ele>152</ele></trkpt><trkpt lat="42.889098" lon="-8.661136"><ele>167</ele></trkpt><trkpt lat="42.889043" lon="-8.661712"><ele>177</ele></trkpt><trkpt lat="42.888224" lon="-8.66215"><ele>188</ele></trkpt><trkpt lat="42.887388" lon="-8.662594"><ele>197</ele></trkpt><trkpt lat="42.886606" lon="-8.66319"><ele>199</ele></trkpt><trkpt lat="42.886506" lon="-8.663875"><ele>207</ele></trkpt><trkpt lat="42.887145" lon="-8.664436"><ele>221</ele></trkpt><trkpt lat="42.888013" lon="-8.66445"><ele>228</ele></trkpt><trkpt lat="42.888874" lon="-8.664793"><ele>239</ele></trkpt><trkpt lat="42.889574" lon="-8.665539"><ele>249</ele></trkpt><trkpt lat="42.890118" lon="-8.666513"><ele>264</ele></trkpt><trkpt lat="42.890537" lon="-8.6676"><ele>271</ele></trkpt><trkpt lat="42.890582" lon="-8.668773"><ele>279</ele></trkpt><trkpt lat="42.890488" lon="-8.669974"><ele>284</ele></trkpt><trkpt lat="42.890747" lon="-8.671138"><ele>278</ele></trkpt><trkpt lat="42.891331" lon="-8.672071"><ele>268</ele></trkpt><trkpt lat="42.891993" lon="-8.672787"><ele>266</ele></trkpt><trkpt lat="42.892142" lon="-8.673997"><ele>260</ele></trkpt><trkpt lat="42.892286" lon="-8.675209"><ele>253</ele></trkpt><trkpt lat="42.89244" lon="-8.676418"><ele>247</ele></trkpt><trkpt lat="42.892595" lon="-8.677627"><ele>242</ele></trkpt><trkpt lat="42.892616" lon="-8.678842"><ele>240</ele></trkpt><trkpt lat="42.892388" lon="-8.680029"><ele>238</ele></trkpt><trkpt lat="42.892351" lon="-8.68119"><ele>231</ele></trkpt><trkpt lat="42.892919" lon="-8.682126"><ele>223</ele></trkpt><trkpt lat="42.893373" lon="-8.683162"><ele>215</ele></trkpt><trkpt lat="42.89407" lon="-8.68392"><ele>214</ele></trkpt><trkpt lat="42.894383" lon="-8.68507"><ele>216</ele></trkpt><trkpt lat="42.895013" lon="-8.68591"><ele>219</ele></trkpt><trkpt lat="42.895746" lon="-8.686622"><ele>215</ele></trkpt><trkpt lat="42.896429" lon="-8.68742"><ele>207</ele></trkpt><trkpt lat="42.897249" lon="-8.687858"><ele>200</ele></trkpt><trkpt lat="42.89813" lon="-8.688108"><ele>193</ele></trkpt><trkpt lat="42.89901" lon="-8.688359"><ele>187</ele></trkpt><trkpt lat="42.89989" lon="-8.688614"><ele>185</ele></trkpt><trkpt lat="42.900775" lon="-8.688824"><ele>186</ele></trkpt><trkpt lat="42.901661" lon="-8.689013"><ele>187</ele></trkpt><trkpt lat="42.902543" lon="-8.68923"><ele>183</ele></trkpt><trkpt lat="42.903417" lon="-8.689019"><ele>171</ele></trkpt><trkpt lat="42.903752" lon="-8.689902"><ele>165</ele></trkpt><trkpt lat="42.903633" lon="-8.691114"><ele>156</ele></trkpt><trkpt lat="42.903491" lon="-8.69227"><ele>153</ele></trkpt><trkpt lat="42.904063" lon="-8.693167"><ele>155</ele></trkpt><trkpt lat="42.904848" lon="-8.693767"><ele>147</ele></trkpt><trkpt lat="42.905109" lon="-8.694797"><ele>146</ele></trkpt><trkpt lat="42.905797" lon="-8.695552"><ele>156</ele></trkpt><trkpt lat="42.90555" lon="-8.696671"><ele>158</ele></trkpt><trkpt lat="42.905806" lon="-8.697832"><ele>159</ele></trkpt><trkpt lat="42.905716" lon="-8.698799"><ele>153</ele></trkpt><trkpt lat="42.905015" lon="-8.699477"><ele>150</ele></trkpt><trkpt lat="42.904427" lon="-8.700406"><ele>150</ele></trkpt><trkpt lat="42.903833" lon="-8.701328"><ele>151</ele></trkpt><trkpt lat="42.903248" lon="-8.70226"><ele>159</ele></trkpt><trkpt lat="42.902639" lon="-8.703118"><ele>161</ele></trkpt><trkpt lat="42.901811" lon="-8.703561"><ele>152</ele></trkpt><trkpt lat="42.901562" lon="-8.704674"><ele>151</ele></trkpt><trkpt lat="42.901751" lon="-8.705859"><ele>150</ele></trkpt><trkpt lat="42.901727" lon="-8.707085"><ele>146</ele></trkpt><trkpt lat="42.902045" lon="-8.708145"><ele>145</ele></trkpt><trkpt lat="42.902547" lon="-8.709125"><ele>145</ele></trkpt><trkpt lat="42.903129" lon="-8.710061"><ele>145</ele></trkpt><trkpt lat="42.903861" lon="-8.710753"><ele>153</ele></trkpt><trkpt lat="42.904297" lon="-8.711748"><ele>149</ele></trkpt><trkpt lat="42.904603" lon="-8.712903"><ele>148</ele></trkpt><trkpt lat="42.904909" lon="-8.714054"><ele>151</ele></trkpt><trkpt lat="42.905391" lon="-8.715089"><ele>148</ele></trkpt><trkpt lat="42.905778" lon="-8.716176"><ele>144</ele></trkpt><trkpt lat="42.905938" lon="-8.717384"><ele>145</ele></trkpt><trkpt lat="42.906019" lon="-8.718597"><ele>148</ele></trkpt><trkpt lat="42.90597" lon="-8.719822"><ele>148</ele></trkpt><trkpt lat="42.905925" lon="-8.721044"><ele>159</ele></trkpt><trkpt lat="42.906354" lon="-8.722115"><ele>167</ele></trkpt><trkpt lat="42.906817" lon="-8.723166"><ele>173</ele></trkpt><trkpt lat="42.907297" lon="-8.724203"><ele>186</ele></trkpt><trkpt lat="42.907924" lon="-8.725083"><ele>193</ele></trkpt><trkpt lat="42.908475" lon="-8.726049"><ele>192</ele></trkpt><trkpt lat="42.908538" lon="-8.727249"><ele>185</ele></trkpt><trkpt lat="42.908804" lon="-8.728421"><ele>180</ele></trkpt><trkpt lat="42.909072" lon="-8.729592"><ele>177</ele></trkpt><trkpt lat="42.909159" lon="-8.730804"><ele>169</ele></trkpt><trkpt lat="42.909143" lon="-8.732028"><ele>164</ele></trkpt><trkpt lat="42.90981" lon="-8.732768"><ele>158</ele></trkpt><trkpt lat="42.909678" lon="-8.733968"><ele>158</ele></trkpt><trkpt lat="42.909417" lon="-8.735137"><ele>164</ele></trkpt><trkpt lat="42.909477" lon="-8.736277"><ele>166</ele></trkpt><trkpt lat="42.908835" lon="-8.737132"><ele>161</ele></trkpt><trkpt lat="42.908185" lon="-8.737981"><ele>155</ele></trkpt><trkpt lat="42.907559" lon="-8.738796"><ele>149</ele></trkpt></trkseg></trk></gpx>