<?xml version="1.0" encoding="UTF-8"?>
<gpx version="1.1" creator="Mi Diario del Camino de Santiago" xmlns="http://www.topografix.com/GPX/1/1">
<metadata><name>Etapa 4: Pamplona - Puente la Reina</name><copyright author="OpenStreetMap contributors"><license>https://opendatacommons.org/licenses/odbl/1-0/</license></copyright></metadata>
<trk><name>Etapa 4: Pamplona - Puente la Reina</name><trkseg><trkpt lat="42.81881" lon="-1.642677"><ele>457</ele></trkpt><trkpt lat="42.818323" lon="-1.643645"><ele>456</ele></trkpt><trkpt lat="42.818288" lon="-1.644701"><ele>457</ele></trkpt><trkpt lat="42.818097" lon="-1.645858"><ele>458</ele></trkpt><trkpt lat="42.817751" lon="-1.646989"><ele>459</ele></trkpt><trkpt lat="42.817405" lon="-1.648121"><ele>457</ele></trkpt><trkpt lat="42.817005" lon="-1.649218"><ele>453</ele></trkpt><trkpt lat="42.816458" lon="-1.650129"><ele>449</ele></trkpt><trkpt lat="42.815831" lon="-1.651008"><ele>448</ele></trkpt><trkpt lat="42.815254" lon="-1.651691"><ele>451</ele></trkpt><trkpt lat="42.814625" lon="-1.652254"><ele>451</ele></trkpt><trkpt lat="42.813854" lon="-1.652597"><ele>454</ele></trkpt><trkpt lat="42.812993" lon="-1.652947"><ele>452</ele></trkpt><trkpt lat="42.812127" lon="-1.653193"><ele>454</ele></trkpt><trkpt lat="42.811254" lon="-1.652901"><ele>450</ele></trkpt><trkpt lat="42.81042" lon="-1.652516"><ele>451</ele></trkpt><trkpt lat="42.809832" lon="-1.652163"><ele>452</ele></trkpt><trkpt lat="42.80949" lon="-1.653004"><ele>455</ele></trkpt><trkpt lat="42.808864" lon="-1.653336"><ele>458</ele></trkpt><trkpt lat="42.808295" lon="-1.654281"><ele>455</ele></trkpt><trkpt lat="42.807783" lon="-1.655151"><ele>454</ele></trkpt><trkpt lat="42.80722" lon="-1.656107"><ele>452</ele></trkpt><trkpt lat="42.8066" lon="-1.656904"><ele>451</ele></trkpt><trkpt lat="42.80626" lon="-1.657922"><ele>448</ele></trkpt><trkpt lat="42.805727" lon="-1.658769"><ele>446</ele></trkpt><trkpt lat="42.805089" lon="-1.659633"><ele>442</ele></trkpt><trkpt lat="42.804397" lon="-1.660319"><ele>432</ele></trkpt><trkpt lat="42.803693" lon="-1.661008"><ele>432</ele></trkpt><trkpt lat="42.802941" lon="-1.66168"><ele>428</ele></trkpt><trkpt lat="42.802253" lon="-1.662463"><ele>420</ele></trkpt><trkpt lat="42.80157" lon="-1.663178"><ele>417</ele></trkpt><trkpt lat="42.801414" lon="-1.664211"><ele>416</ele></trkpt><trkpt lat="42.801017" lon="-1.665155"><ele>415</ele></trkpt><trkpt lat="42.800289" lon="-1.665549"><ele>414</ele></trkpt><trkpt lat="42.799479" lon="-1.665997"><ele>413</ele></trkpt><trkpt lat="42.798647" lon="-1.66646"><ele>411</ele></trkpt><trkpt lat="42.797884" lon="-1.667104"><ele>409</ele></trkpt><trkpt lat="42.797349" lon="-1.668071"><ele>413</ele></trkpt><trkpt lat="42.796645" lon="-1.668822"><ele>412</ele></trkpt><trkpt lat="42.795917" lon="-1.669512"><ele>413</ele></trkpt><trkpt lat="42.795496" lon="-1.670584"><ele>415</ele></trkpt><trkpt lat="42.795081" lon="-1.671655"><ele>416</ele></trkpt><trkpt lat="42.794421" lon="-1.672482"><ele>417</ele></trkpt><trkpt lat="42.793845" lon="-1.673189"><ele>420</ele></trkpt><trkpt lat="42.792998" lon="-1.673545"><ele>428</ele></trkpt><trkpt lat="42.792148" lon="-1.673943"><ele>431</ele></trkpt><trkpt lat="42.791344" lon="-1.674452"><ele>435</ele></trkpt><trkpt lat="42.790525" lon="-1.674933"><ele>442</ele></trkpt><trkpt lat="42.789643" lon="-1.675155"><ele>457</ele></trkpt><trkpt lat="42.788746" lon="-1.675165"><ele>466</ele></trkpt><trkpt lat="42.788031" lon="-1.675815"><ele>467</ele></trkpt><trkpt lat="42.787795" lon="-1.67633"><ele>467</ele></trkpt><trkpt lat="42.786971" lon="-1.676808"><ele>462</ele></trkpt><trkpt lat="42.786264" lon="-1.677291"><ele>460</ele></trkpt><trkpt lat="42.786029" lon="-1.678232"><ele>458</ele></trkpt><trkpt lat="42.785469" lon="-1.678936"><ele>453</ele></trkpt><trkpt lat="42.784745" lon="-1.679662"><ele>447</ele></trkpt><trkpt lat="42.784097" lon="-1.680384"><ele>441</ele></trkpt><trkpt lat="42.783311" lon="-1.680976"><ele>437</ele></trkpt><trkpt lat="42.78258" lon="-1.681676"><ele>434</ele></trkpt><trkpt lat="42.781958" lon="-1.682554"><ele>435</ele></trkpt><trkpt lat="42.781493" lon="-1.683564"><ele>435</ele></trkpt><trkpt lat="42.780931" lon="-1.684521"><ele>437</ele></trkpt><trkpt lat="42.780369" lon="-1.685477"><ele>438</ele></trkpt><trkpt lat="42.779737" lon="-1.686298"><ele>441</ele></trkpt><trkpt lat="42.779095" lon="-1.687156"><ele>444</ele></trkpt><trkpt lat="42.778452" lon="-1.688012"><ele>443</ele></trkpt><trkpt lat="42.778013" lon="-1.688954"><ele>443</ele></trkpt><trkpt lat="42.777871" lon="-1.68995"><ele>445</ele></trkpt><trkpt lat="42.77703" lon="-1.690385"><ele>447</ele></trkpt><trkpt lat="42.776187" lon="-1.69081"><ele>454</ele></trkpt><trkpt lat="42.775365" lon="-1.691272"><ele>458</ele></trkpt><trkpt lat="42.774662" lon="-1.692021"><ele>464</ele></trkpt><trkpt lat="42.773997" lon="-1.69284"><ele>469</ele></trkpt><trkpt lat="42.773344" lon="-1.69368"><ele>474</ele></trkpt><trkpt lat="42.772683" lon="-1.694407"><ele>480</ele></trkpt><trkpt lat="42.77206" lon="-1.695289"><ele>485</ele></trkpt><trkpt lat="42.771583" lon="-1.696327"><ele>491</ele></trkpt><trkpt lat="42.771305" lon="-1.69747"><ele>496</ele></trkpt><trkpt lat="42.770858" lon="-1.698516"><ele>494</ele></trkpt><trkpt lat="42.77024" lon="-1.699403"><ele>490</ele></trkpt><trkpt lat="42.769514" lon="-1.700126"><ele>490</ele></trkpt><trkpt lat="42.76876" lon="-1.700787"><ele>488</ele></trkpt><trkpt lat="42.767933" lon="-1.701269"><ele>491</ele></trkpt><trkpt lat="42.76716" lon="-1.701876"><ele>493</ele></trkpt><trkpt lat="42.766547" lon="-1.70277"><ele>492</ele></trkpt><trkpt lat="42.76604" lon="-1.703781"><ele>490</ele></trkpt><trkpt lat="42.765514" lon="-1.704772"><ele>491</ele></trkpt><trkpt lat="42.765131" lon="-1.705864"><ele>491</ele></trkpt><trkpt lat="42.764864" lon="-1.707034"><ele>491</ele></trkpt><trkpt lat="42.76436" lon="-1.708042"><ele>500</ele></trkpt><trkpt lat="42.763634" lon="-1.708762"><ele>502</ele></trkpt><trkpt lat="42.763067" lon="-1.709632"><ele>502</ele></trkpt><trkpt lat="42.76257" lon="-1.710564"><ele>508</ele></trkpt><trkpt lat="42.761933" lon="-1.711406"><ele>514</ele></trkpt><trkpt lat="42.761441" lon="-1.71242"><ele>519</ele></trkpt><trkpt lat="42.760659" lon="-1.713013"><ele>523</ele></trkpt><trkpt lat="42.759812" lon="-1.713423"><ele>529</ele></trkpt><trkpt lat="42.758975" lon="-1.713866"><ele>535</ele></trkpt><trkpt lat="42.758137" lon="-1.71431"><ele>541</ele></trkpt><trkpt lat="42.757301" lon="-1.714763"><ele>549</ele></trkpt><trkpt lat="42.756509" lon="-1.715335"><ele>549</ele></trkpt><trkpt lat="42.755733" lon="-1.715952"><ele>549</ele></trkpt><trkpt lat="42.754977" lon="-1.716613"><ele>556</ele></trkpt><trkpt lat="42.754227" lon="-1.71729"><ele>575</ele></trkpt><trkpt lat="42.753475" lon="-1.717947"><ele>583</ele></trkpt><trkpt lat="42.752637" lon="-1.718356"><ele>597</ele></trkpt><trkpt lat="42.751925" lon="-1.719064"><ele>602</ele></trkpt><trkpt lat="42.751175" lon="-1.719725"><ele>596</ele></trkpt><trkpt lat="42.750308" lon="-1.719805"><ele>596</ele></trkpt><trkpt lat="42.749597" lon="-1.720334"><ele>606</ele></trkpt><trkpt lat="42.749058" lon="-1.721313"><ele>615</ele></trkpt><trkpt lat="42.748515" lon="-1.722289"><ele>619</ele></trkpt><trkpt lat="42.747871" lon="-1.723117"><ele>621</ele></trkpt><trkpt lat="42.747003" lon="-1.72341"><ele>623</ele></trkpt><trkpt lat="42.746136" lon="-1.723637"><ele>627</ele></trkpt><trkpt lat="42.745417" lon="-1.72437"><ele>625</ele></trkpt><trkpt lat="42.744656" lon="-1.724991"><ele>627</ele></trkpt><trkpt lat="42.743867" lon="-1.725577"><ele>629</ele></trkpt><trkpt lat="42.743202" lon="-1.726328"><ele>632</ele></trkpt><trkpt lat="42.74302" lon="-1.727518"><ele>643</ele></trkpt><trkpt lat="42.742791" lon="-1.728397"><ele>647</ele></trkpt><trkpt lat="42.742008" lon="-1.728233"><ele>655</ele></trkpt><trkpt lat="42.741381" lon="-1.729064"><ele>663</ele></trkpt><trkpt lat="42.740646" lon="-1.729663"><ele>676</ele></trkpt><trkpt lat="42.740462" lon="-1.730827"><ele>684</ele></trkpt><trkpt lat="42.739934" lon="-1.731784"><ele>697</ele></trkpt><trkpt lat="42.739447" lon="-1.73274"><ele>701</ele></trkpt><trkpt lat="42.738885" lon="-1.733683"><ele>707</ele></trkpt><trkpt lat="42.73841" lon="-1.734714"><ele>711</ele></trkpt><trkpt lat="42.738007" lon="-1.735798"><ele>711</ele></trkpt><trkpt lat="42.737729" lon="-1.736952"><ele>717</ele></trkpt><trkpt lat="42.737395" lon="-1.738084"><ele>728</ele></trkpt><trkpt lat="42.737027" lon="-1.739186"><ele>730</ele></trkpt><trkpt lat="42.736377" lon="-1.740012"><ele>741</ele></trkpt><trkpt lat="42.736037" lon="-1.741144"><ele>745</ele></trkpt><trkpt lat="42.735853" lon="-1.742339"><ele>745</ele></trkpt><trkpt lat="42.735306" lon="-1.743072"><ele>744</ele></trkpt><trkpt lat="42.735035" lon="-1.744216"><ele>737</ele></trkpt><trkpt lat="42.734949" lon="-1.745421"><ele>728</ele></trkpt><trkpt lat="42.73464" lon="-1.746553"><ele>712</ele></trkpt><trkpt lat="42.734058" lon="-1.747462"><ele>691</ele></trkpt><trkpt lat="42.733334" lon="-1.748159"><ele>669</ele></trkpt><trkpt lat="42.732612" lon="-1.748853"><ele>652</ele></trkpt><trkpt lat="42.731728" lon="-1.74898"><ele>638</ele></trkpt><trkpt lat="42.730851" lon="-1.749147"><ele>610</ele></trkpt><trkpt lat="42.730005" lon="-1.748894"><ele>596</ele></trkpt><trkpt lat="42.729142" lon="-1.74877"><ele>579</ele></trkpt><trkpt lat="42.728286" lon="-1.749055"><ele>569</ele></trkpt><trkpt lat="42.727401" lon="-1.749258"><ele>573</ele></trkpt><trkpt lat="42.726541" lon="-1.749596"><ele>570</ele></trkpt><trkpt lat="42.725649" lon="-1.749648"><ele>553</ele></trkpt><trkpt lat="42.724755" lon="-1.749527"><ele>537</ele></trkpt><trkpt lat="42.723859" lon="-1.749498"><ele>540</ele></trkpt><trkpt lat="42.723004" lon="-1.749822"><ele>539</ele></trkpt><trkpt lat="42.722254" lon="-1.750497"><ele>533</ele></trkpt><trkpt lat="42.721589" lon="-1.751313"><ele>524</ele></trkpt><trkpt lat="42.720968" lon="-1.752193"><ele>515</ele></trkpt><trkpt lat="42.720259" lon="-1.752937"><ele>511</ele></trkpt><trkpt lat="42.719473" lon="-1.753511"><ele>507</ele></trkpt><trkpt lat="42.718581" lon="-1.753646"><ele>501</ele></trkpt><trkpt lat="42.717687" lon="-1.753661"><ele>499</ele></trkpt><trkpt lat="42.716863" lon="-1.753729"><ele>499</ele></trkpt><trkpt lat="42.716067" lon="-1.754289"><ele>498</ele></trkpt><trkpt lat="42.715464" lon="-1.755146"><ele>494</ele></trkpt><trkpt lat="42.714844" lon="-1.755992"><ele>502</ele></trkpt><trkpt lat="42.714079" lon="-1.756636"><ele>508</ele></trkpt><trkpt lat="42.713257" lon="-1.757115"><ele>505</ele></trkpt><trkpt lat="42.712384" lon="-1.757409"><ele>499</ele></trkpt><trkpt lat="42.711521" lon="-1.757746"><ele>499</ele></trkpt><trkpt lat="42.7107" lon="-1.758238"><ele>498</ele></trkpt><trkpt lat="42.710176" lon="-1.759217"><ele>495</ele></trkpt><trkpt lat="42.70958" lon="-1.760133"><ele>491</ele></trkpt><trkpt lat="42.708974" lon="-1.761037"><ele>488</ele></trkpt><trkpt lat="42.70818" lon="-1.761256"><ele>488</ele></trkpt><trkpt lat="42.707455" lon="-1.760799"><ele>488</ele></trkpt><trkpt lat="42.706565" lon="-1.760957"><ele>485</ele></trkpt><trkpt lat="42.705814" lon="-1.760662"><ele>477</ele></trkpt><trkpt lat="42.705375" lon="-1.759623"><ele>468</ele></trkpt><trkpt lat="42.704695" lon="-1.760207"><ele>463</ele></trkpt><trkpt lat="42.703806" lon="-1.760372"><ele>464</ele></trkpt><trkpt lat="42.702952" lon="-1.760672"><ele>470</ele></trkpt><trkpt lat="42.702135" lon="-1.76114"><ele>471</ele></trkpt><trkpt lat="42.701285" lon="-1.761412"><ele>473</ele></trkpt><trkpt lat="42.700624" lon="-1.762206"><ele>478</ele></trkpt><trkpt lat="42.699978" lon="-1.762925"><ele>472</ele></trkpt><trkpt lat="42.699116" lon="-1.76327"><ele>465</ele></trkpt><trkpt lat="42.698366" lon="-1.763918"><ele>458</ele></trkpt><trkpt lat="42.697756" lon="-1.764805"><ele>454</ele></trkpt><trkpt lat="42.697045" lon="-1.765533"><ele>451</ele></trkpt><trkpt lat="42.696354" lon="-1.766302"><ele>445</ele></trkpt><trkpt lat="42.695659" lon="-1.767067"><ele>447</ele></trkpt><trkpt lat="42.694919" lon="-1.767733"><ele>449</ele></trkpt><trkpt lat="42.694057" lon="-1.768071"><ele>447</ele></trkpt><trkpt lat="42.693221" lon="-1.768519"><ele>443</ele></trkpt><trkpt lat="42.692397" lon="-1.76901"><ele>444</ele></trkpt><trkpt lat="42.691575" lon="-1.769468"><ele>445</ele></trkpt><trkpt lat="42.690829" lon="-1.770143"><ele>446</ele></trkpt><trkpt lat="42.690135" lon="-1.770886"><ele>439</ele></trkpt><trkpt lat="42.689346" lon="-1.771467"><ele>427</ele></trkpt><trkpt lat="42.688549" lon="-1.772023"><ele>437</ele></trkpt><trkpt lat="42.687783" lon="-1.772623"><ele>437</ele></trkpt><trkpt lat="42.687336" lon="-1.773647"><ele>424</ele></trkpt><trkpt lat="42.686718" lon="-1.774535"><ele>410</ele></trkpt><trkpt lat="42.686001" lon="-1.775266"><ele>400</ele></trkpt><trkpt lat="42.685241" lon="-1.775915"><ele>398</ele></trkpt><trkpt lat="42.684596" lon="-1.776766"><ele>394</ele></trkpt><trkpt lat="42.684071" lon="-1.777751"><ele>393</ele></trkpt><trkpt lat="42.683489" lon="-1.778656"><ele>398</ele></trkpt><trkpt lat="42.682965" lon="-1.779646"><ele>405</ele></trkpt><trkpt lat="42.682369" lon="-1.780562"><ele>409</ele></trkpt><trkpt lat="42.681669" lon="-1.781319"><ele>406</ele></trkpt><trkpt lat="42.681257" lon="-1.782316"><ele>418</ele></trkpt><trkpt lat="42.681274" lon="-1.783539"><ele>417</ele></trkpt><trkpt lat="42.681037" lon="-1.784464"><ele>416</ele></trkpt><trkpt lat="42.680776" lon="-1.785253"><ele>415</ele></trkpt><trkpt lat="42.679948" lon="-1.785731"><ele>414</ele></trkpt><trkpt lat="42.679311" lon="-1.786353"><ele>412</ele></trkpt><trkpt lat="42.679058" lon="-1.787418"><ele>409</ele></trkpt><trkpt lat="42.679019" lon="-1.788571"><ele>411</ele></trkpt><trkpt lat="42.679307" lon="-1.789717"><ele>404</ele></trkpt><trkpt lat="42.679365" lon="-1.790921"><ele>402</ele></trkpt><trkpt lat="42.679041" lon="-1.792037"><ele>398</ele></trkpt><trkpt lat="42.678541" lon="-1.793049"><ele>392</ele></trkpt><trkpt lat="42.678268" lon="-1.794196"><ele>387</ele></trkpt><trkpt lat="42.67808" lon="-1.795388"><ele>378</ele></trkpt><trkpt lat="42.677865" lon="-1.796575"><ele>368</ele></trkpt><trkpt lat="42.677718" lon="-1.797781"><ele>362</ele></trkpt><trkpt lat="42.677508" lon="-1.798959"><ele>359</ele></trkpt><trkpt lat="42.677105" lon="-1.799943"><ele>357</ele></trkpt><trkpt lat="42.676839" lon="-1.801018"><ele>355</ele></trkpt><trkpt lat="42.677068" lon="-1.802155"><ele>354</ele></trkpt><trkpt lat="42.676877" lon="-1.803347"><ele>352</ele></trkpt><trkpt lat="42.676697" lon="-1.804544"><ele>353</ele></trkpt><trkpt lat="42.676535" lon="-1.805721"><ele>352</ele></trkpt><trkpt lat="42.676201" lon="-1.806731"><ele>353</ele></trkpt><trkpt lat="42.675534" lon="-1.807527"><ele>355</ele></trkpt><trkpt lat="42.674969" lon="-1.808464"><ele>364</ele></trkpt><trkpt lat="42.67435" lon="-1.80935"><ele>355</ele></trkpt><trkpt lat="42.673766" lon="-1.810275"><ele>353</ele></trkpt><trkpt lat="42.673098" lon="-1.810537"><ele>349</ele></trkpt></trkseg></trk></gpx>