<?xml version="1.0" encoding="UTF-8"?>
<gpx version="1.1" creator="Mi Diario del Camino de Santiago" xmlns="http://www.topografix.com/GPX/1/1">
<metadata><name>Etapa 12: San Juan de Ortega - Burgos</name><copyright author="OpenStreetMap contributors"><license>https://opendatacommons.org/licenses/odbl/1-0/</license></copyright></metadata>
<trk><name>Etapa 12: San Juan de Ortega - Burgos</name><trkseg><trkpt lat="42.375716" lon="-3.43643"><ele>1006</ele></trkpt><trkpt lat="42.37586" lon="-3.437606"><ele>1003</ele></trkpt><trkpt lat="42.376085" lon="-3.438782"><ele>1000</ele></trkpt><trkpt lat="42.376235" lon="-3.439982"><ele>1000</ele></trkpt><trkpt lat="42.376247" lon="-3.441166"><ele>1000</ele></trkpt><trkpt lat="42.375907" lon="-3.442111"><ele>1001</ele></trkpt><trkpt lat="42.375755" lon="-3.4433"><ele>1010</ele></trkpt><trkpt lat="42.375432" lon="-3.44443"><ele>1016</ele></trkpt><trkpt lat="42.375165" lon="-3.445589"><ele>1015</ele></trkpt><trkpt lat="42.374998" lon="-3.446784"><ele>1014</ele></trkpt><trkpt lat="42.374772" lon="-3.447963"><ele>1013</ele></trkpt><trkpt lat="42.374671" lon="-3.449164"><ele>1013</ele></trkpt><trkpt lat="42.374632" lon="-3.450377"><ele>1012</ele></trkpt><trkpt lat="42.374524" lon="-3.451578"><ele>1011</ele></trkpt><trkpt lat="42.374312" lon="-3.452698"><ele>1012</ele></trkpt><trkpt lat="42.374223" lon="-3.453894"><ele>1010</ele></trkpt><trkpt lat="42.373981" lon="-3.455049"><ele>1011</ele></trkpt><trkpt lat="42.373752" lon="-3.456215"><ele>1010</ele></trkpt><trkpt lat="42.37353" lon="-3.457393"><ele>1007</ele></trkpt><trkpt lat="42.373264" lon="-3.458554"><ele>1004</ele></trkpt><trkpt lat="42.372915" lon="-3.459676"><ele>1003</ele></trkpt><trkpt lat="42.372516" lon="-3.460764"><ele>1001</ele></trkpt><trkpt lat="42.372166" lon="-3.461878"><ele>998</ele></trkpt><trkpt lat="42.371952" lon="-3.463056"><ele>999</ele></trkpt><trkpt lat="42.371866" lon="-3.464267"><ele>998</ele></trkpt><trkpt lat="42.37185" lon="-3.46548"><ele>997</ele></trkpt><trkpt lat="42.371998" lon="-3.46668"><ele>995</ele></trkpt><trkpt lat="42.372193" lon="-3.467868"><ele>995</ele></trkpt><trkpt lat="42.372162" lon="-3.46905"><ele>993</ele></trkpt><trkpt lat="42.37229" lon="-3.470218"><ele>993</ele></trkpt><trkpt lat="42.372357" lon="-3.471425"><ele>992</ele></trkpt><trkpt lat="42.372158" lon="-3.472611"><ele>988</ele></trkpt><trkpt lat="42.371802" lon="-3.473712"><ele>980</ele></trkpt><trkpt lat="42.371259" lon="-3.474683"><ele>976</ele></trkpt><trkpt lat="42.370706" lon="-3.475643"><ele>969</ele></trkpt><trkpt lat="42.370184" lon="-3.47663"><ele>966</ele></trkpt><trkpt lat="42.369814" lon="-3.477729"><ele>966</ele></trkpt><trkpt lat="42.369879" lon="-3.478897"><ele>969</ele></trkpt><trkpt lat="42.370208" lon="-3.479914"><ele>968</ele></trkpt><trkpt lat="42.370477" lon="-3.481035"><ele>961</ele></trkpt><trkpt lat="42.370914" lon="-3.482099"><ele>955</ele></trkpt><trkpt lat="42.371322" lon="-3.483182"><ele>952</ele></trkpt><trkpt lat="42.371637" lon="-3.484321"><ele>949</ele></trkpt><trkpt lat="42.371688" lon="-3.48553"><ele>948</ele></trkpt><trkpt lat="42.371678" lon="-3.486748"><ele>947</ele></trkpt><trkpt lat="42.371672" lon="-3.487965"><ele>948</ele></trkpt><trkpt lat="42.37172" lon="-3.489178"><ele>948</ele></trkpt><trkpt lat="42.371935" lon="-3.490359"><ele>948</ele></trkpt><trkpt lat="42.372155" lon="-3.49154"><ele>949</ele></trkpt><trkpt lat="42.372378" lon="-3.492719"><ele>948</ele></trkpt><trkpt lat="42.372599" lon="-3.493899"><ele>948</ele></trkpt><trkpt lat="42.372819" lon="-3.495079"><ele>949</ele></trkpt><trkpt lat="42.373038" lon="-3.49626"><ele>951</ele></trkpt><trkpt lat="42.373256" lon="-3.497441"><ele>951</ele></trkpt><trkpt lat="42.373477" lon="-3.498621"><ele>951</ele></trkpt><trkpt lat="42.373699" lon="-3.499801"><ele>952</ele></trkpt><trkpt lat="42.373916" lon="-3.500982"><ele>952</ele></trkpt><trkpt lat="42.374197" lon="-3.502137"><ele>952</ele></trkpt><trkpt lat="42.374551" lon="-3.503256"><ele>952</ele></trkpt><trkpt lat="42.374904" lon="-3.504376"><ele>953</ele></trkpt><trkpt lat="42.375263" lon="-3.505491"><ele>955</ele></trkpt><trkpt lat="42.375814" lon="-3.506451"><ele>955</ele></trkpt><trkpt lat="42.376309" lon="-3.507465"><ele>954</ele></trkpt><trkpt lat="42.376879" lon="-3.508406"><ele>954</ele></trkpt><trkpt lat="42.377457" lon="-3.509339"><ele>954</ele></trkpt><trkpt lat="42.377344" lon="-3.510276"><ele>953</ele></trkpt><trkpt lat="42.377225" lon="-3.511467"><ele>954</ele></trkpt><trkpt lat="42.377218" lon="-3.512657"><ele>957</ele></trkpt><trkpt lat="42.377519" lon="-3.513804"><ele>960</ele></trkpt><trkpt lat="42.377838" lon="-3.514939"><ele>963</ele></trkpt><trkpt lat="42.377971" lon="-3.516136"><ele>968</ele></trkpt><trkpt lat="42.378204" lon="-3.517289"><ele>973</ele></trkpt><trkpt lat="42.378534" lon="-3.518419"><ele>972</ele></trkpt><trkpt lat="42.378876" lon="-3.519535"><ele>979</ele></trkpt><trkpt lat="42.378981" lon="-3.52074"><ele>988</ele></trkpt><trkpt lat="42.37908" lon="-3.521935"><ele>999</ele></trkpt><trkpt lat="42.378993" lon="-3.523144"><ele>1010</ele></trkpt><trkpt lat="42.378824" lon="-3.524156"><ele>1018</ele></trkpt><trkpt lat="42.379108" lon="-3.525295"><ele>1024</ele></trkpt><trkpt lat="42.379341" lon="-3.526462"><ele>1033</ele></trkpt><trkpt lat="42.379273" lon="-3.527646"><ele>1043</ele></trkpt><trkpt lat="42.379682" lon="-3.528709"><ele>1049</ele></trkpt><trkpt lat="42.380178" lon="-3.529682"><ele>1052</ele></trkpt><trkpt lat="42.380264" lon="-3.530881"><ele>1060</ele></trkpt><trkpt lat="42.379998" lon="-3.53203"><ele>1068</ele></trkpt><trkpt lat="42.379859" lon="-3.533224"><ele>1070</ele></trkpt><trkpt lat="42.379599" lon="-3.534387"><ele>1073</ele></trkpt><trkpt lat="42.379132" lon="-3.535427"><ele>1073</ele></trkpt><trkpt lat="42.378515" lon="-3.536295"><ele>1067</ele></trkpt><trkpt lat="42.377943" lon="-3.537201"><ele>1054</ele></trkpt><trkpt lat="42.377482" lon="-3.538232"><ele>1043</ele></trkpt><trkpt lat="42.377292" lon="-3.53942"><ele>1028</ele></trkpt><trkpt lat="42.377185" lon="-3.540623"><ele>1018</ele></trkpt><trkpt lat="42.37718" lon="-3.5418"><ele>1012</ele></trkpt><trkpt lat="42.377187" lon="-3.543011"><ele>1006</ele></trkpt><trkpt lat="42.377218" lon="-3.544228"><ele>1006</ele></trkpt><trkpt lat="42.377141" lon="-3.545428"><ele>1004</ele></trkpt><trkpt lat="42.376863" lon="-3.546586"><ele>1000</ele></trkpt><trkpt lat="42.376586" lon="-3.547744"><ele>998</ele></trkpt><trkpt lat="42.376291" lon="-3.548894"><ele>998</ele></trkpt><trkpt lat="42.375944" lon="-3.550016"><ele>997</ele></trkpt><trkpt lat="42.375522" lon="-3.551068"><ele>993</ele></trkpt><trkpt lat="42.374871" lon="-3.551906"><ele>990</ele></trkpt><trkpt lat="42.374359" lon="-3.552905"><ele>988</ele></trkpt><trkpt lat="42.37392" lon="-3.553966"><ele>985</ele></trkpt><trkpt lat="42.373122" lon="-3.553933"><ele>978</ele></trkpt><trkpt lat="42.372225" lon="-3.553845"><ele>969</ele></trkpt><trkpt lat="42.371356" lon="-3.554092"><ele>967</ele></trkpt><trkpt lat="42.370543" lon="-3.5546"><ele>958</ele></trkpt><trkpt lat="42.369686" lon="-3.554299"><ele>946</ele></trkpt><trkpt lat="42.36905" lon="-3.554872"><ele>942</ele></trkpt><trkpt lat="42.368577" lon="-3.555904"><ele>943</ele></trkpt><trkpt lat="42.367989" lon="-3.55682"><ele>945</ele></trkpt><trkpt lat="42.367228" lon="-3.557418"><ele>943</ele></trkpt><trkpt lat="42.366333" lon="-3.557474"><ele>938</ele></trkpt><trkpt lat="42.365437" lon="-3.55738"><ele>933</ele></trkpt><trkpt lat="42.364607" lon="-3.556919"><ele>933</ele></trkpt><trkpt lat="42.363874" lon="-3.55622"><ele>931</ele></trkpt><trkpt lat="42.363144" lon="-3.555514"><ele>929</ele></trkpt><trkpt lat="42.362259" lon="-3.555536"><ele>927</ele></trkpt><trkpt lat="42.361418" lon="-3.555934"><ele>928</ele></trkpt><trkpt lat="42.360701" lon="-3.556667"><ele>931</ele></trkpt><trkpt lat="42.360137" lon="-3.557586"><ele>933</ele></trkpt><trkpt lat="42.359778" lon="-3.558696"><ele>932</ele></trkpt><trkpt lat="42.359358" lon="-3.559763"><ele>930</ele></trkpt><trkpt lat="42.358891" lon="-3.560795"><ele>929</ele></trkpt><trkpt lat="42.358528" lon="-3.561906"><ele>925</ele></trkpt><trkpt lat="42.358554" lon="-3.563108"><ele>923</ele></trkpt><trkpt lat="42.358758" lon="-3.564292"><ele>920</ele></trkpt><trkpt lat="42.358687" lon="-3.565497"><ele>919</ele></trkpt><trkpt lat="42.358485" lon="-3.566659"><ele>918</ele></trkpt><trkpt lat="42.358508" lon="-3.567873"><ele>917</ele></trkpt><trkpt lat="42.358772" lon="-3.569034"><ele>916</ele></trkpt><trkpt lat="42.359057" lon="-3.570176"><ele>914</ele></trkpt><trkpt lat="42.35918" lon="-3.571382"><ele>913</ele></trkpt><trkpt lat="42.359452" lon="-3.572541"><ele>914</ele></trkpt><trkpt lat="42.359577" lon="-3.573744"><ele>914</ele></trkpt><trkpt lat="42.35966" lon="-3.574956"><ele>913</ele></trkpt><trkpt lat="42.359601" lon="-3.576161"><ele>913</ele></trkpt><trkpt lat="42.359512" lon="-3.577361"><ele>912</ele></trkpt><trkpt lat="42.359616" lon="-3.57857"><ele>912</ele></trkpt><trkpt lat="42.35961" lon="-3.579787"><ele>910</ele></trkpt><trkpt lat="42.359721" lon="-3.580993"><ele>910</ele></trkpt><trkpt lat="42.359977" lon="-3.582146"><ele>910</ele></trkpt><trkpt lat="42.360412" lon="-3.583196"><ele>914</ele></trkpt><trkpt lat="42.360183" lon="-3.584362"><ele>915</ele></trkpt><trkpt lat="42.360055" lon="-3.585513"><ele>911</ele></trkpt><trkpt lat="42.360201" lon="-3.586714"><ele>909</ele></trkpt><trkpt lat="42.360319" lon="-3.587916"><ele>905</ele></trkpt><trkpt lat="42.360629" lon="-3.589058"><ele>905</ele></trkpt><trkpt lat="42.360935" lon="-3.590202"><ele>905</ele></trkpt><trkpt lat="42.361094" lon="-3.591398"><ele>905</ele></trkpt><trkpt lat="42.361357" lon="-3.592545"><ele>904</ele></trkpt><trkpt lat="42.36187" lon="-3.593545"><ele>903</ele></trkpt><trkpt lat="42.362139" lon="-3.594677"><ele>904</ele></trkpt><trkpt lat="42.362179" lon="-3.595879"><ele>904</ele></trkpt><trkpt lat="42.362594" lon="-3.59695"><ele>902</ele></trkpt><trkpt lat="42.363006" lon="-3.59803"><ele>899</ele></trkpt><trkpt lat="42.36329" lon="-3.599178"><ele>899</ele></trkpt><trkpt lat="42.363488" lon="-3.60036"><ele>900</ele></trkpt><trkpt lat="42.364021" lon="-3.601325"><ele>898</ele></trkpt><trkpt lat="42.364839" lon="-3.601738"><ele>897</ele></trkpt><trkpt lat="42.365704" lon="-3.601417"><ele>897</ele></trkpt><trkpt lat="42.366557" lon="-3.601696"><ele>896</ele></trkpt><trkpt lat="42.367205" lon="-3.602537"><ele>894</ele></trkpt><trkpt lat="42.367512" lon="-3.603649"><ele>893</ele></trkpt><trkpt lat="42.367157" lon="-3.604733"><ele>892</ele></trkpt><trkpt lat="42.366501" lon="-3.605566"><ele>892</ele></trkpt><trkpt lat="42.365842" lon="-3.606395"><ele>892</ele></trkpt><trkpt lat="42.365183" lon="-3.607223"><ele>892</ele></trkpt><trkpt lat="42.364525" lon="-3.608053"><ele>893</ele></trkpt><trkpt lat="42.363948" lon="-3.608974"><ele>895</ele></trkpt><trkpt lat="42.36393" lon="-3.610164"><ele>895</ele></trkpt><trkpt lat="42.364208" lon="-3.611321"><ele>894</ele></trkpt><trkpt lat="42.36434" lon="-3.612521"><ele>892</ele></trkpt><trkpt lat="42.364076" lon="-3.613676"><ele>892</ele></trkpt><trkpt lat="42.363588" lon="-3.614662"><ele>894</ele></trkpt><trkpt lat="42.36288" lon="-3.615392"><ele>895</ele></trkpt><trkpt lat="42.363462" lon="-3.616167"><ele>893</ele></trkpt><trkpt lat="42.364136" lon="-3.616913"><ele>892</ele></trkpt><trkpt lat="42.364372" lon="-3.618021"><ele>891</ele></trkpt><trkpt lat="42.364479" lon="-3.61923"><ele>889</ele></trkpt><trkpt lat="42.364475" lon="-3.620395"><ele>890</ele></trkpt><trkpt lat="42.364343" lon="-3.62146"><ele>892</ele></trkpt><trkpt lat="42.364107" lon="-3.62263"><ele>893</ele></trkpt><trkpt lat="42.363875" lon="-3.623807"><ele>894</ele></trkpt><trkpt lat="42.363645" lon="-3.624983"><ele>893</ele></trkpt><trkpt lat="42.363341" lon="-3.626099"><ele>891</ele></trkpt><trkpt lat="42.363203" lon="-3.62726"><ele>891</ele></trkpt><trkpt lat="42.363297" lon="-3.628185"><ele>890</ele></trkpt><trkpt lat="42.363066" lon="-3.629361"><ele>887</ele></trkpt><trkpt lat="42.362902" lon="-3.630538"><ele>888</ele></trkpt><trkpt lat="42.362632" lon="-3.631619"><ele>889</ele></trkpt><trkpt lat="42.362407" lon="-3.632797"><ele>890</ele></trkpt><trkpt lat="42.362187" lon="-3.633978"><ele>888</ele></trkpt><trkpt lat="42.361968" lon="-3.635158"><ele>886</ele></trkpt><trkpt lat="42.361748" lon="-3.636338"><ele>887</ele></trkpt><trkpt lat="42.361523" lon="-3.637516"><ele>885</ele></trkpt><trkpt lat="42.361338" lon="-3.6387"><ele>884</ele></trkpt><trkpt lat="42.361672" lon="-3.639711"><ele>882</ele></trkpt><trkpt lat="42.36169" lon="-3.640407"><ele>883</ele></trkpt><trkpt lat="42.360966" lon="-3.640915"><ele>884</ele></trkpt><trkpt lat="42.360662" lon="-3.642043"><ele>884</ele></trkpt><trkpt lat="42.360441" lon="-3.643223"><ele>883</ele></trkpt><trkpt lat="42.360224" lon="-3.644404"><ele>881</ele></trkpt><trkpt lat="42.36" lon="-3.645582"><ele>880</ele></trkpt><trkpt lat="42.359764" lon="-3.64675"><ele>881</ele></trkpt><trkpt lat="42.359469" lon="-3.647899"><ele>884</ele></trkpt><trkpt lat="42.359149" lon="-3.649037"><ele>882</ele></trkpt><trkpt lat="42.358838" lon="-3.650179"><ele>881</ele></trkpt><trkpt lat="42.358753" lon="-3.651233"><ele>881</ele></trkpt><trkpt lat="42.358341" lon="-3.652025"><ele>881</ele></trkpt><trkpt lat="42.358026" lon="-3.653165"><ele>882</ele></trkpt><trkpt lat="42.35771" lon="-3.654304"><ele>879</ele></trkpt><trkpt lat="42.357394" lon="-3.655443"><ele>879</ele></trkpt><trkpt lat="42.35709" lon="-3.656588"><ele>878</ele></trkpt><trkpt lat="42.356769" lon="-3.657724"><ele>875</ele></trkpt><trkpt lat="42.356455" lon="-3.658865"><ele>875</ele></trkpt><trkpt lat="42.356139" lon="-3.660004"><ele>877</ele></trkpt><trkpt lat="42.35582" lon="-3.661142"><ele>876</ele></trkpt><trkpt lat="42.355502" lon="-3.66228"><ele>876</ele></trkpt><trkpt lat="42.355454" lon="-3.663326"><ele>880</ele></trkpt><trkpt lat="42.354965" lon="-3.664091"><ele>887</ele></trkpt><trkpt lat="42.354643" lon="-3.665227"><ele>885</ele></trkpt><trkpt lat="42.354314" lon="-3.66634"><ele>875</ele></trkpt><trkpt lat="42.353988" lon="-3.667395"><ele>874</ele></trkpt><trkpt lat="42.353618" lon="-3.668504"><ele>875</ele></trkpt><trkpt lat="42.353557" lon="-3.669479"><ele>877</ele></trkpt><trkpt lat="42.35307" lon="-3.670407"><ele>876</ele></trkpt><trkpt lat="42.35268" lon="-3.671486"><ele>872</ele></trkpt><trkpt lat="42.352426" lon="-3.672418"><ele>869</ele></trkpt><trkpt lat="42.352066" lon="-3.673023"><ele>871</ele></trkpt><trkpt lat="42.351524" lon="-3.673989"><ele>869</ele></trkpt><trkpt lat="42.350991" lon="-3.674969"><ele>868</ele></trkpt><trkpt lat="42.350486" lon="-3.675538"><ele>865</ele></trkpt><trkpt lat="42.349763" lon="-3.675847"><ele>868</ele></trkpt><trkpt lat="42.349202" lon="-3.676779"><ele>867</ele></trkpt><trkpt lat="42.348918" lon="-3.677892"><ele>867</ele></trkpt><trkpt lat="42.348676" lon="-3.678874"><ele>865</ele></trkpt><trkpt lat="42.348489" lon="-3.680064"><ele>866</ele></trkpt><trkpt lat="42.348156" lon="-3.681159"><ele>868</ele></trkpt><trkpt lat="42.347485" lon="-3.681811"><ele>869</ele></trkpt><trkpt lat="42.346765" lon="-3.682535"><ele>868</ele></trkpt><trkpt lat="42.346198" lon="-3.683479"><ele>866</ele></trkpt><trkpt lat="42.345646" lon="-3.684411"><ele>865</ele></trkpt><trkpt lat="42.345134" lon="-3.685381"><ele>864</ele></trkpt><trkpt lat="42.34464" lon="-3.686327"><ele>866</ele></trkpt><trkpt lat="42.345477" lon="-3.686709"><ele>865</ele></trkpt><trkpt lat="42.345127" lon="-3.687532"><ele>868</ele></trkpt><trkpt lat="42.3448" lon="-3.68864"><ele>866</ele></trkpt><trkpt lat="42.344475" lon="-3.689675"><ele>865</ele></trkpt><trkpt lat="42.344143" lon="-3.690805"><ele>864</ele></trkpt><trkpt lat="42.343817" lon="-3.691939"><ele>867</ele></trkpt><trkpt lat="42.343576" lon="-3.693111"><ele>870</ele></trkpt><trkpt lat="42.343378" lon="-3.694277"><ele>865</ele></trkpt><trkpt lat="42.343142" lon="-3.695448"><ele>864</ele></trkpt><trkpt lat="42.342874" lon="-3.696581"><ele>865</ele></trkpt><trkpt lat="42.342816" lon="-3.697794"><ele>865</ele></trkpt><trkpt lat="42.34282" lon="-3.699008"><ele>865</ele></trkpt><trkpt lat="42.343052" lon="-3.700179"><ele>865</ele></trkpt><trkpt lat="42.34331" lon="-3.701313"><ele>868</ele></trkpt><trkpt lat="42.343051" lon="-3.702428"><ele>873</ele></trkpt><trkpt lat="42.342491" lon="-3.703377"><ele>876</ele></trkpt><trkpt lat="42.341824" lon="-3.704097"><ele>877</ele></trkpt><trkpt lat="42.341051" lon="-3.704707"><ele>879</ele></trkpt></trkseg></trk></gpx>