<?xml version="1.0" encoding="UTF-8"?>
<gpx version="1.1" creator="Mi Diario del Camino de Santiago" xmlns="http://www.topografix.com/GPX/1/1">
<metadata><name>Etapa F2: Negreira - Olveiroa</name><copyright author="OpenStreetMap contributors"><license>https://opendatacommons.org/licenses/odbl/1-0/</license></copyright></metadata>
<trk><name>Etapa F2: Negreira - Olveiroa</name><trkseg><trkpt lat="42.907559" lon="-8.738796"><ele>149</ele></trkpt><trkpt lat="42.907036" lon="-8.739794"><ele>146</ele></trkpt><trkpt lat="42.906376" lon="-8.740562"><ele>149</ele></trkpt><trkpt lat="42.905605" lon="-8.740361"><ele>155</ele></trkpt><trkpt lat="42.90489" lon="-8.741093"><ele>163</ele></trkpt><trkpt lat="42.904283" lon="-8.741909"><ele>173</ele></trkpt><trkpt lat="42.903992" lon="-8.743052"><ele>183</ele></trkpt><trkpt lat="42.904607" lon="-8.743795"><ele>187</ele></trkpt><trkpt lat="42.905108" lon="-8.744811"><ele>191</ele></trkpt><trkpt lat="42.905772" lon="-8.745573"><ele>193</ele></trkpt><trkpt lat="42.90638" lon="-8.746418"><ele>192</ele></trkpt><trkpt lat="42.906805" lon="-8.74747"><ele>198</ele></trkpt><trkpt lat="42.907427" lon="-8.748246"><ele>198</ele></trkpt><trkpt lat="42.907391" lon="-8.749411"><ele>212</ele></trkpt><trkpt lat="42.908168" lon="-8.750027"><ele>219</ele></trkpt><trkpt lat="42.908916" lon="-8.750707"><ele>224</ele></trkpt><trkpt lat="42.909502" lon="-8.751442"><ele>232</ele></trkpt><trkpt lat="42.910333" lon="-8.751904"><ele>229</ele></trkpt><trkpt lat="42.910935" lon="-8.752753"><ele>225</ele></trkpt><trkpt lat="42.910822" lon="-8.753958"><ele>229</ele></trkpt><trkpt lat="42.910642" lon="-8.755145"><ele>233</ele></trkpt><trkpt lat="42.910523" lon="-8.756353"><ele>234</ele></trkpt><trkpt lat="42.910486" lon="-8.75758"><ele>235</ele></trkpt><trkpt lat="42.910448" lon="-8.758806"><ele>236</ele></trkpt><trkpt lat="42.910414" lon="-8.760033"><ele>239</ele></trkpt><trkpt lat="42.91038" lon="-8.76126"><ele>243</ele></trkpt><trkpt lat="42.910346" lon="-8.762487"><ele>249</ele></trkpt><trkpt lat="42.910534" lon="-8.763668"><ele>259</ele></trkpt><trkpt lat="42.911294" lon="-8.764057"><ele>258</ele></trkpt><trkpt lat="42.912112" lon="-8.764517"><ele>256</ele></trkpt><trkpt lat="42.91252" lon="-8.765358"><ele>257</ele></trkpt><trkpt lat="42.912951" lon="-8.766416"><ele>266</ele></trkpt><trkpt lat="42.913561" lon="-8.767164"><ele>267</ele></trkpt><trkpt lat="42.913756" lon="-8.768361"><ele>276</ele></trkpt><trkpt lat="42.914372" lon="-8.769183"><ele>279</ele></trkpt><trkpt lat="42.915161" lon="-8.769717"><ele>282</ele></trkpt><trkpt lat="42.915398" lon="-8.770886"><ele>285</ele></trkpt><trkpt lat="42.915758" lon="-8.771997"><ele>286</ele></trkpt><trkpt lat="42.916329" lon="-8.772932"><ele>284</ele></trkpt><trkpt lat="42.917092" lon="-8.773503"><ele>288</ele></trkpt><trkpt lat="42.91757" lon="-8.774288"><ele>293</ele></trkpt><trkpt lat="42.917388" lon="-8.775411"><ele>293</ele></trkpt><trkpt lat="42.916926" lon="-8.776372"><ele>286</ele></trkpt><trkpt lat="42.916617" lon="-8.77745"><ele>280</ele></trkpt><trkpt lat="42.917153" lon="-8.777808"><ele>278</ele></trkpt><trkpt lat="42.918028" lon="-8.777574"><ele>280</ele></trkpt><trkpt lat="42.918843" lon="-8.77782"><ele>276</ele></trkpt><trkpt lat="42.919464" lon="-8.778703"><ele>272</ele></trkpt><trkpt lat="42.919986" lon="-8.779703"><ele>270</ele></trkpt><trkpt lat="42.920536" lon="-8.780672"><ele>281</ele></trkpt><trkpt lat="42.92117" lon="-8.781317"><ele>294</ele></trkpt><trkpt lat="42.920684" lon="-8.782338"><ele>307</ele></trkpt><trkpt lat="42.92032" lon="-8.783455"><ele>314</ele></trkpt><trkpt lat="42.920281" lon="-8.784652"><ele>318</ele></trkpt><trkpt lat="42.920822" lon="-8.785603"><ele>322</ele></trkpt><trkpt lat="42.921475" lon="-8.786447"><ele>326</ele></trkpt><trkpt lat="42.922128" lon="-8.787292"><ele>331</ele></trkpt><trkpt lat="42.922781" lon="-8.788136"><ele>335</ele></trkpt><trkpt lat="42.923483" lon="-8.788633"><ele>337</ele></trkpt><trkpt lat="42.924351" lon="-8.788908"><ele>331</ele></trkpt><trkpt lat="42.925118" lon="-8.78948"><ele>322</ele></trkpt><trkpt lat="42.925187" lon="-8.790692"><ele>332</ele></trkpt><trkpt lat="42.92533" lon="-8.791871"><ele>339</ele></trkpt><trkpt lat="42.925804" lon="-8.792858"><ele>334</ele></trkpt><trkpt lat="42.926588" lon="-8.792974"><ele>325</ele></trkpt><trkpt lat="42.926993" lon="-8.794066"><ele>319</ele></trkpt><trkpt lat="42.92745" lon="-8.795054"><ele>318</ele></trkpt><trkpt lat="42.928243" lon="-8.795629"><ele>324</ele></trkpt><trkpt lat="42.928156" lon="-8.796414"><ele>326</ele></trkpt><trkpt lat="42.928317" lon="-8.797562"><ele>322</ele></trkpt><trkpt lat="42.928427" lon="-8.798683"><ele>315</ele></trkpt><trkpt lat="42.928689" lon="-8.799781"><ele>306</ele></trkpt><trkpt lat="42.928387" lon="-8.800929"><ele>303</ele></trkpt><trkpt lat="42.928477" lon="-8.801999"><ele>303</ele></trkpt><trkpt lat="42.929073" lon="-8.802919"><ele>304</ele></trkpt><trkpt lat="42.92928" lon="-8.8039"><ele>314</ele></trkpt><trkpt lat="42.929469" lon="-8.805023"><ele>328</ele></trkpt><trkpt lat="42.929799" lon="-8.806144"><ele>333</ele></trkpt><trkpt lat="42.929864" lon="-8.807342"><ele>343</ele></trkpt><trkpt lat="42.930545" lon="-8.808141"><ele>348</ele></trkpt><trkpt lat="42.931375" lon="-8.808533"><ele>342</ele></trkpt><trkpt lat="42.932075" lon="-8.809251"><ele>342</ele></trkpt><trkpt lat="42.932809" lon="-8.809619"><ele>341</ele></trkpt><trkpt lat="42.932835" lon="-8.810812"><ele>347</ele></trkpt><trkpt lat="42.933368" lon="-8.811538"><ele>351</ele></trkpt><trkpt lat="42.933021" lon="-8.812672"><ele>360</ele></trkpt><trkpt lat="42.932457" lon="-8.813619"><ele>361</ele></trkpt><trkpt lat="42.931854" lon="-8.8145"><ele>368</ele></trkpt><trkpt lat="42.932106" lon="-8.81566"><ele>375</ele></trkpt><trkpt lat="42.932232" lon="-8.81637"><ele>376</ele></trkpt><trkpt lat="42.932262" lon="-8.81757"><ele>375</ele></trkpt><trkpt lat="42.932112" lon="-8.818692"><ele>378</ele></trkpt><trkpt lat="42.931489" lon="-8.819578"><ele>383</ele></trkpt><trkpt lat="42.93135" lon="-8.820428"><ele>386</ele></trkpt><trkpt lat="42.932238" lon="-8.820593"><ele>385</ele></trkpt><trkpt lat="42.933116" lon="-8.820706"><ele>383</ele></trkpt><trkpt lat="42.933943" lon="-8.82118"><ele>383</ele></trkpt><trkpt lat="42.93478" lon="-8.821612"><ele>381</ele></trkpt><trkpt lat="42.93546" lon="-8.822392"><ele>376</ele></trkpt><trkpt lat="42.935407" lon="-8.823606"><ele>374</ele></trkpt><trkpt lat="42.93538" lon="-8.824833"><ele>382</ele></trkpt><trkpt lat="42.935564" lon="-8.826026"><ele>390</ele></trkpt><trkpt lat="42.935832" lon="-8.827196"><ele>391</ele></trkpt><trkpt lat="42.936212" lon="-8.82828"><ele>394</ele></trkpt><trkpt lat="42.936582" lon="-8.829399"><ele>400</ele></trkpt><trkpt lat="42.936946" lon="-8.830522"><ele>401</ele></trkpt><trkpt lat="42.937309" lon="-8.831646"><ele>406</ele></trkpt><trkpt lat="42.937673" lon="-8.83277"><ele>411</ele></trkpt><trkpt lat="42.938026" lon="-8.833899"><ele>415</ele></trkpt><trkpt lat="42.938367" lon="-8.835036"><ele>416</ele></trkpt><trkpt lat="42.938708" lon="-8.836173"><ele>418</ele></trkpt><trkpt lat="42.939049" lon="-8.837309"><ele>419</ele></trkpt><trkpt lat="42.93939" lon="-8.838446"><ele>421</ele></trkpt><trkpt lat="42.939731" lon="-8.839583"><ele>417</ele></trkpt><trkpt lat="42.940066" lon="-8.840723"><ele>406</ele></trkpt><trkpt lat="42.940248" lon="-8.841925"><ele>394</ele></trkpt><trkpt lat="42.940424" lon="-8.84313"><ele>392</ele></trkpt><trkpt lat="42.940599" lon="-8.844335"><ele>389</ele></trkpt><trkpt lat="42.940878" lon="-8.845472"><ele>390</ele></trkpt><trkpt lat="42.94173" lon="-8.845813"><ele>391</ele></trkpt><trkpt lat="42.942615" lon="-8.845599"><ele>388</ele></trkpt><trkpt lat="42.943501" lon="-8.845395"><ele>383</ele></trkpt><trkpt lat="42.943807" lon="-8.846165"><ele>378</ele></trkpt><trkpt lat="42.943656" lon="-8.847275"><ele>368</ele></trkpt><trkpt lat="42.943258" lon="-8.848226"><ele>365</ele></trkpt><trkpt lat="42.943044" lon="-8.849407"><ele>357</ele></trkpt><trkpt lat="42.943415" lon="-8.849964"><ele>346</ele></trkpt><trkpt lat="42.943898" lon="-8.850602"><ele>333</ele></trkpt><trkpt lat="42.944244" lon="-8.851724"><ele>329</ele></trkpt><trkpt lat="42.944734" lon="-8.852753"><ele>327</ele></trkpt><trkpt lat="42.945341" lon="-8.853556"><ele>323</ele></trkpt><trkpt lat="42.94593" lon="-8.854484"><ele>322</ele></trkpt><trkpt lat="42.946588" lon="-8.855298"><ele>326</ele></trkpt><trkpt lat="42.947438" lon="-8.8557"><ele>320</ele></trkpt><trkpt lat="42.948261" lon="-8.856184"><ele>318</ele></trkpt><trkpt lat="42.94903" lon="-8.85682"><ele>320</ele></trkpt><trkpt lat="42.949852" lon="-8.857289"><ele>322</ele></trkpt><trkpt lat="42.950314" lon="-8.858321"><ele>318</ele></trkpt><trkpt lat="42.951179" lon="-8.858633"><ele>318</ele></trkpt><trkpt lat="42.952059" lon="-8.858888"><ele>317</ele></trkpt><trkpt lat="42.952939" lon="-8.85914"><ele>317</ele></trkpt><trkpt lat="42.953822" lon="-8.859369"><ele>315</ele></trkpt><trkpt lat="42.954679" lon="-8.859041"><ele>315</ele></trkpt><trkpt lat="42.955268" lon="-8.859892"><ele>318</ele></trkpt><trkpt lat="42.955733" lon="-8.860945"><ele>324</ele></trkpt><trkpt lat="42.956301" lon="-8.861287"><ele>333</ele></trkpt><trkpt lat="42.957025" lon="-8.860559"><ele>336</ele></trkpt><trkpt lat="42.957575" lon="-8.86065"><ele>340</ele></trkpt><trkpt lat="42.957904" lon="-8.861793"><ele>355</ele></trkpt><trkpt lat="42.957694" lon="-8.862946"><ele>367</ele></trkpt><trkpt lat="42.95738" lon="-8.864097"><ele>369</ele></trkpt><trkpt lat="42.95714" lon="-8.86527"><ele>365</ele></trkpt><trkpt lat="42.957598" lon="-8.866317"><ele>357</ele></trkpt><trkpt lat="42.95813" lon="-8.867308"><ele>347</ele></trkpt><trkpt lat="42.95831" lon="-8.868503"><ele>336</ele></trkpt><trkpt lat="42.958416" lon="-8.869723"><ele>334</ele></trkpt><trkpt lat="42.958523" lon="-8.870944"><ele>336</ele></trkpt><trkpt lat="42.95863" lon="-8.872164"><ele>339</ele></trkpt><trkpt lat="42.959131" lon="-8.872794"><ele>339</ele></trkpt><trkpt lat="42.96003" lon="-8.872826"><ele>342</ele></trkpt><trkpt lat="42.960929" lon="-8.872871"><ele>345</ele></trkpt><trkpt lat="42.961813" lon="-8.872935"><ele>347</ele></trkpt><trkpt lat="42.961794" lon="-8.874163"><ele>344</ele></trkpt><trkpt lat="42.961773" lon="-8.875392"><ele>338</ele></trkpt><trkpt lat="42.961736" lon="-8.87662"><ele>332</ele></trkpt><trkpt lat="42.961699" lon="-8.877848"><ele>330</ele></trkpt><trkpt lat="42.961662" lon="-8.879076"><ele>329</ele></trkpt><trkpt lat="42.961631" lon="-8.880304"><ele>330</ele></trkpt><trkpt lat="42.961598" lon="-8.881532"><ele>334</ele></trkpt><trkpt lat="42.961565" lon="-8.88276"><ele>341</ele></trkpt><trkpt lat="42.96172" lon="-8.883968"><ele>350</ele></trkpt><trkpt lat="42.961889" lon="-8.885175"><ele>357</ele></trkpt><trkpt lat="42.962057" lon="-8.886383"><ele>356</ele></trkpt><trkpt lat="42.962226" lon="-8.88759"><ele>355</ele></trkpt><trkpt lat="42.962359" lon="-8.888804"><ele>353</ele></trkpt><trkpt lat="42.962461" lon="-8.890025"><ele>348</ele></trkpt><trkpt lat="42.961985" lon="-8.890951"><ele>347</ele></trkpt><trkpt lat="42.961332" lon="-8.891795"><ele>355</ele></trkpt><trkpt lat="42.960845" lon="-8.892622"><ele>360</ele></trkpt><trkpt lat="42.96154" lon="-8.893371"><ele>356</ele></trkpt><trkpt lat="42.96216" lon="-8.89426"><ele>346</ele></trkpt><trkpt lat="42.962557" lon="-8.895313"><ele>339</ele></trkpt><trkpt lat="42.962757" lon="-8.896511"><ele>333</ele></trkpt><trkpt lat="42.962948" lon="-8.897712"><ele>328</ele></trkpt><trkpt lat="42.963147" lon="-8.89891"><ele>325</ele></trkpt><trkpt lat="42.963367" lon="-8.900102"><ele>321</ele></trkpt><trkpt lat="42.96363" lon="-8.901277"><ele>322</ele></trkpt><trkpt lat="42.963902" lon="-8.902448"><ele>323</ele></trkpt><trkpt lat="42.964174" lon="-8.903619"><ele>323</ele></trkpt><trkpt lat="42.964471" lon="-8.904779"><ele>324</ele></trkpt><trkpt lat="42.964513" lon="-8.906004"><ele>325</ele></trkpt><trkpt lat="42.964223" lon="-8.90714"><ele>319</ele></trkpt><trkpt lat="42.963946" lon="-8.908294"><ele>312</ele></trkpt><trkpt lat="42.964095" lon="-8.90943"><ele>313</ele></trkpt><trkpt lat="42.963982" lon="-8.910628"><ele>317</ele></trkpt><trkpt lat="42.963541" lon="-8.911603"><ele>320</ele></trkpt><trkpt lat="42.962662" lon="-8.911469"><ele>321</ele></trkpt><trkpt lat="42.961877" lon="-8.911798"><ele>322</ele></trkpt><trkpt lat="42.961399" lon="-8.912801"><ele>322</ele></trkpt><trkpt lat="42.960745" lon="-8.91363"><ele>323</ele></trkpt><trkpt lat="42.960223" lon="-8.914621"><ele>325</ele></trkpt><trkpt lat="42.959893" lon="-8.915765"><ele>327</ele></trkpt><trkpt lat="42.959564" lon="-8.916908"><ele>328</ele></trkpt><trkpt lat="42.959234" lon="-8.918052"><ele>332</ele></trkpt><trkpt lat="42.95891" lon="-8.919198"><ele>334</ele></trkpt><trkpt lat="42.958081" lon="-8.919246"><ele>332</ele></trkpt><trkpt lat="42.957188" lon="-8.919151"><ele>333</ele></trkpt><trkpt lat="42.956979" lon="-8.920077"><ele>332</ele></trkpt><trkpt lat="42.957183" lon="-8.921274"><ele>332</ele></trkpt><trkpt lat="42.957407" lon="-8.922462"><ele>331</ele></trkpt><trkpt lat="42.957801" lon="-8.923556"><ele>331</ele></trkpt><trkpt lat="42.957987" lon="-8.924642"><ele>331</ele></trkpt><trkpt lat="42.957479" lon="-8.925657"><ele>331</ele></trkpt><trkpt lat="42.957004" lon="-8.926698"><ele>332</ele></trkpt><trkpt lat="42.956491" lon="-8.927707"><ele>331</ele></trkpt><trkpt lat="42.955997" lon="-8.928733"><ele>329</ele></trkpt><trkpt lat="42.955941" lon="-8.929611"><ele>332</ele></trkpt><trkpt lat="42.956691" lon="-8.930286"><ele>334</ele></trkpt><trkpt lat="42.956802" lon="-8.931444"><ele>334</ele></trkpt><trkpt lat="42.956684" lon="-8.932662"><ele>335</ele></trkpt><trkpt lat="42.956673" lon="-8.933886"><ele>334</ele></trkpt><trkpt lat="42.956773" lon="-8.935107"><ele>335</ele></trkpt><trkpt lat="42.956892" lon="-8.936324"><ele>339</ele></trkpt><trkpt lat="42.957242" lon="-8.937455"><ele>341</ele></trkpt><trkpt lat="42.957551" lon="-8.938608"><ele>341</ele></trkpt><trkpt lat="42.957866" lon="-8.93976"><ele>341</ele></trkpt><trkpt lat="42.958184" lon="-8.940909"><ele>346</ele></trkpt><trkpt lat="42.958502" lon="-8.942058"><ele>353</ele></trkpt><trkpt lat="42.958822" lon="-8.943207"><ele>359</ele></trkpt><trkpt lat="42.959054" lon="-8.944384"><ele>365</ele></trkpt><trkpt lat="42.959066" lon="-8.945607"><ele>365</ele></trkpt><trkpt lat="42.959297" lon="-8.946782"><ele>369</ele></trkpt><trkpt lat="42.959357" lon="-8.947984"><ele>373</ele></trkpt><trkpt lat="42.959728" lon="-8.949103"><ele>378</ele></trkpt><trkpt lat="42.960088" lon="-8.950226"><ele>380</ele></trkpt><trkpt lat="42.959527" lon="-8.951048"><ele>382</ele></trkpt><trkpt lat="42.958916" lon="-8.951902"><ele>386</ele></trkpt><trkpt lat="42.958598" lon="-8.953045"><ele>390</ele></trkpt><trkpt lat="42.958338" lon="-8.954221"><ele>395</ele></trkpt><trkpt lat="42.958035" lon="-8.955374"><ele>399</ele></trkpt><trkpt lat="42.957462" lon="-8.956319"><ele>409</ele></trkpt><trkpt lat="42.956724" lon="-8.956988"><ele>418</ele></trkpt><trkpt lat="42.957408" lon="-8.957166"><ele>421</ele></trkpt><trkpt lat="42.958289" lon="-8.957353"><ele>422</ele></trkpt><trkpt lat="42.959152" lon="-8.957656"><ele>423</ele></trkpt><trkpt lat="42.960049" lon="-8.957631"><ele>417</ele></trkpt><trkpt lat="42.960945" lon="-8.95772"><ele>416</ele></trkpt><trkpt lat="42.961832" lon="-8.957912"><ele>413</ele></trkpt><trkpt lat="42.962664" lon="-8.957501"><ele>405</ele></trkpt><trkpt lat="42.963475" lon="-8.956971"><ele>403</ele></trkpt><trkpt lat="42.964151" lon="-8.957564"><ele>408</ele></trkpt><trkpt lat="42.964724" lon="-8.958507"><ele>417</ele></trkpt><trkpt lat="42.965137" lon="-8.959595"><ele>425</ele></trkpt><trkpt lat="42.964754" lon="-8.960253"><ele>427</ele></trkpt><trkpt lat="42.963925" lon="-8.96069"><ele>435</ele></trkpt><trkpt lat="42.963082" lon="-8.961011"><ele>451</ele></trkpt><trkpt lat="42.962412" lon="-8.961685"><ele>468</ele></trkpt><trkpt lat="42.961902" lon="-8.962219"><ele>474</ele></trkpt><trkpt lat="42.96124" lon="-8.962655"><ele>474</ele></trkpt><trkpt lat="42.961539" lon="-8.963814"><ele>467</ele></trkpt><trkpt lat="42.961838" lon="-8.964973"><ele>458</ele></trkpt><trkpt lat="42.962137" lon="-8.966132"><ele>449</ele></trkpt><trkpt lat="42.962434" lon="-8.967292"><ele>437</ele></trkpt><trkpt lat="42.962729" lon="-8.968452"><ele>424</ele></trkpt><trkpt lat="42.963025" lon="-8.969613"><ele>413</ele></trkpt><trkpt lat="42.963334" lon="-8.970765"><ele>402</ele></trkpt><trkpt lat="42.963928" lon="-8.971683"><ele>393</ele></trkpt><trkpt lat="42.96458" lon="-8.972527"><ele>380</ele></trkpt><trkpt lat="42.965385" lon="-8.973051"><ele>369</ele></trkpt><trkpt lat="42.965999" lon="-8.973467"><ele>358</ele></trkpt><trkpt lat="42.96512" lon="-8.973618"><ele>359</ele></trkpt><trkpt lat="42.964235" lon="-8.973841"><ele>354</ele></trkpt><trkpt lat="42.963355" lon="-8.974089"><ele>346</ele></trkpt><trkpt lat="42.962635" lon="-8.974535"><ele>340</ele></trkpt><trkpt lat="42.963139" lon="-8.975431"><ele>331</ele></trkpt><trkpt lat="42.963513" lon="-8.976543"><ele>325</ele></trkpt><trkpt lat="42.963837" lon="-8.97769"><ele>321</ele></trkpt><trkpt lat="42.964354" lon="-8.978688"><ele>320</ele></trkpt><trkpt lat="42.964881" lon="-8.979666"><ele>316</ele></trkpt><trkpt lat="42.964514" lon="-8.980753"><ele>319</ele></trkpt><trkpt lat="42.964119" lon="-8.981857"><ele>318</ele></trkpt><trkpt lat="42.963685" lon="-8.982926"><ele>321</ele></trkpt><trkpt lat="42.963" lon="-8.983714"><ele>325</ele></trkpt><trkpt lat="42.96278" lon="-8.984619"><ele>322</ele></trkpt><trkpt lat="42.962838" lon="-8.985778"><ele>315</ele></trkpt><trkpt lat="42.962103" lon="-8.986451"><ele>313</ele></trkpt><trkpt lat="42.96126" lon="-8.986854"><ele>313</ele></trkpt><trkpt lat="42.960385" lon="-8.986928"><ele>314</ele></trkpt><trkpt lat="42.959654" lon="-8.987561"><ele>314</ele></trkpt><trkpt lat="42.959362" lon="-8.988719"><ele>316</ele></trkpt><trkpt lat="42.958781" lon="-8.989657"><ele>320</ele></trkpt><trkpt lat="42.958259" lon="-8.990655"><ele>320</ele></trkpt><trkpt lat="42.958453" lon="-8.991759"><ele>319</ele></trkpt><trkpt lat="42.958822" lon="-8.99288"><ele>321</ele></trkpt><trkpt lat="42.958942" lon="-8.993932"><ele>327</ele></trkpt><trkpt lat="42.95816" lon="-8.994538"><ele>327</ele></trkpt><trkpt lat="42.957524" lon="-8.995381"><ele>326</ele></trkpt><trkpt lat="42.957446" lon="-8.996414"><ele>324</ele></trkpt><trkpt lat="42.958144" lon="-8.997189"><ele>321</ele></trkpt><trkpt lat="42.958853" lon="-8.997945"><ele>318</ele></trkpt><trkpt lat="42.959347" lon="-8.998928"><ele>314</ele></trkpt><trkpt lat="42.959653" lon="-9.000083"><ele>307</ele></trkpt><trkpt lat="42.960106" lon="-9.001141"><ele>301</ele></trkpt><trkpt lat="42.960621" lon="-9.002149"><ele>294</ele></trkpt><trkpt lat="42.961158" lon="-9.003133"><ele>288</ele></trkpt><trkpt lat="42.961743" lon="-9.004064"><ele>280</ele></trkpt><trkpt lat="42.961832" lon="-9.00523"><ele>270</ele></trkpt><trkpt lat="42.961778" lon="-9.006457"><ele>266</ele></trkpt><trkpt lat="42.961724" lon="-9.007684"><ele>263</ele></trkpt><trkpt lat="42.961676" lon="-9.008911"><ele>261</ele></trkpt><trkpt lat="42.961638" lon="-9.010139"><ele>260</ele></trkpt><trkpt lat="42.961612" lon="-9.011366"><ele>260</ele></trkpt><trkpt lat="42.961668" lon="-9.012593"><ele>259</ele></trkpt><trkpt lat="42.961724" lon="-9.013819"><ele>259</ele></trkpt><trkpt lat="42.961694" lon="-9.015041"><ele>259</ele></trkpt><trkpt lat="42.961519" lon="-9.016246"><ele>260</ele></trkpt><trkpt lat="42.961635" lon="-9.017357"><ele>258</ele></trkpt><trkpt lat="42.962053" lon="-9.018423"><ele>257</ele></trkpt><trkpt lat="42.962935" lon="-9.018492"><ele>259</ele></trkpt><trkpt lat="42.963718" lon="-9.019077"><ele>265</ele></trkpt><trkpt lat="42.964404" lon="-9.019837"><ele>268</ele></trkpt><trkpt lat="42.964686" lon="-9.021"><ele>264</ele></trkpt><trkpt lat="42.964839" lon="-9.022209"><ele>261</ele></trkpt><trkpt lat="42.964755" lon="-9.023432"><ele>262</ele></trkpt><trkpt lat="42.964666" lon="-9.024655"><ele>263</ele></trkpt><trkpt lat="42.964579" lon="-9.025878"><ele>263</ele></trkpt><trkpt lat="42.964501" lon="-9.027102"><ele>265</ele></trkpt><trkpt lat="42.964611" lon="-9.028316"><ele>263</ele></trkpt><trkpt lat="42.964801" lon="-9.029517"><ele>262</ele></trkpt><trkpt lat="42.965047" lon="-9.030698"><ele>267</ele></trkpt><trkpt lat="42.96536" lon="-9.03185"><ele>274</ele></trkpt><trkpt lat="42.965745" lon="-9.032954"><ele>276</ele></trkpt><trkpt lat="42.966228" lon="-9.03399"><ele>275</ele></trkpt><trkpt lat="42.966689" lon="-9.035028"><ele>276</ele></trkpt><trkpt lat="42.966543" lon="-9.03622"><ele>275</ele></trkpt><trkpt lat="42.966629" lon="-9.037441"><ele>272</ele></trkpt><trkpt lat="42.966733" lon="-9.038658"><ele>274</ele></trkpt><trkpt lat="42.966671" lon="-9.039602"><ele>275</ele></trkpt></trkseg></trk></gpx>