<?xml version="1.0" encoding="UTF-8"?>
<gpx version="1.1" creator="Mi Diario del Camino de Santiago" xmlns="http://www.topografix.com/GPX/1/1">
<metadata><name>Etapa 23: Astorga - Foncebadón</name><copyright author="OpenStreetMap contributors"><license>https://opendatacommons.org/licenses/odbl/1-0/</license></copyright></metadata>
<trk><name>Etapa 23: Astorga - Foncebadón</name><trkseg><trkpt lat="42.457538" lon="-6.056766"><ele>872</ele></trkpt><trkpt lat="42.457514" lon="-6.057602"><ele>873</ele></trkpt><trkpt lat="42.456985" lon="-6.0585"><ele>873</ele></trkpt><trkpt lat="42.457082" lon="-6.059512"><ele>874</ele></trkpt><trkpt lat="42.457671" lon="-6.060433"><ele>876</ele></trkpt><trkpt lat="42.458274" lon="-6.061337"><ele>875</ele></trkpt><trkpt lat="42.458837" lon="-6.062286"><ele>876</ele></trkpt><trkpt lat="42.458844" lon="-6.063459"><ele>878</ele></trkpt><trkpt lat="42.458616" lon="-6.064632"><ele>877</ele></trkpt><trkpt lat="42.458586" lon="-6.065846"><ele>873</ele></trkpt><trkpt lat="42.458613" lon="-6.067065"><ele>868</ele></trkpt><trkpt lat="42.458657" lon="-6.068282"><ele>866</ele></trkpt><trkpt lat="42.45879" lon="-6.069487"><ele>863</ele></trkpt><trkpt lat="42.458936" lon="-6.07069"><ele>863</ele></trkpt><trkpt lat="42.459112" lon="-6.071885"><ele>860</ele></trkpt><trkpt lat="42.459318" lon="-6.073072"><ele>858</ele></trkpt><trkpt lat="42.459301" lon="-6.074284"><ele>856</ele></trkpt><trkpt lat="42.459184" lon="-6.075492"><ele>856</ele></trkpt><trkpt lat="42.459128" lon="-6.076707"><ele>857</ele></trkpt><trkpt lat="42.459159" lon="-6.077926"><ele>859</ele></trkpt><trkpt lat="42.459191" lon="-6.079144"><ele>860</ele></trkpt><trkpt lat="42.459222" lon="-6.080362"><ele>859</ele></trkpt><trkpt lat="42.459392" lon="-6.081494"><ele>860</ele></trkpt><trkpt lat="42.459635" lon="-6.082668"><ele>859</ele></trkpt><trkpt lat="42.459878" lon="-6.083842"><ele>861</ele></trkpt><trkpt lat="42.460119" lon="-6.085016"><ele>863</ele></trkpt><trkpt lat="42.460367" lon="-6.086188"><ele>862</ele></trkpt><trkpt lat="42.460679" lon="-6.087318"><ele>863</ele></trkpt><trkpt lat="42.460929" lon="-6.088489"><ele>864</ele></trkpt><trkpt lat="42.461179" lon="-6.08966"><ele>865</ele></trkpt><trkpt lat="42.461428" lon="-6.090832"><ele>866</ele></trkpt><trkpt lat="42.461606" lon="-6.092023"><ele>867</ele></trkpt><trkpt lat="42.461664" lon="-6.093239"><ele>866</ele></trkpt><trkpt lat="42.461706" lon="-6.094456"><ele>868</ele></trkpt><trkpt lat="42.461748" lon="-6.095674"><ele>868</ele></trkpt><trkpt lat="42.461408" lon="-6.096638"><ele>869</ele></trkpt><trkpt lat="42.46092" lon="-6.097662"><ele>869</ele></trkpt><trkpt lat="42.460449" lon="-6.098676"><ele>870</ele></trkpt><trkpt lat="42.460451" lon="-6.099842"><ele>872</ele></trkpt><trkpt lat="42.460397" lon="-6.101059"><ele>873</ele></trkpt><trkpt lat="42.460341" lon="-6.102275"><ele>874</ele></trkpt><trkpt lat="42.460286" lon="-6.103492"><ele>877</ele></trkpt><trkpt lat="42.460325" lon="-6.104709"><ele>881</ele></trkpt><trkpt lat="42.460339" lon="-6.105926"><ele>883</ele></trkpt><trkpt lat="42.46031" lon="-6.105083"><ele>882</ele></trkpt><trkpt lat="42.460291" lon="-6.103867"><ele>878</ele></trkpt><trkpt lat="42.460322" lon="-6.10265"><ele>875</ele></trkpt><trkpt lat="42.460191" lon="-6.102567"><ele>875</ele></trkpt><trkpt lat="42.459925" lon="-6.10373"><ele>878</ele></trkpt><trkpt lat="42.459648" lon="-6.10489"><ele>881</ele></trkpt><trkpt lat="42.459414" lon="-6.106067"><ele>883</ele></trkpt><trkpt lat="42.459212" lon="-6.107254"><ele>884</ele></trkpt><trkpt lat="42.459015" lon="-6.108443"><ele>885</ele></trkpt><trkpt lat="42.458816" lon="-6.109632"><ele>886</ele></trkpt><trkpt lat="42.458611" lon="-6.110819"><ele>889</ele></trkpt><trkpt lat="42.458409" lon="-6.112007"><ele>889</ele></trkpt><trkpt lat="42.458208" lon="-6.113195"><ele>891</ele></trkpt><trkpt lat="42.458009" lon="-6.114384"><ele>893</ele></trkpt><trkpt lat="42.45781" lon="-6.115572"><ele>895</ele></trkpt><trkpt lat="42.457609" lon="-6.11676"><ele>897</ele></trkpt><trkpt lat="42.457405" lon="-6.117948"><ele>899</ele></trkpt><trkpt lat="42.457199" lon="-6.119134"><ele>901</ele></trkpt><trkpt lat="42.456951" lon="-6.120305"><ele>906</ele></trkpt><trkpt lat="42.456693" lon="-6.121473"><ele>909</ele></trkpt><trkpt lat="42.456433" lon="-6.12264"><ele>909</ele></trkpt><trkpt lat="42.456172" lon="-6.123807"><ele>909</ele></trkpt><trkpt lat="42.45591" lon="-6.124973"><ele>911</ele></trkpt><trkpt lat="42.455648" lon="-6.126139"><ele>913</ele></trkpt><trkpt lat="42.455428" lon="-6.127319"><ele>915</ele></trkpt><trkpt lat="42.455282" lon="-6.128521"><ele>917</ele></trkpt><trkpt lat="42.45514" lon="-6.129725"><ele>920</ele></trkpt><trkpt lat="42.454997" lon="-6.130928"><ele>923</ele></trkpt><trkpt lat="42.454874" lon="-6.132134"><ele>926</ele></trkpt><trkpt lat="42.454879" lon="-6.133353"><ele>929</ele></trkpt><trkpt lat="42.454897" lon="-6.134572"><ele>930</ele></trkpt><trkpt lat="42.454949" lon="-6.135773"><ele>935</ele></trkpt><trkpt lat="42.454954" lon="-6.136992"><ele>939</ele></trkpt><trkpt lat="42.454963" lon="-6.138211"><ele>944</ele></trkpt><trkpt lat="42.454975" lon="-6.139429"><ele>948</ele></trkpt><trkpt lat="42.454985" lon="-6.140648"><ele>950</ele></trkpt><trkpt lat="42.454991" lon="-6.141867"><ele>952</ele></trkpt><trkpt lat="42.45494" lon="-6.143083"><ele>956</ele></trkpt><trkpt lat="42.454853" lon="-6.144296"><ele>959</ele></trkpt><trkpt lat="42.454888" lon="-6.145502"><ele>962</ele></trkpt><trkpt lat="42.455122" lon="-6.146679"><ele>965</ele></trkpt><trkpt lat="42.455331" lon="-6.147864"><ele>968</ele></trkpt><trkpt lat="42.455402" lon="-6.149078"><ele>968</ele></trkpt><trkpt lat="42.455339" lon="-6.150293"><ele>968</ele></trkpt><trkpt lat="42.455294" lon="-6.15151"><ele>973</ele></trkpt><trkpt lat="42.455285" lon="-6.152729"><ele>973</ele></trkpt><trkpt lat="42.455262" lon="-6.153947"><ele>973</ele></trkpt><trkpt lat="42.455199" lon="-6.155163"><ele>975</ele></trkpt><trkpt lat="42.455041" lon="-6.156345"><ele>976</ele></trkpt><trkpt lat="42.455083" lon="-6.157563"><ele>978</ele></trkpt><trkpt lat="42.455235" lon="-6.158763"><ele>982</ele></trkpt><trkpt lat="42.455419" lon="-6.159956"><ele>984</ele></trkpt><trkpt lat="42.455527" lon="-6.161165"><ele>985</ele></trkpt><trkpt lat="42.455537" lon="-6.162378"><ele>984</ele></trkpt><trkpt lat="42.45576" lon="-6.163558"><ele>983</ele></trkpt><trkpt lat="42.455986" lon="-6.164738"><ele>985</ele></trkpt><trkpt lat="42.45629" lon="-6.16582"><ele>987</ele></trkpt><trkpt lat="42.456527" lon="-6.166996"><ele>988</ele></trkpt><trkpt lat="42.456758" lon="-6.168173"><ele>988</ele></trkpt><trkpt lat="42.456986" lon="-6.169352"><ele>989</ele></trkpt><trkpt lat="42.457215" lon="-6.170531"><ele>989</ele></trkpt><trkpt lat="42.457444" lon="-6.17171"><ele>990</ele></trkpt><trkpt lat="42.457672" lon="-6.172889"><ele>992</ele></trkpt><trkpt lat="42.457899" lon="-6.174069"><ele>993</ele></trkpt><trkpt lat="42.458127" lon="-6.175248"><ele>996</ele></trkpt><trkpt lat="42.458344" lon="-6.176431"><ele>998</ele></trkpt><trkpt lat="42.458534" lon="-6.177622"><ele>998</ele></trkpt><trkpt lat="42.458725" lon="-6.178813"><ele>1000</ele></trkpt><trkpt lat="42.458913" lon="-6.180005"><ele>1002</ele></trkpt><trkpt lat="42.459096" lon="-6.181199"><ele>1002</ele></trkpt><trkpt lat="42.459279" lon="-6.182392"><ele>1002</ele></trkpt><trkpt lat="42.459514" lon="-6.183565"><ele>1001</ele></trkpt><trkpt lat="42.459924" lon="-6.18465"><ele>1000</ele></trkpt><trkpt lat="42.460133" lon="-6.185832"><ele>1002</ele></trkpt><trkpt lat="42.460308" lon="-6.187028"><ele>1005</ele></trkpt><trkpt lat="42.460476" lon="-6.188226"><ele>1005</ele></trkpt><trkpt lat="42.46065" lon="-6.189422"><ele>1009</ele></trkpt><trkpt lat="42.460835" lon="-6.190614"><ele>1011</ele></trkpt><trkpt lat="42.461014" lon="-6.191809"><ele>1010</ele></trkpt><trkpt lat="42.461111" lon="-6.193019"><ele>1011</ele></trkpt><trkpt lat="42.461111" lon="-6.194237"><ele>1013</ele></trkpt><trkpt lat="42.461097" lon="-6.195456"><ele>1013</ele></trkpt><trkpt lat="42.461079" lon="-6.196675"><ele>1015</ele></trkpt><trkpt lat="42.461062" lon="-6.197894"><ele>1017</ele></trkpt><trkpt lat="42.46115" lon="-6.1991"><ele>1017</ele></trkpt><trkpt lat="42.461397" lon="-6.200271"><ele>1017</ele></trkpt><trkpt lat="42.461464" lon="-6.201485"><ele>1016</ele></trkpt><trkpt lat="42.461695" lon="-6.202663"><ele>1016</ele></trkpt><trkpt lat="42.461825" lon="-6.203794"><ele>1015</ele></trkpt><trkpt lat="42.462263" lon="-6.204827"><ele>1015</ele></trkpt><trkpt lat="42.462721" lon="-6.205864"><ele>1017</ele></trkpt><trkpt lat="42.462802" lon="-6.207048"><ele>1018</ele></trkpt><trkpt lat="42.462967" lon="-6.208161"><ele>1018</ele></trkpt><trkpt lat="42.462632" lon="-6.208989"><ele>1016</ele></trkpt><trkpt lat="42.462749" lon="-6.210197"><ele>1015</ele></trkpt><trkpt lat="42.462905" lon="-6.211328"><ele>1014</ele></trkpt><trkpt lat="42.462985" lon="-6.212542"><ele>1014</ele></trkpt><trkpt lat="42.463082" lon="-6.213754"><ele>1012</ele></trkpt><trkpt lat="42.463156" lon="-6.214969"><ele>1014</ele></trkpt><trkpt lat="42.46335" lon="-6.216158"><ele>1016</ele></trkpt><trkpt lat="42.463692" lon="-6.217281"><ele>1015</ele></trkpt><trkpt lat="42.464327" lon="-6.218138"><ele>1015</ele></trkpt><trkpt lat="42.464446" lon="-6.219253"><ele>1016</ele></trkpt><trkpt lat="42.464247" lon="-6.220442"><ele>1019</ele></trkpt><trkpt lat="42.464055" lon="-6.221632"><ele>1025</ele></trkpt><trkpt lat="42.464038" lon="-6.22285"><ele>1026</ele></trkpt><trkpt lat="42.46412" lon="-6.224062"><ele>1028</ele></trkpt><trkpt lat="42.464391" lon="-6.225217"><ele>1030</ele></trkpt><trkpt lat="42.464729" lon="-6.226334"><ele>1033</ele></trkpt><trkpt lat="42.465124" lon="-6.227429"><ele>1034</ele></trkpt><trkpt lat="42.465523" lon="-6.228521"><ele>1036</ele></trkpt><trkpt lat="42.46592" lon="-6.229616"><ele>1039</ele></trkpt><trkpt lat="42.466319" lon="-6.230708"><ele>1043</ele></trkpt><trkpt lat="42.46672" lon="-6.2318"><ele>1047</ele></trkpt><trkpt lat="42.467109" lon="-6.232898"><ele>1048</ele></trkpt><trkpt lat="42.467497" lon="-6.233998"><ele>1051</ele></trkpt><trkpt lat="42.467887" lon="-6.235097"><ele>1053</ele></trkpt><trkpt lat="42.46828" lon="-6.236193"><ele>1057</ele></trkpt><trkpt lat="42.468681" lon="-6.237284"><ele>1059</ele></trkpt><trkpt lat="42.469151" lon="-6.238292"><ele>1060</ele></trkpt><trkpt lat="42.469584" lon="-6.239359"><ele>1062</ele></trkpt><trkpt lat="42.469999" lon="-6.240441"><ele>1064</ele></trkpt><trkpt lat="42.470409" lon="-6.241526"><ele>1065</ele></trkpt><trkpt lat="42.470827" lon="-6.242606"><ele>1065</ele></trkpt><trkpt lat="42.471245" lon="-6.243685"><ele>1065</ele></trkpt><trkpt lat="42.471679" lon="-6.244738"><ele>1066</ele></trkpt><trkpt lat="42.472019" lon="-6.245865"><ele>1064</ele></trkpt><trkpt lat="42.472317" lon="-6.247015"><ele>1062</ele></trkpt><trkpt lat="42.472609" lon="-6.248152"><ele>1063</ele></trkpt><trkpt lat="42.472868" lon="-6.249319"><ele>1063</ele></trkpt><trkpt lat="42.473162" lon="-6.250471"><ele>1060</ele></trkpt><trkpt lat="42.473625" lon="-6.251514"><ele>1061</ele></trkpt><trkpt lat="42.474142" lon="-6.25251"><ele>1067</ele></trkpt><trkpt lat="42.474157" lon="-6.25368"><ele>1062</ele></trkpt><trkpt lat="42.474496" lon="-6.254705"><ele>1066</ele></trkpt><trkpt lat="42.475005" lon="-6.255663"><ele>1072</ele></trkpt><trkpt lat="42.475218" lon="-6.256835"><ele>1082</ele></trkpt><trkpt lat="42.47571" lon="-6.257808"><ele>1089</ele></trkpt><trkpt lat="42.476268" lon="-6.258745"><ele>1095</ele></trkpt><trkpt lat="42.476883" lon="-6.259624"><ele>1101</ele></trkpt><trkpt lat="42.477481" lon="-6.260521"><ele>1103</ele></trkpt><trkpt lat="42.477986" lon="-6.261502"><ele>1104</ele></trkpt><trkpt lat="42.478114" lon="-6.262705"><ele>1102</ele></trkpt><trkpt lat="42.478294" lon="-6.263894"><ele>1103</ele></trkpt><trkpt lat="42.47845" lon="-6.265092"><ele>1102</ele></trkpt><trkpt lat="42.478558" lon="-6.266271"><ele>1100</ele></trkpt><trkpt lat="42.478692" lon="-6.267468"><ele>1099</ele></trkpt><trkpt lat="42.478869" lon="-6.268661"><ele>1099</ele></trkpt><trkpt lat="42.479041" lon="-6.269858"><ele>1103</ele></trkpt><trkpt lat="42.47912" lon="-6.271066"><ele>1104</ele></trkpt><trkpt lat="42.478992" lon="-6.272269"><ele>1106</ele></trkpt><trkpt lat="42.479137" lon="-6.273427"><ele>1109</ele></trkpt><trkpt lat="42.479476" lon="-6.274556"><ele>1114</ele></trkpt><trkpt lat="42.479715" lon="-6.27573"><ele>1116</ele></trkpt><trkpt lat="42.479933" lon="-6.276912"><ele>1119</ele></trkpt><trkpt lat="42.480175" lon="-6.278086"><ele>1123</ele></trkpt><trkpt lat="42.480565" lon="-6.27916"><ele>1125</ele></trkpt><trkpt lat="42.481016" lon="-6.280208"><ele>1128</ele></trkpt><trkpt lat="42.481529" lon="-6.281208"><ele>1133</ele></trkpt><trkpt lat="42.481843" lon="-6.282334"><ele>1139</ele></trkpt><trkpt lat="42.482142" lon="-6.283484"><ele>1147</ele></trkpt><trkpt lat="42.482343" lon="-6.28467"><ele>1156</ele></trkpt><trkpt lat="42.482463" lon="-6.285878"><ele>1160</ele></trkpt><trkpt lat="42.482683" lon="-6.287058"><ele>1161</ele></trkpt><trkpt lat="42.482914" lon="-6.288231"><ele>1164</ele></trkpt><trkpt lat="42.482945" lon="-6.289442"><ele>1171</ele></trkpt><trkpt lat="42.482713" lon="-6.290619"><ele>1175</ele></trkpt><trkpt lat="42.482591" lon="-6.291826"><ele>1178</ele></trkpt><trkpt lat="42.482699" lon="-6.293036"><ele>1180</ele></trkpt><trkpt lat="42.48284" lon="-6.294236"><ele>1185</ele></trkpt><trkpt lat="42.483073" lon="-6.295414"><ele>1192</ele></trkpt><trkpt lat="42.483109" lon="-6.296621"><ele>1196</ele></trkpt><trkpt lat="42.483343" lon="-6.297796"><ele>1197</ele></trkpt><trkpt lat="42.48359" lon="-6.298944"><ele>1198</ele></trkpt><trkpt lat="42.484053" lon="-6.299959"><ele>1204</ele></trkpt><trkpt lat="42.484578" lon="-6.300948"><ele>1205</ele></trkpt><trkpt lat="42.485029" lon="-6.302003"><ele>1209</ele></trkpt><trkpt lat="42.485406" lon="-6.30311"><ele>1214</ele></trkpt><trkpt lat="42.485761" lon="-6.30423"><ele>1221</ele></trkpt><trkpt lat="42.486154" lon="-6.305325"><ele>1227</ele></trkpt><trkpt lat="42.48657" lon="-6.306402"><ele>1229</ele></trkpt><trkpt lat="42.486595" lon="-6.307605"><ele>1236</ele></trkpt><trkpt lat="42.486306" lon="-6.308698"><ele>1250</ele></trkpt><trkpt lat="42.486214" lon="-6.309774"><ele>1263</ele></trkpt><trkpt lat="42.486218" lon="-6.310983"><ele>1268</ele></trkpt><trkpt lat="42.486638" lon="-6.312034"><ele>1276</ele></trkpt><trkpt lat="42.48727" lon="-6.312889"><ele>1278</ele></trkpt><trkpt lat="42.488007" lon="-6.313586"><ele>1286</ele></trkpt><trkpt lat="42.488358" lon="-6.314569"><ele>1294</ele></trkpt><trkpt lat="42.488114" lon="-6.315706"><ele>1293</ele></trkpt><trkpt lat="42.488361" lon="-6.316876"><ele>1297</ele></trkpt><trkpt lat="42.488858" lon="-6.317881"><ele>1301</ele></trkpt><trkpt lat="42.489541" lon="-6.31867"><ele>1312</ele></trkpt><trkpt lat="42.489961" lon="-6.319619"><ele>1324</ele></trkpt><trkpt lat="42.489595" lon="-6.320715"><ele>1319</ele></trkpt><trkpt lat="42.489981" lon="-6.321801"><ele>1329</ele></trkpt><trkpt lat="42.490593" lon="-6.322677"><ele>1339</ele></trkpt><trkpt lat="42.491256" lon="-6.323461"><ele>1347</ele></trkpt><trkpt lat="42.491539" lon="-6.324584"><ele>1348</ele></trkpt><trkpt lat="42.491571" lon="-6.325801"><ele>1346</ele></trkpt><trkpt lat="42.491561" lon="-6.327011"><ele>1361</ele></trkpt><trkpt lat="42.490988" lon="-6.327901"><ele>1373</ele></trkpt><trkpt lat="42.490195" lon="-6.328456"><ele>1375</ele></trkpt><trkpt lat="42.489808" lon="-6.329541"><ele>1381</ele></trkpt><trkpt lat="42.489755" lon="-6.330726"><ele>1381</ele></trkpt><trkpt lat="42.490267" lon="-6.331722"><ele>1383</ele></trkpt><trkpt lat="42.490824" lon="-6.332675"><ele>1386</ele></trkpt><trkpt lat="42.491343" lon="-6.333669"><ele>1390</ele></trkpt><trkpt lat="42.491621" lon="-6.334803"><ele>1391</ele></trkpt><trkpt lat="42.491563" lon="-6.336008"><ele>1396</ele></trkpt><trkpt lat="42.49135" lon="-6.337192"><ele>1401</ele></trkpt><trkpt lat="42.490972" lon="-6.338293"><ele>1405</ele></trkpt><trkpt lat="42.490701" lon="-6.339455"><ele>1410</ele></trkpt><trkpt lat="42.490785" lon="-6.34066"><ele>1416</ele></trkpt><trkpt lat="42.49092" lon="-6.341861"><ele>1422</ele></trkpt><trkpt lat="42.491263" lon="-6.342635"><ele>1427</ele></trkpt></trkseg></trk></gpx>