<?xml version="1.0" encoding="UTF-8"?>
<gpx version="1.1" creator="Mi Diario del Camino de Santiago" xmlns="http://www.topografix.com/GPX/1/1">
<metadata><name>Etapa 19: Bercianos del Real Camino - Mansilla de las Mulas</name><copyright author="OpenStreetMap contributors"><license>https://opendatacommons.org/licenses/odbl/1-0/</license></copyright></metadata>
<trk><name>Etapa 19: Bercianos del Real Camino - Mansilla de las Mulas</name><trkseg><trkpt lat="42.387819" lon="-5.145113"><ele>855</ele></trkpt><trkpt lat="42.388341" lon="-5.146094"><ele>853</ele></trkpt><trkpt lat="42.389003" lon="-5.146899"><ele>849</ele></trkpt><trkpt lat="42.389634" lon="-5.147729"><ele>849</ele></trkpt><trkpt lat="42.390213" lon="-5.148662"><ele>851</ele></trkpt><trkpt lat="42.390714" lon="-5.149671"><ele>853</ele></trkpt><trkpt lat="42.391145" lon="-5.150739"><ele>854</ele></trkpt><trkpt lat="42.391572" lon="-5.15181"><ele>857</ele></trkpt><trkpt lat="42.392114" lon="-5.152782"><ele>859</ele></trkpt><trkpt lat="42.392646" lon="-5.153763"><ele>859</ele></trkpt><trkpt lat="42.393176" lon="-5.154746"><ele>859</ele></trkpt><trkpt lat="42.39372" lon="-5.155717"><ele>859</ele></trkpt><trkpt lat="42.39424" lon="-5.15671"><ele>860</ele></trkpt><trkpt lat="42.394695" lon="-5.15776"><ele>862</ele></trkpt><trkpt lat="42.395147" lon="-5.158812"><ele>865</ele></trkpt><trkpt lat="42.395594" lon="-5.159869"><ele>868</ele></trkpt><trkpt lat="42.396043" lon="-5.160924"><ele>869</ele></trkpt><trkpt lat="42.396494" lon="-5.161978"><ele>866</ele></trkpt><trkpt lat="42.396943" lon="-5.163033"><ele>861</ele></trkpt><trkpt lat="42.397283" lon="-5.164157"><ele>856</ele></trkpt><trkpt lat="42.397551" lon="-5.165319"><ele>859</ele></trkpt><trkpt lat="42.397817" lon="-5.166482"><ele>859</ele></trkpt><trkpt lat="42.398197" lon="-5.167584"><ele>859</ele></trkpt><trkpt lat="42.398623" lon="-5.168656"><ele>861</ele></trkpt><trkpt lat="42.399048" lon="-5.169729"><ele>862</ele></trkpt><trkpt lat="42.39947" lon="-5.170805"><ele>864</ele></trkpt><trkpt lat="42.399892" lon="-5.17188"><ele>867</ele></trkpt><trkpt lat="42.400313" lon="-5.172956"><ele>869</ele></trkpt><trkpt lat="42.400742" lon="-5.174026"><ele>870</ele></trkpt><trkpt lat="42.401171" lon="-5.175097"><ele>869</ele></trkpt><trkpt lat="42.401601" lon="-5.176167"><ele>868</ele></trkpt><trkpt lat="42.402031" lon="-5.177236"><ele>870</ele></trkpt><trkpt lat="42.402457" lon="-5.178309"><ele>870</ele></trkpt><trkpt lat="42.402884" lon="-5.179381"><ele>872</ele></trkpt><trkpt lat="42.403311" lon="-5.180452"><ele>872</ele></trkpt><trkpt lat="42.403738" lon="-5.181524"><ele>872</ele></trkpt><trkpt lat="42.404162" lon="-5.182598"><ele>873</ele></trkpt><trkpt lat="42.404586" lon="-5.183673"><ele>874</ele></trkpt><trkpt lat="42.405036" lon="-5.184726"><ele>875</ele></trkpt><trkpt lat="42.405526" lon="-5.185747"><ele>875</ele></trkpt><trkpt lat="42.406013" lon="-5.18677"><ele>877</ele></trkpt><trkpt lat="42.406499" lon="-5.187795"><ele>878</ele></trkpt><trkpt lat="42.406985" lon="-5.18882"><ele>877</ele></trkpt><trkpt lat="42.40747" lon="-5.189846"><ele>877</ele></trkpt><trkpt lat="42.407945" lon="-5.190881"><ele>878</ele></trkpt><trkpt lat="42.408418" lon="-5.191916"><ele>878</ele></trkpt><trkpt lat="42.408892" lon="-5.192951"><ele>877</ele></trkpt><trkpt lat="42.409365" lon="-5.193987"><ele>876</ele></trkpt><trkpt lat="42.409839" lon="-5.195022"><ele>875</ele></trkpt><trkpt lat="42.410313" lon="-5.196058"><ele>874</ele></trkpt><trkpt lat="42.410787" lon="-5.197092"><ele>876</ele></trkpt><trkpt lat="42.411266" lon="-5.198124"><ele>876</ele></trkpt><trkpt lat="42.411714" lon="-5.19918"><ele>876</ele></trkpt><trkpt lat="42.412154" lon="-5.200242"><ele>874</ele></trkpt><trkpt lat="42.412592" lon="-5.201306"><ele>875</ele></trkpt><trkpt lat="42.413103" lon="-5.202308"><ele>875</ele></trkpt><trkpt lat="42.41362" lon="-5.203304"><ele>875</ele></trkpt><trkpt lat="42.414111" lon="-5.204324"><ele>875</ele></trkpt><trkpt lat="42.414569" lon="-5.205368"><ele>874</ele></trkpt><trkpt lat="42.415105" lon="-5.206346"><ele>873</ele></trkpt><trkpt lat="42.415613" lon="-5.207351"><ele>873</ele></trkpt><trkpt lat="42.416157" lon="-5.208321"><ele>873</ele></trkpt><trkpt lat="42.416721" lon="-5.20927"><ele>873</ele></trkpt><trkpt lat="42.417282" lon="-5.210222"><ele>873</ele></trkpt><trkpt lat="42.417834" lon="-5.211183"><ele>875</ele></trkpt><trkpt lat="42.418363" lon="-5.212168"><ele>875</ele></trkpt><trkpt lat="42.418856" lon="-5.213187"><ele>876</ele></trkpt><trkpt lat="42.419354" lon="-5.214201"><ele>876</ele></trkpt><trkpt lat="42.419865" lon="-5.215203"><ele>877</ele></trkpt><trkpt lat="42.420469" lon="-5.216052"><ele>877</ele></trkpt><trkpt lat="42.420957" lon="-5.217075"><ele>879</ele></trkpt><trkpt lat="42.421452" lon="-5.218092"><ele>879</ele></trkpt><trkpt lat="42.421965" lon="-5.219093"><ele>879</ele></trkpt><trkpt lat="42.422429" lon="-5.220135"><ele>879</ele></trkpt><trkpt lat="42.422671" lon="-5.221306"><ele>879</ele></trkpt><trkpt lat="42.423002" lon="-5.222426"><ele>878</ele></trkpt><trkpt lat="42.423605" lon="-5.22329"><ele>877</ele></trkpt><trkpt lat="42.424205" lon="-5.224189"><ele>878</ele></trkpt><trkpt lat="42.424735" lon="-5.225173"><ele>877</ele></trkpt><trkpt lat="42.425303" lon="-5.226115"><ele>878</ele></trkpt><trkpt lat="42.425916" lon="-5.227007"><ele>878</ele></trkpt><trkpt lat="42.426526" lon="-5.227901"><ele>878</ele></trkpt><trkpt lat="42.427028" lon="-5.228911"><ele>877</ele></trkpt><trkpt lat="42.427518" lon="-5.229933"><ele>877</ele></trkpt><trkpt lat="42.428007" lon="-5.230955"><ele>877</ele></trkpt><trkpt lat="42.428499" lon="-5.231975"><ele>878</ele></trkpt><trkpt lat="42.428989" lon="-5.232997"><ele>878</ele></trkpt><trkpt lat="42.429481" lon="-5.234016"><ele>879</ele></trkpt><trkpt lat="42.429973" lon="-5.235037"><ele>877</ele></trkpt><trkpt lat="42.430459" lon="-5.236062"><ele>878</ele></trkpt><trkpt lat="42.430935" lon="-5.237095"><ele>877</ele></trkpt><trkpt lat="42.431321" lon="-5.238195"><ele>878</ele></trkpt><trkpt lat="42.4317" lon="-5.2393"><ele>876</ele></trkpt><trkpt lat="42.43207" lon="-5.24041"><ele>874</ele></trkpt><trkpt lat="42.432437" lon="-5.241523"><ele>873</ele></trkpt><trkpt lat="42.432803" lon="-5.242636"><ele>872</ele></trkpt><trkpt lat="42.433171" lon="-5.243748"><ele>868</ele></trkpt><trkpt lat="42.433544" lon="-5.244857"><ele>867</ele></trkpt><trkpt lat="42.434069" lon="-5.245841"><ele>870</ele></trkpt><trkpt lat="42.434632" lon="-5.246791"><ele>874</ele></trkpt><trkpt lat="42.435197" lon="-5.247738"><ele>873</ele></trkpt><trkpt lat="42.435758" lon="-5.248691"><ele>873</ele></trkpt><trkpt lat="42.436317" lon="-5.249645"><ele>874</ele></trkpt><trkpt lat="42.436877" lon="-5.250599"><ele>874</ele></trkpt><trkpt lat="42.437436" lon="-5.251554"><ele>875</ele></trkpt><trkpt lat="42.437994" lon="-5.25251"><ele>875</ele></trkpt><trkpt lat="42.438552" lon="-5.253465"><ele>875</ele></trkpt><trkpt lat="42.43911" lon="-5.254421"><ele>875</ele></trkpt><trkpt lat="42.439693" lon="-5.255347"><ele>876</ele></trkpt><trkpt lat="42.440306" lon="-5.256239"><ele>876</ele></trkpt><trkpt lat="42.44092" lon="-5.257129"><ele>876</ele></trkpt><trkpt lat="42.441534" lon="-5.25802"><ele>876</ele></trkpt><trkpt lat="42.442153" lon="-5.258904"><ele>876</ele></trkpt><trkpt lat="42.44277" lon="-5.259791"><ele>876</ele></trkpt><trkpt lat="42.443388" lon="-5.260676"><ele>874</ele></trkpt><trkpt lat="42.444004" lon="-5.261564"><ele>873</ele></trkpt><trkpt lat="42.444621" lon="-5.26245"><ele>868</ele></trkpt><trkpt lat="42.445198" lon="-5.263385"><ele>865</ele></trkpt><trkpt lat="42.445759" lon="-5.264337"><ele>863</ele></trkpt><trkpt lat="42.446318" lon="-5.265292"><ele>865</ele></trkpt><trkpt lat="42.446882" lon="-5.266241"><ele>868</ele></trkpt><trkpt lat="42.447446" lon="-5.267191"><ele>868</ele></trkpt><trkpt lat="42.447994" lon="-5.268155"><ele>868</ele></trkpt><trkpt lat="42.448426" lon="-5.269224"><ele>868</ele></trkpt><trkpt lat="42.448859" lon="-5.270292"><ele>866</ele></trkpt><trkpt lat="42.449293" lon="-5.27136"><ele>867</ele></trkpt><trkpt lat="42.449726" lon="-5.272429"><ele>867</ele></trkpt><trkpt lat="42.450157" lon="-5.273498"><ele>868</ele></trkpt><trkpt lat="42.450586" lon="-5.274569"><ele>867</ele></trkpt><trkpt lat="42.451014" lon="-5.275641"><ele>866</ele></trkpt><trkpt lat="42.451442" lon="-5.276713"><ele>866</ele></trkpt><trkpt lat="42.451871" lon="-5.277784"><ele>866</ele></trkpt><trkpt lat="42.452302" lon="-5.278854"><ele>865</ele></trkpt><trkpt lat="42.452746" lon="-5.279914"><ele>862</ele></trkpt><trkpt lat="42.453193" lon="-5.280972"><ele>860</ele></trkpt><trkpt lat="42.453638" lon="-5.282031"><ele>860</ele></trkpt><trkpt lat="42.454081" lon="-5.283091"><ele>862</ele></trkpt><trkpt lat="42.454527" lon="-5.28415"><ele>862</ele></trkpt><trkpt lat="42.454971" lon="-5.28521"><ele>861</ele></trkpt><trkpt lat="42.455415" lon="-5.28627"><ele>861</ele></trkpt><trkpt lat="42.455859" lon="-5.28733"><ele>863</ele></trkpt><trkpt lat="42.456304" lon="-5.288389"><ele>863</ele></trkpt><trkpt lat="42.456749" lon="-5.289448"><ele>863</ele></trkpt><trkpt lat="42.457191" lon="-5.29051"><ele>862</ele></trkpt><trkpt lat="42.457637" lon="-5.291568"><ele>864</ele></trkpt><trkpt lat="42.458081" lon="-5.292628"><ele>863</ele></trkpt><trkpt lat="42.458514" lon="-5.293696"><ele>861</ele></trkpt><trkpt lat="42.458846" lon="-5.29483"><ele>859</ele></trkpt><trkpt lat="42.459172" lon="-5.295965"><ele>859</ele></trkpt><trkpt lat="42.459495" lon="-5.297103"><ele>861</ele></trkpt><trkpt lat="42.459822" lon="-5.298239"><ele>862</ele></trkpt><trkpt lat="42.460145" lon="-5.299376"><ele>863</ele></trkpt><trkpt lat="42.460495" lon="-5.300499"><ele>863</ele></trkpt><trkpt lat="42.460861" lon="-5.301612"><ele>863</ele></trkpt><trkpt lat="42.46122" lon="-5.30273"><ele>861</ele></trkpt><trkpt lat="42.461576" lon="-5.30385"><ele>860</ele></trkpt><trkpt lat="42.461928" lon="-5.304971"><ele>860</ele></trkpt><trkpt lat="42.462277" lon="-5.306095"><ele>860</ele></trkpt><trkpt lat="42.462632" lon="-5.307215"><ele>858</ele></trkpt><trkpt lat="42.462985" lon="-5.308336"><ele>856</ele></trkpt><trkpt lat="42.46334" lon="-5.309456"><ele>854</ele></trkpt><trkpt lat="42.463692" lon="-5.310578"><ele>853</ele></trkpt><trkpt lat="42.463967" lon="-5.311736"><ele>852</ele></trkpt><trkpt lat="42.464196" lon="-5.312915"><ele>850</ele></trkpt><trkpt lat="42.464425" lon="-5.314093"><ele>851</ele></trkpt><trkpt lat="42.464649" lon="-5.315274"><ele>851</ele></trkpt><trkpt lat="42.464882" lon="-5.316452"><ele>850</ele></trkpt><trkpt lat="42.465111" lon="-5.317631"><ele>851</ele></trkpt><trkpt lat="42.465266" lon="-5.318825"><ele>851</ele></trkpt><trkpt lat="42.465166" lon="-5.320036"><ele>850</ele></trkpt><trkpt lat="42.46505" lon="-5.321245"><ele>850</ele></trkpt><trkpt lat="42.464932" lon="-5.322453"><ele>851</ele></trkpt><trkpt lat="42.464819" lon="-5.323663"><ele>850</ele></trkpt><trkpt lat="42.464694" lon="-5.32487"><ele>851</ele></trkpt><trkpt lat="42.464579" lon="-5.326079"><ele>850</ele></trkpt><trkpt lat="42.464463" lon="-5.327288"><ele>850</ele></trkpt><trkpt lat="42.464606" lon="-5.328453"><ele>849</ele></trkpt><trkpt lat="42.465375" lon="-5.329013"><ele>848</ele></trkpt><trkpt lat="42.466243" lon="-5.329331"><ele>849</ele></trkpt><trkpt lat="42.467113" lon="-5.32964"><ele>843</ele></trkpt><trkpt lat="42.467851" lon="-5.33029"><ele>838</ele></trkpt><trkpt lat="42.468207" lon="-5.331402"><ele>837</ele></trkpt><trkpt lat="42.468301" lon="-5.332607"><ele>835</ele></trkpt><trkpt lat="42.468305" lon="-5.333827"><ele>836</ele></trkpt><trkpt lat="42.4683" lon="-5.335046"><ele>837</ele></trkpt><trkpt lat="42.468295" lon="-5.336265"><ele>837</ele></trkpt><trkpt lat="42.468402" lon="-5.337466"><ele>837</ele></trkpt><trkpt lat="42.468966" lon="-5.338376"><ele>840</ele></trkpt><trkpt lat="42.469672" lon="-5.339118"><ele>841</ele></trkpt><trkpt lat="42.470299" lon="-5.339975"><ele>846</ele></trkpt><trkpt lat="42.470497" lon="-5.341159"><ele>848</ele></trkpt><trkpt lat="42.470603" lon="-5.342369"><ele>849</ele></trkpt><trkpt lat="42.470684" lon="-5.343582"><ele>848</ele></trkpt><trkpt lat="42.470626" lon="-5.344799"><ele>849</ele></trkpt><trkpt lat="42.470569" lon="-5.346016"><ele>849</ele></trkpt><trkpt lat="42.47058" lon="-5.347232"><ele>847</ele></trkpt><trkpt lat="42.470882" lon="-5.348364"><ele>844</ele></trkpt><trkpt lat="42.471312" lon="-5.349435"><ele>838</ele></trkpt><trkpt lat="42.471731" lon="-5.350514"><ele>834</ele></trkpt><trkpt lat="42.472012" lon="-5.35167"><ele>833</ele></trkpt><trkpt lat="42.472523" lon="-5.352628"><ele>832</ele></trkpt><trkpt lat="42.473309" lon="-5.353221"><ele>829</ele></trkpt><trkpt lat="42.474145" lon="-5.353385"><ele>826</ele></trkpt><trkpt lat="42.474808" lon="-5.353887"><ele>822</ele></trkpt><trkpt lat="42.475217" lon="-5.35468"><ele>820</ele></trkpt><trkpt lat="42.475349" lon="-5.355606"><ele>819</ele></trkpt><trkpt lat="42.475536" lon="-5.3566"><ele>817</ele></trkpt><trkpt lat="42.475732" lon="-5.35779"><ele>816</ele></trkpt><trkpt lat="42.47607" lon="-5.358854"><ele>817</ele></trkpt><trkpt lat="42.476555" lon="-5.359881"><ele>816</ele></trkpt><trkpt lat="42.477036" lon="-5.360912"><ele>815</ele></trkpt><trkpt lat="42.477516" lon="-5.361942"><ele>815</ele></trkpt><trkpt lat="42.477996" lon="-5.362974"><ele>815</ele></trkpt><trkpt lat="42.478471" lon="-5.364008"><ele>813</ele></trkpt><trkpt lat="42.478954" lon="-5.365037"><ele>813</ele></trkpt><trkpt lat="42.479298" lon="-5.366162"><ele>811</ele></trkpt><trkpt lat="42.479689" lon="-5.367258"><ele>809</ele></trkpt><trkpt lat="42.480032" lon="-5.368385"><ele>808</ele></trkpt><trkpt lat="42.480378" lon="-5.369511"><ele>808</ele></trkpt><trkpt lat="42.480724" lon="-5.370636"><ele>807</ele></trkpt><trkpt lat="42.481072" lon="-5.37176"><ele>806</ele></trkpt><trkpt lat="42.481409" lon="-5.372891"><ele>805</ele></trkpt><trkpt lat="42.48176" lon="-5.374014"><ele>806</ele></trkpt><trkpt lat="42.482105" lon="-5.37514"><ele>806</ele></trkpt><trkpt lat="42.482452" lon="-5.376265"><ele>806</ele></trkpt><trkpt lat="42.482798" lon="-5.377391"><ele>806</ele></trkpt><trkpt lat="42.483142" lon="-5.378517"><ele>805</ele></trkpt><trkpt lat="42.483487" lon="-5.379643"><ele>805</ele></trkpt><trkpt lat="42.483831" lon="-5.38077"><ele>804</ele></trkpt><trkpt lat="42.484174" lon="-5.381898"><ele>803</ele></trkpt><trkpt lat="42.484513" lon="-5.383027"><ele>803</ele></trkpt><trkpt lat="42.48486" lon="-5.384152"><ele>800</ele></trkpt><trkpt lat="42.48521" lon="-5.385275"><ele>800</ele></trkpt><trkpt lat="42.485593" lon="-5.386377"><ele>800</ele></trkpt><trkpt lat="42.486044" lon="-5.387432"><ele>799</ele></trkpt><trkpt lat="42.486492" lon="-5.388489"><ele>799</ele></trkpt><trkpt lat="42.486946" lon="-5.389542"><ele>799</ele></trkpt><trkpt lat="42.487395" lon="-5.390598"><ele>802</ele></trkpt><trkpt lat="42.487846" lon="-5.391653"><ele>800</ele></trkpt><trkpt lat="42.488296" lon="-5.392709"><ele>799</ele></trkpt><trkpt lat="42.488745" lon="-5.393766"><ele>800</ele></trkpt><trkpt lat="42.489193" lon="-5.394823"><ele>800</ele></trkpt><trkpt lat="42.489642" lon="-5.39588"><ele>800</ele></trkpt><trkpt lat="42.490094" lon="-5.396934"><ele>800</ele></trkpt><trkpt lat="42.490543" lon="-5.397991"><ele>801</ele></trkpt><trkpt lat="42.490994" lon="-5.399046"><ele>801</ele></trkpt><trkpt lat="42.491443" lon="-5.400102"><ele>799</ele></trkpt><trkpt lat="42.491892" lon="-5.401159"><ele>800</ele></trkpt><trkpt lat="42.492339" lon="-5.402218"><ele>799</ele></trkpt><trkpt lat="42.49279" lon="-5.403273"><ele>799</ele></trkpt><trkpt lat="42.493245" lon="-5.404324"><ele>799</ele></trkpt><trkpt lat="42.493728" lon="-5.405327"><ele>798</ele></trkpt><trkpt lat="42.494124" lon="-5.406343"><ele>800</ele></trkpt><trkpt lat="42.494365" lon="-5.407499"><ele>801</ele></trkpt><trkpt lat="42.49494" lon="-5.408307"><ele>799</ele></trkpt><trkpt lat="42.495509" lon="-5.409205"><ele>799</ele></trkpt><trkpt lat="42.495919" lon="-5.41029"><ele>798</ele></trkpt><trkpt lat="42.496328" lon="-5.411376"><ele>797</ele></trkpt><trkpt lat="42.496762" lon="-5.412445"><ele>798</ele></trkpt><trkpt lat="42.497223" lon="-5.41349"><ele>797</ele></trkpt><trkpt lat="42.497586" lon="-5.414602"><ele>797</ele></trkpt><trkpt lat="42.498011" lon="-5.415531"><ele>798</ele></trkpt><trkpt lat="42.498576" lon="-5.416273"><ele>800</ele></trkpt><trkpt lat="42.498928" lon="-5.41739"><ele>801</ele></trkpt></trkseg></trk></gpx>