<?xml version="1.0" encoding="UTF-8"?>
<gpx version="1.1" creator="Mi Diario del Camino de Santiago" xmlns="http://www.topografix.com/GPX/1/1">
<metadata><name>Etapa 9: Nájera - Santo Domingo de la Calzada</name><copyright author="OpenStreetMap contributors"><license>https://opendatacommons.org/licenses/odbl/1-0/</license></copyright></metadata>
<trk><name>Etapa 9: Nájera - Santo Domingo de la Calzada</name><trkseg><trkpt lat="42.416431" lon="-2.735259"><ele>497</ele></trkpt><trkpt lat="42.415747" lon="-2.735774"><ele>502</ele></trkpt><trkpt lat="42.415856" lon="-2.73697"><ele>512</ele></trkpt><trkpt lat="42.415746" lon="-2.738105"><ele>517</ele></trkpt><trkpt lat="42.415464" lon="-2.739245"><ele>523</ele></trkpt><trkpt lat="42.414996" lon="-2.74025"><ele>530</ele></trkpt><trkpt lat="42.414502" lon="-2.741259"><ele>540</ele></trkpt><trkpt lat="42.414114" lon="-2.742354"><ele>546</ele></trkpt><trkpt lat="42.414246" lon="-2.743474"><ele>554</ele></trkpt><trkpt lat="42.414325" lon="-2.744681"><ele>558</ele></trkpt><trkpt lat="42.414518" lon="-2.745831"><ele>551</ele></trkpt><trkpt lat="42.414848" lon="-2.746952"><ele>543</ele></trkpt><trkpt lat="42.415249" lon="-2.748031"><ele>543</ele></trkpt><trkpt lat="42.415371" lon="-2.749231"><ele>545</ele></trkpt><trkpt lat="42.415584" lon="-2.750414"><ele>539</ele></trkpt><trkpt lat="42.416129" lon="-2.751358"><ele>528</ele></trkpt><trkpt lat="42.416307" lon="-2.752466"><ele>520</ele></trkpt><trkpt lat="42.41625" lon="-2.753679"><ele>516</ele></trkpt><trkpt lat="42.416165" lon="-2.754871"><ele>514</ele></trkpt><trkpt lat="42.41614" lon="-2.756086"><ele>518</ele></trkpt><trkpt lat="42.416034" lon="-2.757295"><ele>524</ele></trkpt><trkpt lat="42.415994" lon="-2.758512"><ele>527</ele></trkpt><trkpt lat="42.416187" lon="-2.759657"><ele>531</ele></trkpt><trkpt lat="42.416496" lon="-2.760782"><ele>533</ele></trkpt><trkpt lat="42.41677" lon="-2.76194"><ele>536</ele></trkpt><trkpt lat="42.416999" lon="-2.763118"><ele>539</ele></trkpt><trkpt lat="42.417217" lon="-2.764299"><ele>541</ele></trkpt><trkpt lat="42.417437" lon="-2.765478"><ele>546</ele></trkpt><trkpt lat="42.417543" lon="-2.766686"><ele>546</ele></trkpt><trkpt lat="42.417738" lon="-2.767875"><ele>549</ele></trkpt><trkpt lat="42.417818" lon="-2.769087"><ele>550</ele></trkpt><trkpt lat="42.41794" lon="-2.770292"><ele>549</ele></trkpt><trkpt lat="42.418189" lon="-2.771462"><ele>544</ele></trkpt><trkpt lat="42.418507" lon="-2.772601"><ele>542</ele></trkpt><trkpt lat="42.418791" lon="-2.773756"><ele>541</ele></trkpt><trkpt lat="42.419104" lon="-2.774898"><ele>544</ele></trkpt><trkpt lat="42.419398" lon="-2.776048"><ele>545</ele></trkpt><trkpt lat="42.419626" lon="-2.777226"><ele>547</ele></trkpt><trkpt lat="42.419822" lon="-2.778411"><ele>545</ele></trkpt><trkpt lat="42.419927" lon="-2.77962"><ele>548</ele></trkpt><trkpt lat="42.420199" lon="-2.780781"><ele>549</ele></trkpt><trkpt lat="42.420195" lon="-2.781997"><ele>547</ele></trkpt><trkpt lat="42.420231" lon="-2.783214"><ele>543</ele></trkpt><trkpt lat="42.420389" lon="-2.784413"><ele>537</ele></trkpt><trkpt lat="42.420533" lon="-2.785616"><ele>539</ele></trkpt><trkpt lat="42.420629" lon="-2.786827"><ele>543</ele></trkpt><trkpt lat="42.420697" lon="-2.788041"><ele>549</ele></trkpt><trkpt lat="42.420808" lon="-2.789238"><ele>548</ele></trkpt><trkpt lat="42.421236" lon="-2.790309"><ele>545</ele></trkpt><trkpt lat="42.421649" lon="-2.791389"><ele>544</ele></trkpt><trkpt lat="42.422018" lon="-2.7925"><ele>545</ele></trkpt><trkpt lat="42.422372" lon="-2.793618"><ele>542</ele></trkpt><trkpt lat="42.422581" lon="-2.794802"><ele>541</ele></trkpt><trkpt lat="42.422787" lon="-2.795988"><ele>544</ele></trkpt><trkpt lat="42.42299" lon="-2.797175"><ele>547</ele></trkpt><trkpt lat="42.423232" lon="-2.798348"><ele>552</ele></trkpt><trkpt lat="42.423627" lon="-2.799436"><ele>553</ele></trkpt><trkpt lat="42.424022" lon="-2.80053"><ele>552</ele></trkpt><trkpt lat="42.424447" lon="-2.801601"><ele>545</ele></trkpt><trkpt lat="42.424817" lon="-2.80269"><ele>538</ele></trkpt><trkpt lat="42.425552" lon="-2.803393"><ele>537</ele></trkpt><trkpt lat="42.425897" lon="-2.804422"><ele>537</ele></trkpt><trkpt lat="42.426029" lon="-2.805627"><ele>537</ele></trkpt><trkpt lat="42.426155" lon="-2.806833"><ele>541</ele></trkpt><trkpt lat="42.426386" lon="-2.808008"><ele>543</ele></trkpt><trkpt lat="42.426697" lon="-2.80915"><ele>544</ele></trkpt><trkpt lat="42.427035" lon="-2.810279"><ele>546</ele></trkpt><trkpt lat="42.427442" lon="-2.811362"><ele>550</ele></trkpt><trkpt lat="42.427921" lon="-2.812392"><ele>553</ele></trkpt><trkpt lat="42.42834" lon="-2.813469"><ele>559</ele></trkpt><trkpt lat="42.428641" lon="-2.814615"><ele>561</ele></trkpt><trkpt lat="42.428991" lon="-2.815733"><ele>562</ele></trkpt><trkpt lat="42.429345" lon="-2.816853"><ele>565</ele></trkpt><trkpt lat="42.429796" lon="-2.817875"><ele>569</ele></trkpt><trkpt lat="42.430462" lon="-2.818689"><ele>567</ele></trkpt><trkpt lat="42.431238" lon="-2.819305"><ele>559</ele></trkpt><trkpt lat="42.431909" lon="-2.820114"><ele>551</ele></trkpt><trkpt lat="42.432463" lon="-2.821067"><ele>547</ele></trkpt><trkpt lat="42.433238" lon="-2.820706"><ele>544</ele></trkpt><trkpt lat="42.433461" lon="-2.821779"><ele>545</ele></trkpt><trkpt lat="42.433637" lon="-2.822974"><ele>547</ele></trkpt><trkpt lat="42.433739" lon="-2.824184"><ele>549</ele></trkpt><trkpt lat="42.43383" lon="-2.825396"><ele>551</ele></trkpt><trkpt lat="42.433921" lon="-2.826608"><ele>550</ele></trkpt><trkpt lat="42.434014" lon="-2.82782"><ele>550</ele></trkpt><trkpt lat="42.434143" lon="-2.829022"><ele>551</ele></trkpt><trkpt lat="42.434142" lon="-2.830239"><ele>554</ele></trkpt><trkpt lat="42.434245" lon="-2.831447"><ele>555</ele></trkpt><trkpt lat="42.434195" lon="-2.832663"><ele>556</ele></trkpt><trkpt lat="42.433715" lon="-2.833681"><ele>557</ele></trkpt><trkpt lat="42.433577" lon="-2.834856"><ele>559</ele></trkpt><trkpt lat="42.433546" lon="-2.836073"><ele>560</ele></trkpt><trkpt lat="42.433596" lon="-2.83729"><ele>561</ele></trkpt><trkpt lat="42.433642" lon="-2.838507"><ele>561</ele></trkpt><trkpt lat="42.433921" lon="-2.839648"><ele>562</ele></trkpt><trkpt lat="42.43399" lon="-2.840822"><ele>562</ele></trkpt><trkpt lat="42.433576" lon="-2.841666"><ele>562</ele></trkpt><trkpt lat="42.433272" lon="-2.842807"><ele>564</ele></trkpt><trkpt lat="42.433033" lon="-2.843982"><ele>566</ele></trkpt><trkpt lat="42.43279" lon="-2.845155"><ele>567</ele></trkpt><trkpt lat="42.432679" lon="-2.846353"><ele>568</ele></trkpt><trkpt lat="42.432917" lon="-2.847528"><ele>571</ele></trkpt><trkpt lat="42.432845" lon="-2.848695"><ele>570</ele></trkpt><trkpt lat="42.432293" lon="-2.849611"><ele>570</ele></trkpt><trkpt lat="42.431934" lon="-2.850727"><ele>572</ele></trkpt><trkpt lat="42.43162" lon="-2.851869"><ele>575</ele></trkpt><trkpt lat="42.431306" lon="-2.85301"><ele>578</ele></trkpt><trkpt lat="42.430812" lon="-2.854026"><ele>577</ele></trkpt><trkpt lat="42.430293" lon="-2.85502"><ele>577</ele></trkpt><trkpt lat="42.429774" lon="-2.856016"><ele>579</ele></trkpt><trkpt lat="42.429234" lon="-2.85699"><ele>582</ele></trkpt><trkpt lat="42.428689" lon="-2.857959"><ele>587</ele></trkpt><trkpt lat="42.428139" lon="-2.858923"><ele>590</ele></trkpt><trkpt lat="42.427586" lon="-2.859884"><ele>591</ele></trkpt><trkpt lat="42.427369" lon="-2.86099"><ele>592</ele></trkpt><trkpt lat="42.427271" lon="-2.862201"><ele>593</ele></trkpt><trkpt lat="42.427173" lon="-2.863412"><ele>598</ele></trkpt><trkpt lat="42.427077" lon="-2.864623"><ele>605</ele></trkpt><trkpt lat="42.426806" lon="-2.86578"><ele>608</ele></trkpt><trkpt lat="42.426481" lon="-2.866916"><ele>612</ele></trkpt><trkpt lat="42.426155" lon="-2.868051"><ele>613</ele></trkpt><trkpt lat="42.42583" lon="-2.869187"><ele>616</ele></trkpt><trkpt lat="42.425496" lon="-2.870318"><ele>623</ele></trkpt><trkpt lat="42.425236" lon="-2.871481"><ele>635</ele></trkpt><trkpt lat="42.425105" lon="-2.872686"><ele>642</ele></trkpt><trkpt lat="42.424903" lon="-2.87387"><ele>650</ele></trkpt><trkpt lat="42.424631" lon="-2.875031"><ele>659</ele></trkpt><trkpt lat="42.42434" lon="-2.876184"><ele>667</ele></trkpt><trkpt lat="42.423894" lon="-2.877235"><ele>677</ele></trkpt><trkpt lat="42.423341" lon="-2.878195"><ele>686</ele></trkpt><trkpt lat="42.42271" lon="-2.879062"><ele>693</ele></trkpt><trkpt lat="42.422148" lon="-2.880013"><ele>698</ele></trkpt><trkpt lat="42.421584" lon="-2.880962"><ele>701</ele></trkpt><trkpt lat="42.421018" lon="-2.881909"><ele>705</ele></trkpt><trkpt lat="42.420457" lon="-2.88286"><ele>706</ele></trkpt><trkpt lat="42.419896" lon="-2.883813"><ele>709</ele></trkpt><trkpt lat="42.419334" lon="-2.884764"><ele>713</ele></trkpt><trkpt lat="42.418764" lon="-2.885707"><ele>716</ele></trkpt><trkpt lat="42.418062" lon="-2.886264"><ele>718</ele></trkpt><trkpt lat="42.417537" lon="-2.887106"><ele>722</ele></trkpt><trkpt lat="42.416956" lon="-2.888036"><ele>724</ele></trkpt><trkpt lat="42.416376" lon="-2.888966"><ele>727</ele></trkpt><trkpt lat="42.415792" lon="-2.889893"><ele>728</ele></trkpt><trkpt lat="42.415742" lon="-2.891061"><ele>727</ele></trkpt><trkpt lat="42.415779" lon="-2.892278"><ele>726</ele></trkpt><trkpt lat="42.415041" lon="-2.892533"><ele>729</ele></trkpt><trkpt lat="42.414421" lon="-2.892939"><ele>734</ele></trkpt><trkpt lat="42.414143" lon="-2.894035"><ele>738</ele></trkpt><trkpt lat="42.413535" lon="-2.894932"><ele>740</ele></trkpt><trkpt lat="42.412904" lon="-2.895715"><ele>743</ele></trkpt><trkpt lat="42.413127" lon="-2.896411"><ele>742</ele></trkpt><trkpt lat="42.413876" lon="-2.896759"><ele>733</ele></trkpt><trkpt lat="42.414444" lon="-2.897605"><ele>728</ele></trkpt><trkpt lat="42.414988" lon="-2.898545"><ele>726</ele></trkpt><trkpt lat="42.415358" lon="-2.899539"><ele>725</ele></trkpt><trkpt lat="42.415508" lon="-2.900737"><ele>725</ele></trkpt><trkpt lat="42.415666" lon="-2.901936"><ele>724</ele></trkpt><trkpt lat="42.415824" lon="-2.903136"><ele>727</ele></trkpt><trkpt lat="42.415982" lon="-2.904335"><ele>730</ele></trkpt><trkpt lat="42.416211" lon="-2.905507"><ele>726</ele></trkpt><trkpt lat="42.416586" lon="-2.906614"><ele>717</ele></trkpt><trkpt lat="42.416965" lon="-2.907719"><ele>712</ele></trkpt><trkpt lat="42.417344" lon="-2.908824"><ele>712</ele></trkpt><trkpt lat="42.417725" lon="-2.909927"><ele>715</ele></trkpt><trkpt lat="42.418117" lon="-2.911017"><ele>715</ele></trkpt><trkpt lat="42.418684" lon="-2.911962"><ele>712</ele></trkpt><trkpt lat="42.419252" lon="-2.912907"><ele>714</ele></trkpt><trkpt lat="42.419818" lon="-2.913854"><ele>721</ele></trkpt><trkpt lat="42.420386" lon="-2.914798"><ele>726</ele></trkpt><trkpt lat="42.420956" lon="-2.91574"><ele>729</ele></trkpt><trkpt lat="42.421526" lon="-2.916683"><ele>732</ele></trkpt><trkpt lat="42.422091" lon="-2.91763"><ele>731</ele></trkpt><trkpt lat="42.422655" lon="-2.918579"><ele>727</ele></trkpt><trkpt lat="42.423262" lon="-2.919473"><ele>721</ele></trkpt><trkpt lat="42.42395" lon="-2.920257"><ele>710</ele></trkpt><trkpt lat="42.424638" lon="-2.921042"><ele>695</ele></trkpt><trkpt lat="42.425326" lon="-2.921826"><ele>684</ele></trkpt><trkpt lat="42.426014" lon="-2.922611"><ele>679</ele></trkpt><trkpt lat="42.426702" lon="-2.923395"><ele>675</ele></trkpt><trkpt lat="42.427392" lon="-2.924178"><ele>673</ele></trkpt><trkpt lat="42.428082" lon="-2.924959"><ele>672</ele></trkpt><trkpt lat="42.428771" lon="-2.925742"><ele>673</ele></trkpt><trkpt lat="42.429458" lon="-2.926527"><ele>672</ele></trkpt><trkpt lat="42.430142" lon="-2.927318"><ele>667</ele></trkpt><trkpt lat="42.430832" lon="-2.928101"><ele>660</ele></trkpt><trkpt lat="42.431521" lon="-2.928883"><ele>651</ele></trkpt><trkpt lat="42.432211" lon="-2.929665"><ele>645</ele></trkpt><trkpt lat="42.4329" lon="-2.930448"><ele>643</ele></trkpt><trkpt lat="42.433587" lon="-2.931234"><ele>640</ele></trkpt><trkpt lat="42.434288" lon="-2.931994"><ele>636</ele></trkpt><trkpt lat="42.435014" lon="-2.932714"><ele>634</ele></trkpt><trkpt lat="42.43572" lon="-2.933468"><ele>634</ele></trkpt><trkpt lat="42.436342" lon="-2.934341"><ele>635</ele></trkpt><trkpt lat="42.436764" lon="-2.935412"><ele>635</ele></trkpt><trkpt lat="42.437086" lon="-2.93655"><ele>635</ele></trkpt><trkpt lat="42.437397" lon="-2.937693"><ele>635</ele></trkpt><trkpt lat="42.437705" lon="-2.938833"><ele>634</ele></trkpt><trkpt lat="42.438303" lon="-2.939437"><ele>634</ele></trkpt><trkpt lat="42.438525" lon="-2.940618"><ele>637</ele></trkpt><trkpt lat="42.438739" lon="-2.941802"><ele>637</ele></trkpt><trkpt lat="42.438949" lon="-2.942987"><ele>638</ele></trkpt><trkpt lat="42.439147" lon="-2.94417"><ele>638</ele></trkpt><trkpt lat="42.439351" lon="-2.94531"><ele>638</ele></trkpt><trkpt lat="42.439668" lon="-2.946439"><ele>639</ele></trkpt><trkpt lat="42.439932" lon="-2.947604"><ele>639</ele></trkpt><trkpt lat="42.440192" lon="-2.94877"><ele>638</ele></trkpt><trkpt lat="42.440433" lon="-2.949944"><ele>643</ele></trkpt><trkpt lat="42.440634" lon="-2.951131"><ele>644</ele></trkpt><trkpt lat="42.440819" lon="-2.952323"><ele>644</ele></trkpt><trkpt lat="42.440869" lon="-2.953505"><ele>647</ele></trkpt></trkseg></trk></gpx>