<?xml version="1.0" encoding="UTF-8"?>
<gpx version="1.1" creator="Mi Diario del Camino de Santiago" xmlns="http://www.topografix.com/GPX/1/1">
<metadata><name>Etapa 11: Belorado - San Juan de Ortega</name><copyright author="OpenStreetMap contributors"><license>https://opendatacommons.org/licenses/odbl/1-0/</license></copyright></metadata>
<trk><name>Etapa 11: Belorado - San Juan de Ortega</name><trkseg><trkpt lat="42.420785" lon="-3.189147"><ele>774</ele></trkpt><trkpt lat="42.421256" lon="-3.189762"><ele>772</ele></trkpt><trkpt lat="42.421037" lon="-3.190919"><ele>769</ele></trkpt><trkpt lat="42.420672" lon="-3.192031"><ele>769</ele></trkpt><trkpt lat="42.420256" lon="-3.193112"><ele>768</ele></trkpt><trkpt lat="42.419796" lon="-3.194153"><ele>768</ele></trkpt><trkpt lat="42.419262" lon="-3.195134"><ele>768</ele></trkpt><trkpt lat="42.418825" lon="-3.196122"><ele>767</ele></trkpt><trkpt lat="42.418551" lon="-3.197262"><ele>766</ele></trkpt><trkpt lat="42.418273" lon="-3.198416"><ele>766</ele></trkpt><trkpt lat="42.418116" lon="-3.199615"><ele>765</ele></trkpt><trkpt lat="42.417827" lon="-3.200761"><ele>765</ele></trkpt><trkpt lat="42.417793" lon="-3.201728"><ele>763</ele></trkpt><trkpt lat="42.418259" lon="-3.20277"><ele>762</ele></trkpt><trkpt lat="42.418572" lon="-3.203887"><ele>764</ele></trkpt><trkpt lat="42.418194" lon="-3.204972"><ele>768</ele></trkpt><trkpt lat="42.417629" lon="-3.205864"><ele>771</ele></trkpt><trkpt lat="42.417047" lon="-3.206785"><ele>774</ele></trkpt><trkpt lat="42.416621" lon="-3.207855"><ele>775</ele></trkpt><trkpt lat="42.416288" lon="-3.208964"><ele>777</ele></trkpt><trkpt lat="42.415972" lon="-3.2101"><ele>779</ele></trkpt><trkpt lat="42.415443" lon="-3.211084"><ele>784</ele></trkpt><trkpt lat="42.414961" lon="-3.212098"><ele>787</ele></trkpt><trkpt lat="42.414693" lon="-3.213256"><ele>788</ele></trkpt><trkpt lat="42.414396" lon="-3.214398"><ele>788</ele></trkpt><trkpt lat="42.414017" lon="-3.215493"><ele>789</ele></trkpt><trkpt lat="42.413543" lon="-3.216527"><ele>789</ele></trkpt><trkpt lat="42.413152" lon="-3.217623"><ele>792</ele></trkpt><trkpt lat="42.412849" lon="-3.218765"><ele>792</ele></trkpt><trkpt lat="42.412697" lon="-3.219965"><ele>793</ele></trkpt><trkpt lat="42.412647" lon="-3.221181"><ele>793</ele></trkpt><trkpt lat="42.412463" lon="-3.222366"><ele>795</ele></trkpt><trkpt lat="42.412369" lon="-3.223577"><ele>797</ele></trkpt><trkpt lat="42.412185" lon="-3.224763"><ele>797</ele></trkpt><trkpt lat="42.411886" lon="-3.22591"><ele>799</ele></trkpt><trkpt lat="42.411662" lon="-3.227089"><ele>799</ele></trkpt><trkpt lat="42.41143" lon="-3.22826"><ele>799</ele></trkpt><trkpt lat="42.41136" lon="-3.229468"><ele>800</ele></trkpt><trkpt lat="42.411301" lon="-3.230679"><ele>802</ele></trkpt><trkpt lat="42.411393" lon="-3.231891"><ele>804</ele></trkpt><trkpt lat="42.411467" lon="-3.233104"><ele>805</ele></trkpt><trkpt lat="42.41173" lon="-3.234247"><ele>807</ele></trkpt><trkpt lat="42.412058" lon="-3.23538"><ele>807</ele></trkpt><trkpt lat="42.412261" lon="-3.236565"><ele>808</ele></trkpt><trkpt lat="42.412398" lon="-3.237769"><ele>810</ele></trkpt><trkpt lat="42.412529" lon="-3.238974"><ele>812</ele></trkpt><trkpt lat="42.412664" lon="-3.240179"><ele>815</ele></trkpt><trkpt lat="42.412825" lon="-3.241376"><ele>820</ele></trkpt><trkpt lat="42.412997" lon="-3.242541"><ele>821</ele></trkpt><trkpt lat="42.413138" lon="-3.243741"><ele>823</ele></trkpt><trkpt lat="42.412565" lon="-3.244582"><ele>827</ele></trkpt><trkpt lat="42.412075" lon="-3.245602"><ele>832</ele></trkpt><trkpt lat="42.411598" lon="-3.246617"><ele>837</ele></trkpt><trkpt lat="42.411036" lon="-3.247567"><ele>838</ele></trkpt><trkpt lat="42.410481" lon="-3.248524"><ele>839</ele></trkpt><trkpt lat="42.409917" lon="-3.249473"><ele>843</ele></trkpt><trkpt lat="42.409348" lon="-3.250416"><ele>844</ele></trkpt><trkpt lat="42.408797" lon="-3.251379"><ele>848</ele></trkpt><trkpt lat="42.408157" lon="-3.252227"><ele>852</ele></trkpt><trkpt lat="42.407465" lon="-3.253005"><ele>846</ele></trkpt><trkpt lat="42.406773" lon="-3.253783"><ele>847</ele></trkpt><trkpt lat="42.406261" lon="-3.254761"><ele>851</ele></trkpt><trkpt lat="42.405866" lon="-3.255855"><ele>854</ele></trkpt><trkpt lat="42.405471" lon="-3.25695"><ele>856</ele></trkpt><trkpt lat="42.405075" lon="-3.258044"><ele>859</ele></trkpt><trkpt lat="42.40473" lon="-3.259155"><ele>861</ele></trkpt><trkpt lat="42.404683" lon="-3.260345"><ele>865</ele></trkpt><trkpt lat="42.404567" lon="-3.261522"><ele>862</ele></trkpt><trkpt lat="42.404575" lon="-3.26258"><ele>860</ele></trkpt><trkpt lat="42.404649" lon="-3.263753"><ele>858</ele></trkpt><trkpt lat="42.404511" lon="-3.264851"><ele>861</ele></trkpt><trkpt lat="42.404582" lon="-3.266064"><ele>864</ele></trkpt><trkpt lat="42.404585" lon="-3.267282"><ele>870</ele></trkpt><trkpt lat="42.404587" lon="-3.2685"><ele>872</ele></trkpt><trkpt lat="42.404595" lon="-3.269718"><ele>873</ele></trkpt><trkpt lat="42.404614" lon="-3.270935"><ele>878</ele></trkpt><trkpt lat="42.404684" lon="-3.272149"><ele>880</ele></trkpt><trkpt lat="42.404844" lon="-3.273327"><ele>878</ele></trkpt><trkpt lat="42.404987" lon="-3.274486"><ele>881</ele></trkpt><trkpt lat="42.405016" lon="-3.275692"><ele>885</ele></trkpt><trkpt lat="42.405137" lon="-3.276852"><ele>889</ele></trkpt><trkpt lat="42.405116" lon="-3.278037"><ele>892</ele></trkpt><trkpt lat="42.405367" lon="-3.279157"><ele>896</ele></trkpt><trkpt lat="42.405572" lon="-3.280327"><ele>897</ele></trkpt><trkpt lat="42.405707" lon="-3.281485"><ele>898</ele></trkpt><trkpt lat="42.406345" lon="-3.28208"><ele>895</ele></trkpt><trkpt lat="42.405728" lon="-3.282965"><ele>894</ele></trkpt><trkpt lat="42.405107" lon="-3.28384"><ele>894</ele></trkpt><trkpt lat="42.404852" lon="-3.285007"><ele>893</ele></trkpt><trkpt lat="42.404608" lon="-3.286179"><ele>898</ele></trkpt><trkpt lat="42.404343" lon="-3.287342"><ele>909</ele></trkpt><trkpt lat="42.404188" lon="-3.2885"><ele>916</ele></trkpt><trkpt lat="42.40426" lon="-3.289694"><ele>921</ele></trkpt><trkpt lat="42.404111" lon="-3.290895"><ele>926</ele></trkpt><trkpt lat="42.403807" lon="-3.292035"><ele>931</ele></trkpt><trkpt lat="42.403378" lon="-3.293105"><ele>935</ele></trkpt><trkpt lat="42.403069" lon="-3.294248"><ele>936</ele></trkpt><trkpt lat="42.402802" lon="-3.295411"><ele>940</ele></trkpt><trkpt lat="42.402534" lon="-3.296574"><ele>945</ele></trkpt><trkpt lat="42.40226" lon="-3.297733"><ele>946</ele></trkpt><trkpt lat="42.401979" lon="-3.29889"><ele>942</ele></trkpt><trkpt lat="42.401705" lon="-3.30005"><ele>928</ele></trkpt><trkpt lat="42.401285" lon="-3.30103"><ele>922</ele></trkpt><trkpt lat="42.400424" lon="-3.301383"><ele>922</ele></trkpt><trkpt lat="42.399563" lon="-3.301736"><ele>922</ele></trkpt><trkpt lat="42.398702" lon="-3.302088"><ele>924</ele></trkpt><trkpt lat="42.397841" lon="-3.302441"><ele>925</ele></trkpt><trkpt lat="42.39698" lon="-3.302792"><ele>924</ele></trkpt><trkpt lat="42.39615" lon="-3.302634"><ele>929</ele></trkpt><trkpt lat="42.395417" lon="-3.302576"><ele>935</ele></trkpt><trkpt lat="42.394708" lon="-3.303316"><ele>934</ele></trkpt><trkpt lat="42.393896" lon="-3.303823"><ele>940</ele></trkpt><trkpt lat="42.393135" lon="-3.304468"><ele>941</ele></trkpt><trkpt lat="42.39239" lon="-3.305143"><ele>939</ele></trkpt><trkpt lat="42.391705" lon="-3.305891"><ele>937</ele></trkpt><trkpt lat="42.391033" lon="-3.306688"><ele>936</ele></trkpt><trkpt lat="42.390498" lon="-3.307533"><ele>940</ele></trkpt><trkpt lat="42.38981" lon="-3.308245"><ele>948</ele></trkpt><trkpt lat="42.389019" lon="-3.308785"><ele>954</ele></trkpt><trkpt lat="42.38835" lon="-3.309534"><ele>959</ele></trkpt><trkpt lat="42.388352" lon="-3.310421"><ele>966</ele></trkpt><trkpt lat="42.387668" lon="-3.311155"><ele>979</ele></trkpt><trkpt lat="42.388009" lon="-3.312263"><ele>987</ele></trkpt><trkpt lat="42.388029" lon="-3.313431"><ele>997</ele></trkpt><trkpt lat="42.38827" lon="-3.314601"><ele>1007</ele></trkpt><trkpt lat="42.388601" lon="-3.315726"><ele>1016</ele></trkpt><trkpt lat="42.388346" lon="-3.316889"><ele>1026</ele></trkpt><trkpt lat="42.388074" lon="-3.318047"><ele>1038</ele></trkpt><trkpt lat="42.387737" lon="-3.319171"><ele>1047</ele></trkpt><trkpt lat="42.387292" lon="-3.320227"><ele>1060</ele></trkpt><trkpt lat="42.386914" lon="-3.321321"><ele>1074</ele></trkpt><trkpt lat="42.386458" lon="-3.322329"><ele>1078</ele></trkpt><trkpt lat="42.38618" lon="-3.323469"><ele>1084</ele></trkpt><trkpt lat="42.385909" lon="-3.324629"><ele>1093</ele></trkpt><trkpt lat="42.385328" lon="-3.325236"><ele>1095</ele></trkpt><trkpt lat="42.384467" lon="-3.325106"><ele>1102</ele></trkpt><trkpt lat="42.383796" lon="-3.325874"><ele>1116</ele></trkpt><trkpt lat="42.383111" lon="-3.326626"><ele>1122</ele></trkpt><trkpt lat="42.382513" lon="-3.327527"><ele>1132</ele></trkpt><trkpt lat="42.381877" lon="-3.32838"><ele>1134</ele></trkpt><trkpt lat="42.381214" lon="-3.329184"><ele>1133</ele></trkpt><trkpt lat="42.380441" lon="-3.329802"><ele>1135</ele></trkpt><trkpt lat="42.379718" lon="-3.330521"><ele>1140</ele></trkpt><trkpt lat="42.379078" lon="-3.331376"><ele>1143</ele></trkpt><trkpt lat="42.378387" lon="-3.332136"><ele>1145</ele></trkpt><trkpt lat="42.377749" lon="-3.332986"><ele>1146</ele></trkpt><trkpt lat="42.377189" lon="-3.333938"><ele>1149</ele></trkpt><trkpt lat="42.376592" lon="-3.334845"><ele>1148</ele></trkpt><trkpt lat="42.37598" lon="-3.335717"><ele>1152</ele></trkpt><trkpt lat="42.37527" lon="-3.336459"><ele>1163</ele></trkpt><trkpt lat="42.374668" lon="-3.337342"><ele>1161</ele></trkpt><trkpt lat="42.374214" lon="-3.338392"><ele>1153</ele></trkpt><trkpt lat="42.37379" lon="-3.339466"><ele>1153</ele></trkpt><trkpt lat="42.373486" lon="-3.340548"><ele>1153</ele></trkpt><trkpt lat="42.373101" lon="-3.341648"><ele>1152</ele></trkpt><trkpt lat="42.37255" lon="-3.342571"><ele>1149</ele></trkpt><trkpt lat="42.372081" lon="-3.343609"><ele>1145</ele></trkpt><trkpt lat="42.371622" lon="-3.344655"><ele>1130</ele></trkpt><trkpt lat="42.371195" lon="-3.345718"><ele>1117</ele></trkpt><trkpt lat="42.370721" lon="-3.34675"><ele>1118</ele></trkpt><trkpt lat="42.370238" lon="-3.347776"><ele>1127</ele></trkpt><trkpt lat="42.369531" lon="-3.348482"><ele>1133</ele></trkpt><trkpt lat="42.368763" lon="-3.349082"><ele>1136</ele></trkpt><trkpt lat="42.368108" lon="-3.349915"><ele>1143</ele></trkpt><trkpt lat="42.367672" lon="-3.350972"><ele>1147</ele></trkpt><trkpt lat="42.367224" lon="-3.352027"><ele>1152</ele></trkpt><trkpt lat="42.366749" lon="-3.353059"><ele>1153</ele></trkpt><trkpt lat="42.366401" lon="-3.354152"><ele>1151</ele></trkpt><trkpt lat="42.366292" lon="-3.355349"><ele>1155</ele></trkpt><trkpt lat="42.366123" lon="-3.356543"><ele>1157</ele></trkpt><trkpt lat="42.365937" lon="-3.357726"><ele>1155</ele></trkpt><trkpt lat="42.366003" lon="-3.358938"><ele>1150</ele></trkpt><trkpt lat="42.366112" lon="-3.360145"><ele>1150</ele></trkpt><trkpt lat="42.366077" lon="-3.361357"><ele>1150</ele></trkpt><trkpt lat="42.366076" lon="-3.362574"><ele>1146</ele></trkpt><trkpt lat="42.366148" lon="-3.363785"><ele>1145</ele></trkpt><trkpt lat="42.366276" lon="-3.364987"><ele>1145</ele></trkpt><trkpt lat="42.366511" lon="-3.366161"><ele>1142</ele></trkpt><trkpt lat="42.366791" lon="-3.367315"><ele>1141</ele></trkpt><trkpt lat="42.367239" lon="-3.368365"><ele>1140</ele></trkpt><trkpt lat="42.367845" lon="-3.369262"><ele>1138</ele></trkpt><trkpt lat="42.368349" lon="-3.370268"><ele>1137</ele></trkpt><trkpt lat="42.368758" lon="-3.371339"><ele>1136</ele></trkpt><trkpt lat="42.368944" lon="-3.37253"><ele>1137</ele></trkpt><trkpt lat="42.369147" lon="-3.373711"><ele>1137</ele></trkpt><trkpt lat="42.36953" lon="-3.374805"><ele>1134</ele></trkpt><trkpt lat="42.369718" lon="-3.37599"><ele>1133</ele></trkpt><trkpt lat="42.369826" lon="-3.377198"><ele>1132</ele></trkpt><trkpt lat="42.369927" lon="-3.378407"><ele>1130</ele></trkpt><trkpt lat="42.370115" lon="-3.379587"><ele>1127</ele></trkpt><trkpt lat="42.370422" lon="-3.380729"><ele>1123</ele></trkpt><trkpt lat="42.370767" lon="-3.381851"><ele>1120</ele></trkpt><trkpt lat="42.371181" lon="-3.382931"><ele>1116</ele></trkpt><trkpt lat="42.371561" lon="-3.384034"><ele>1115</ele></trkpt><trkpt lat="42.371925" lon="-3.385147"><ele>1117</ele></trkpt><trkpt lat="42.372285" lon="-3.386262"><ele>1113</ele></trkpt><trkpt lat="42.372646" lon="-3.387377"><ele>1110</ele></trkpt><trkpt lat="42.373003" lon="-3.388495"><ele>1106</ele></trkpt><trkpt lat="42.373383" lon="-3.389598"><ele>1102</ele></trkpt><trkpt lat="42.373768" lon="-3.390698"><ele>1100</ele></trkpt><trkpt lat="42.374116" lon="-3.391808"><ele>1096</ele></trkpt><trkpt lat="42.374179" lon="-3.393022"><ele>1095</ele></trkpt><trkpt lat="42.374298" lon="-3.394227"><ele>1095</ele></trkpt><trkpt lat="42.374622" lon="-3.395359"><ele>1094</ele></trkpt><trkpt lat="42.374893" lon="-3.396519"><ele>1093</ele></trkpt><trkpt lat="42.375131" lon="-3.397693"><ele>1091</ele></trkpt><trkpt lat="42.375337" lon="-3.398878"><ele>1091</ele></trkpt><trkpt lat="42.375545" lon="-3.400062"><ele>1089</ele></trkpt><trkpt lat="42.375756" lon="-3.401245"><ele>1087</ele></trkpt><trkpt lat="42.375984" lon="-3.402423"><ele>1085</ele></trkpt><trkpt lat="42.376202" lon="-3.403604"><ele>1085</ele></trkpt><trkpt lat="42.376409" lon="-3.404788"><ele>1083</ele></trkpt><trkpt lat="42.376591" lon="-3.405981"><ele>1081</ele></trkpt><trkpt lat="42.37677" lon="-3.407174"><ele>1079</ele></trkpt><trkpt lat="42.376955" lon="-3.408365"><ele>1078</ele></trkpt><trkpt lat="42.377162" lon="-3.409549"><ele>1073</ele></trkpt><trkpt lat="42.377295" lon="-3.410742"><ele>1067</ele></trkpt><trkpt lat="42.377255" lon="-3.411958"><ele>1060</ele></trkpt><trkpt lat="42.377333" lon="-3.413166"><ele>1057</ele></trkpt><trkpt lat="42.377483" lon="-3.414366"><ele>1056</ele></trkpt><trkpt lat="42.377665" lon="-3.415558"><ele>1054</ele></trkpt><trkpt lat="42.377866" lon="-3.416744"><ele>1053</ele></trkpt><trkpt lat="42.377938" lon="-3.417954"><ele>1052</ele></trkpt><trkpt lat="42.377839" lon="-3.419136"><ele>1051</ele></trkpt><trkpt lat="42.377695" lon="-3.420331"><ele>1047</ele></trkpt><trkpt lat="42.377635" lon="-3.421545"><ele>1043</ele></trkpt><trkpt lat="42.377758" lon="-3.422732"><ele>1035</ele></trkpt><trkpt lat="42.377667" lon="-3.42394"><ele>1025</ele></trkpt><trkpt lat="42.377553" lon="-3.425144"><ele>1019</ele></trkpt><trkpt lat="42.377391" lon="-3.426338"><ele>1016</ele></trkpt><trkpt lat="42.377384" lon="-3.427554"><ele>1014</ele></trkpt><trkpt lat="42.377452" lon="-3.428767"><ele>1011</ele></trkpt><trkpt lat="42.3773" lon="-3.429957"><ele>1008</ele></trkpt><trkpt lat="42.377119" lon="-3.431134"><ele>1006</ele></trkpt><trkpt lat="42.376929" lon="-3.432317"><ele>1005</ele></trkpt><trkpt lat="42.376528" lon="-3.433399"><ele>1005</ele></trkpt><trkpt lat="42.375965" lon="-3.434277"><ele>1005</ele></trkpt><trkpt lat="42.375845" lon="-3.435483"><ele>1005</ele></trkpt><trkpt lat="42.375716" lon="-3.43643"><ele>1006</ele></trkpt></trkseg></trk></gpx>