<?xml version="1.0" encoding="UTF-8"?>
<gpx version="1.1" creator="Mi Diario del Camino de Santiago" xmlns="http://www.topografix.com/GPX/1/1">
<metadata><name>Etapa 21A: León - San Martín del Camino</name><copyright author="OpenStreetMap contributors"><license>https://opendatacommons.org/licenses/odbl/1-0/</license></copyright></metadata>
<trk><name>Etapa 21A: León - San Martín del Camino</name><trkseg><trkpt lat="42.599313" lon="-5.567576"><ele>845</ele></trkpt><trkpt lat="42.599205" lon="-5.568698"><ele>842</ele></trkpt><trkpt lat="42.599087" lon="-5.569833"><ele>839</ele></trkpt><trkpt lat="42.599761" lon="-5.570383"><ele>840</ele></trkpt><trkpt lat="42.60053" lon="-5.570609"><ele>843</ele></trkpt><trkpt lat="42.601325" lon="-5.570715"><ele>843</ele></trkpt><trkpt lat="42.601744" lon="-5.571627"><ele>842</ele></trkpt><trkpt lat="42.601864" lon="-5.572498"><ele>841</ele></trkpt><trkpt lat="42.601886" lon="-5.573719"><ele>842</ele></trkpt><trkpt lat="42.601969" lon="-5.574856"><ele>844</ele></trkpt><trkpt lat="42.601739" lon="-5.575626"><ele>843</ele></trkpt><trkpt lat="42.60174" lon="-5.576723"><ele>842</ele></trkpt><trkpt lat="42.601762" lon="-5.577944"><ele>842</ele></trkpt><trkpt lat="42.601846" lon="-5.579138"><ele>840</ele></trkpt><trkpt lat="42.601777" lon="-5.58021"><ele>835</ele></trkpt><trkpt lat="42.601635" lon="-5.581363"><ele>836</ele></trkpt><trkpt lat="42.601432" lon="-5.582552"><ele>832</ele></trkpt><trkpt lat="42.601021" lon="-5.583639"><ele>827</ele></trkpt><trkpt lat="42.60061" lon="-5.584726"><ele>830</ele></trkpt><trkpt lat="42.600094" lon="-5.585626"><ele>834</ele></trkpt><trkpt lat="42.59987" lon="-5.586462"><ele>834</ele></trkpt><trkpt lat="42.599532" lon="-5.587375"><ele>833</ele></trkpt><trkpt lat="42.599169" lon="-5.588349"><ele>829</ele></trkpt><trkpt lat="42.598801" lon="-5.589464"><ele>828</ele></trkpt><trkpt lat="42.598617" lon="-5.590647"><ele>831</ele></trkpt><trkpt lat="42.598553" lon="-5.591866"><ele>831</ele></trkpt><trkpt lat="42.598494" lon="-5.59289"><ele>832</ele></trkpt><trkpt lat="42.598449" lon="-5.594027"><ele>831</ele></trkpt><trkpt lat="42.598386" lon="-5.595128"><ele>830</ele></trkpt><trkpt lat="42.59833" lon="-5.596347"><ele>830</ele></trkpt><trkpt lat="42.598262" lon="-5.597463"><ele>829</ele></trkpt><trkpt lat="42.598194" lon="-5.598617"><ele>831</ele></trkpt><trkpt lat="42.598157" lon="-5.599709"><ele>829</ele></trkpt><trkpt lat="42.597955" lon="-5.600868"><ele>828</ele></trkpt><trkpt lat="42.597651" lon="-5.601941"><ele>828</ele></trkpt><trkpt lat="42.597343" lon="-5.602924"><ele>830</ele></trkpt><trkpt lat="42.596936" lon="-5.604013"><ele>831</ele></trkpt><trkpt lat="42.596533" lon="-5.605106"><ele>836</ele></trkpt><trkpt lat="42.596348" lon="-5.606186"><ele>839</ele></trkpt><trkpt lat="42.596261" lon="-5.607203"><ele>840</ele></trkpt><trkpt lat="42.596115" lon="-5.608341"><ele>840</ele></trkpt><trkpt lat="42.59578" lon="-5.609279"><ele>840</ele></trkpt><trkpt lat="42.595403" lon="-5.610357"><ele>840</ele></trkpt><trkpt lat="42.594997" lon="-5.611251"><ele>844</ele></trkpt><trkpt lat="42.59444" lon="-5.611921"><ele>854</ele></trkpt><trkpt lat="42.594352" lon="-5.612605"><ele>858</ele></trkpt><trkpt lat="42.594169" lon="-5.613705"><ele>864</ele></trkpt><trkpt lat="42.593654" lon="-5.614556"><ele>868</ele></trkpt><trkpt lat="42.593217" lon="-5.615624"><ele>869</ele></trkpt><trkpt lat="42.592781" lon="-5.616692"><ele>867</ele></trkpt><trkpt lat="42.592217" lon="-5.617318"><ele>865</ele></trkpt><trkpt lat="42.592152" lon="-5.618325"><ele>866</ele></trkpt><trkpt lat="42.591727" lon="-5.619402"><ele>868</ele></trkpt><trkpt lat="42.591288" lon="-5.620468"><ele>870</ele></trkpt><trkpt lat="42.590983" lon="-5.621346"><ele>871</ele></trkpt><trkpt lat="42.590424" lon="-5.622272"><ele>872</ele></trkpt><trkpt lat="42.589927" lon="-5.62329"><ele>872</ele></trkpt><trkpt lat="42.589429" lon="-5.624308"><ele>874</ele></trkpt><trkpt lat="42.588934" lon="-5.625327"><ele>875</ele></trkpt><trkpt lat="42.588376" lon="-5.626272"><ele>877</ele></trkpt><trkpt lat="42.587606" lon="-5.62688"><ele>882</ele></trkpt><trkpt lat="42.587002" lon="-5.627785"><ele>884</ele></trkpt><trkpt lat="42.586489" lon="-5.628781"><ele>887</ele></trkpt><trkpt lat="42.58587" lon="-5.629398"><ele>890</ele></trkpt><trkpt lat="42.585605" lon="-5.630184"><ele>893</ele></trkpt><trkpt lat="42.585211" lon="-5.631283"><ele>894</ele></trkpt><trkpt lat="42.584691" lon="-5.632209"><ele>895</ele></trkpt><trkpt lat="42.584294" lon="-5.633305"><ele>895</ele></trkpt><trkpt lat="42.583898" lon="-5.634402"><ele>899</ele></trkpt><trkpt lat="42.583495" lon="-5.635411"><ele>905</ele></trkpt><trkpt lat="42.582981" lon="-5.63641"><ele>907</ele></trkpt><trkpt lat="42.582399" lon="-5.637331"><ele>907</ele></trkpt><trkpt lat="42.581862" lon="-5.63828"><ele>907</ele></trkpt><trkpt lat="42.581276" lon="-5.639174"><ele>909</ele></trkpt><trkpt lat="42.580711" lon="-5.640101"><ele>909</ele></trkpt><trkpt lat="42.580132" lon="-5.640949"><ele>908</ele></trkpt><trkpt lat="42.579533" lon="-5.641557"><ele>906</ele></trkpt><trkpt lat="42.578874" lon="-5.642363"><ele>904</ele></trkpt><trkpt lat="42.578286" lon="-5.643247"><ele>894</ele></trkpt><trkpt lat="42.577877" lon="-5.64433"><ele>889</ele></trkpt><trkpt lat="42.577632" lon="-5.645498"><ele>890</ele></trkpt><trkpt lat="42.577545" lon="-5.646594"><ele>892</ele></trkpt><trkpt lat="42.577293" lon="-5.647762"><ele>897</ele></trkpt><trkpt lat="42.576802" lon="-5.648748"><ele>899</ele></trkpt><trkpt lat="42.576538" lon="-5.649862"><ele>901</ele></trkpt><trkpt lat="42.576442" lon="-5.650515"><ele>903</ele></trkpt><trkpt lat="42.575936" lon="-5.651525"><ele>903</ele></trkpt><trkpt lat="42.575428" lon="-5.652532"><ele>903</ele></trkpt><trkpt lat="42.574991" lon="-5.65348"><ele>904</ele></trkpt><trkpt lat="42.574433" lon="-5.654436"><ele>902</ele></trkpt><trkpt lat="42.57405" lon="-5.655539"><ele>899</ele></trkpt><trkpt lat="42.57375" lon="-5.656688"><ele>892</ele></trkpt><trkpt lat="42.573262" lon="-5.657693"><ele>884</ele></trkpt><trkpt lat="42.572594" lon="-5.658411"><ele>885</ele></trkpt><trkpt lat="42.571696" lon="-5.658487"><ele>886</ele></trkpt><trkpt lat="42.570982" lon="-5.658064"><ele>885</ele></trkpt><trkpt lat="42.570342" lon="-5.658167"><ele>885</ele></trkpt><trkpt lat="42.570582" lon="-5.659062"><ele>888</ele></trkpt><trkpt lat="42.571189" lon="-5.659954"><ele>892</ele></trkpt><trkpt lat="42.571849" lon="-5.660771"><ele>897</ele></trkpt><trkpt lat="42.572131" lon="-5.661792"><ele>901</ele></trkpt><trkpt lat="42.571843" lon="-5.662921"><ele>905</ele></trkpt><trkpt lat="42.5717" lon="-5.664122"><ele>910</ele></trkpt><trkpt lat="42.571549" lon="-5.665326"><ele>913</ele></trkpt><trkpt lat="42.571512" lon="-5.666542"><ele>910</ele></trkpt><trkpt lat="42.571485" lon="-5.667761"><ele>904</ele></trkpt><trkpt lat="42.571489" lon="-5.668864"><ele>901</ele></trkpt><trkpt lat="42.571481" lon="-5.670084"><ele>898</ele></trkpt><trkpt lat="42.571487" lon="-5.671305"><ele>898</ele></trkpt><trkpt lat="42.571485" lon="-5.672526"><ele>899</ele></trkpt><trkpt lat="42.571487" lon="-5.673748"><ele>899</ele></trkpt><trkpt lat="42.571335" lon="-5.674922"><ele>898</ele></trkpt><trkpt lat="42.571035" lon="-5.676073"><ele>899</ele></trkpt><trkpt lat="42.570716" lon="-5.677214"><ele>901</ele></trkpt><trkpt lat="42.570401" lon="-5.678358"><ele>900</ele></trkpt><trkpt lat="42.570112" lon="-5.679501"><ele>896</ele></trkpt><trkpt lat="42.569792" lon="-5.680642"><ele>890</ele></trkpt><trkpt lat="42.569427" lon="-5.681756"><ele>888</ele></trkpt><trkpt lat="42.568978" lon="-5.682814"><ele>887</ele></trkpt><trkpt lat="42.568528" lon="-5.683871"><ele>890</ele></trkpt><trkpt lat="42.56808" lon="-5.68493"><ele>894</ele></trkpt><trkpt lat="42.567628" lon="-5.685986"><ele>897</ele></trkpt><trkpt lat="42.567158" lon="-5.687025"><ele>901</ele></trkpt><trkpt lat="42.56663" lon="-5.688012"><ele>905</ele></trkpt><trkpt lat="42.566108" lon="-5.689006"><ele>905</ele></trkpt><trkpt lat="42.565572" lon="-5.689986"><ele>904</ele></trkpt><trkpt lat="42.565044" lon="-5.690974"><ele>904</ele></trkpt><trkpt lat="42.564554" lon="-5.691993"><ele>899</ele></trkpt><trkpt lat="42.564028" lon="-5.692982"><ele>898</ele></trkpt><trkpt lat="42.563497" lon="-5.693968"><ele>902</ele></trkpt><trkpt lat="42.562974" lon="-5.694961"><ele>900</ele></trkpt><trkpt lat="42.562454" lon="-5.695957"><ele>898</ele></trkpt><trkpt lat="42.561938" lon="-5.696957"><ele>896</ele></trkpt><trkpt lat="42.561402" lon="-5.697937"><ele>897</ele></trkpt><trkpt lat="42.560876" lon="-5.698927"><ele>898</ele></trkpt><trkpt lat="42.56035" lon="-5.699918"><ele>897</ele></trkpt><trkpt lat="42.559763" lon="-5.700826"><ele>898</ele></trkpt><trkpt lat="42.559351" lon="-5.701726"><ele>899</ele></trkpt><trkpt lat="42.558828" lon="-5.702719"><ele>902</ele></trkpt><trkpt lat="42.558175" lon="-5.703558"><ele>906</ele></trkpt><trkpt lat="42.557617" lon="-5.704515"><ele>910</ele></trkpt><trkpt lat="42.557088" lon="-5.705501"><ele>912</ele></trkpt><trkpt lat="42.556987" lon="-5.706143"><ele>915</ele></trkpt><trkpt lat="42.556495" lon="-5.707165"><ele>918</ele></trkpt><trkpt lat="42.556019" lon="-5.7082"><ele>919</ele></trkpt><trkpt lat="42.555552" lon="-5.709244"><ele>917</ele></trkpt><trkpt lat="42.555078" lon="-5.710282"><ele>915</ele></trkpt><trkpt lat="42.554612" lon="-5.711326"><ele>912</ele></trkpt><trkpt lat="42.554145" lon="-5.712369"><ele>910</ele></trkpt><trkpt lat="42.553676" lon="-5.713411"><ele>912</ele></trkpt><trkpt lat="42.553188" lon="-5.714432"><ele>913</ele></trkpt><trkpt lat="42.552705" lon="-5.715444"><ele>914</ele></trkpt><trkpt lat="42.552247" lon="-5.716492"><ele>917</ele></trkpt><trkpt lat="42.551777" lon="-5.717534"><ele>919</ele></trkpt><trkpt lat="42.551303" lon="-5.71857"><ele>919</ele></trkpt><trkpt lat="42.550776" lon="-5.719559"><ele>919</ele></trkpt><trkpt lat="42.550259" lon="-5.720535"><ele>914</ele></trkpt><trkpt lat="42.549638" lon="-5.721419"><ele>911</ele></trkpt><trkpt lat="42.548955" lon="-5.722189"><ele>911</ele></trkpt><trkpt lat="42.548302" lon="-5.723018"><ele>913</ele></trkpt><trkpt lat="42.54774" lon="-5.723971"><ele>914</ele></trkpt><trkpt lat="42.547114" lon="-5.724847"><ele>913</ele></trkpt><trkpt lat="42.546482" lon="-5.725715"><ele>913</ele></trkpt><trkpt lat="42.545853" lon="-5.726587"><ele>911</ele></trkpt><trkpt lat="42.545216" lon="-5.727449"><ele>910</ele></trkpt><trkpt lat="42.54458" lon="-5.728312"><ele>909</ele></trkpt><trkpt lat="42.54395" lon="-5.729183"><ele>909</ele></trkpt><trkpt lat="42.54332" lon="-5.730054"><ele>908</ele></trkpt><trkpt lat="42.54269" lon="-5.730925"><ele>908</ele></trkpt><trkpt lat="42.542073" lon="-5.731813"><ele>908</ele></trkpt><trkpt lat="42.541465" lon="-5.732712"><ele>905</ele></trkpt><trkpt lat="42.540793" lon="-5.733519"><ele>902</ele></trkpt><trkpt lat="42.540101" lon="-5.734297"><ele>902</ele></trkpt><trkpt lat="42.539493" lon="-5.735196"><ele>901</ele></trkpt><trkpt lat="42.53906" lon="-5.736247"><ele>902</ele></trkpt><trkpt lat="42.538437" lon="-5.737115"><ele>901</ele></trkpt><trkpt lat="42.537794" lon="-5.737964"><ele>902</ele></trkpt><trkpt lat="42.537182" lon="-5.738859"><ele>901</ele></trkpt><trkpt lat="42.536562" lon="-5.739743"><ele>900</ele></trkpt><trkpt lat="42.535933" lon="-5.740614"><ele>901</ele></trkpt><trkpt lat="42.535352" lon="-5.741546"><ele>899</ele></trkpt><trkpt lat="42.534739" lon="-5.742438"><ele>900</ele></trkpt><trkpt lat="42.534111" lon="-5.743311"><ele>901</ele></trkpt><trkpt lat="42.53346" lon="-5.744148"><ele>899</ele></trkpt><trkpt lat="42.532819" lon="-5.745004"><ele>900</ele></trkpt><trkpt lat="42.532151" lon="-5.74582"><ele>898</ele></trkpt><trkpt lat="42.531493" lon="-5.746653"><ele>897</ele></trkpt><trkpt lat="42.530886" lon="-5.747552"><ele>897</ele></trkpt><trkpt lat="42.530285" lon="-5.74846"><ele>898</ele></trkpt><trkpt lat="42.529685" lon="-5.749369"><ele>898</ele></trkpt><trkpt lat="42.529043" lon="-5.750223"><ele>898</ele></trkpt><trkpt lat="42.528375" lon="-5.751035"><ele>898</ele></trkpt><trkpt lat="42.527808" lon="-5.751969"><ele>897</ele></trkpt><trkpt lat="42.527195" lon="-5.752858"><ele>898</ele></trkpt><trkpt lat="42.526545" lon="-5.753698"><ele>898</ele></trkpt><trkpt lat="42.52595" lon="-5.754613"><ele>898</ele></trkpt><trkpt lat="42.525328" lon="-5.755495"><ele>899</ele></trkpt><trkpt lat="42.524679" lon="-5.756333"><ele>898</ele></trkpt><trkpt lat="42.524093" lon="-5.757259"><ele>898</ele></trkpt><trkpt lat="42.523491" lon="-5.758165"><ele>897</ele></trkpt><trkpt lat="42.522871" lon="-5.759048"><ele>896</ele></trkpt><trkpt lat="42.522251" lon="-5.759932"><ele>896</ele></trkpt><trkpt lat="42.521632" lon="-5.760817"><ele>896</ele></trkpt><trkpt lat="42.521036" lon="-5.761728"><ele>895</ele></trkpt><trkpt lat="42.520598" lon="-5.762793"><ele>893</ele></trkpt><trkpt lat="42.520198" lon="-5.763883"><ele>889</ele></trkpt><trkpt lat="42.519519" lon="-5.764667"><ele>892</ele></trkpt><trkpt lat="42.518703" lon="-5.765169"><ele>893</ele></trkpt><trkpt lat="42.518198" lon="-5.765938"><ele>896</ele></trkpt><trkpt lat="42.517598" lon="-5.766846"><ele>899</ele></trkpt><trkpt lat="42.516953" lon="-5.767695"><ele>896</ele></trkpt><trkpt lat="42.516379" lon="-5.768629"><ele>888</ele></trkpt><trkpt lat="42.516149" lon="-5.769789"><ele>882</ele></trkpt><trkpt lat="42.51585" lon="-5.770899"><ele>881</ele></trkpt><trkpt lat="42.515281" lon="-5.771843"><ele>879</ele></trkpt><trkpt lat="42.514721" lon="-5.772798"><ele>878</ele></trkpt><trkpt lat="42.514192" lon="-5.773784"><ele>877</ele></trkpt><trkpt lat="42.513476" lon="-5.773569"><ele>877</ele></trkpt><trkpt lat="42.513102" lon="-5.774677"><ele>877</ele></trkpt><trkpt lat="42.512728" lon="-5.775786"><ele>876</ele></trkpt><trkpt lat="42.51235" lon="-5.776894"><ele>876</ele></trkpt><trkpt lat="42.511857" lon="-5.777911"><ele>875</ele></trkpt><trkpt lat="42.511327" lon="-5.778897"><ele>874</ele></trkpt><trkpt lat="42.510793" lon="-5.779878"><ele>872</ele></trkpt><trkpt lat="42.51026" lon="-5.780862"><ele>873</ele></trkpt><trkpt lat="42.509728" lon="-5.781845"><ele>874</ele></trkpt><trkpt lat="42.509196" lon="-5.782828"><ele>873</ele></trkpt><trkpt lat="42.508663" lon="-5.783812"><ele>871</ele></trkpt><trkpt lat="42.508131" lon="-5.784795"><ele>871</ele></trkpt><trkpt lat="42.507597" lon="-5.785777"><ele>870</ele></trkpt><trkpt lat="42.507063" lon="-5.786759"><ele>870</ele></trkpt><trkpt lat="42.506532" lon="-5.787742"><ele>870</ele></trkpt><trkpt lat="42.506005" lon="-5.788731"><ele>869</ele></trkpt><trkpt lat="42.505472" lon="-5.789714"><ele>869</ele></trkpt><trkpt lat="42.504937" lon="-5.790694"><ele>870</ele></trkpt><trkpt lat="42.504404" lon="-5.791677"><ele>869</ele></trkpt><trkpt lat="42.503872" lon="-5.792661"><ele>868</ele></trkpt><trkpt lat="42.503341" lon="-5.793644"><ele>868</ele></trkpt><trkpt lat="42.502809" lon="-5.794628"><ele>869</ele></trkpt><trkpt lat="42.502276" lon="-5.795611"><ele>868</ele></trkpt><trkpt lat="42.501745" lon="-5.796595"><ele>867</ele></trkpt><trkpt lat="42.501218" lon="-5.797584"><ele>867</ele></trkpt><trkpt lat="42.500687" lon="-5.798568"><ele>865</ele></trkpt><trkpt lat="42.500156" lon="-5.799552"><ele>865</ele></trkpt><trkpt lat="42.499624" lon="-5.800536"><ele>865</ele></trkpt><trkpt lat="42.499093" lon="-5.801521"><ele>867</ele></trkpt><trkpt lat="42.498561" lon="-5.802504"><ele>868</ele></trkpt><trkpt lat="42.498022" lon="-5.803481"><ele>865</ele></trkpt><trkpt lat="42.497485" lon="-5.804458"><ele>867</ele></trkpt><trkpt lat="42.496912" lon="-5.805399"><ele>867</ele></trkpt><trkpt lat="42.49634" lon="-5.80634"><ele>867</ele></trkpt><trkpt lat="42.495768" lon="-5.807281"><ele>867</ele></trkpt><trkpt lat="42.495259" lon="-5.808261"><ele>867</ele></trkpt><trkpt lat="42.494787" lon="-5.809015"><ele>868</ele></trkpt></trkseg></trk></gpx>