<?xml version="1.0" encoding="UTF-8"?>
<gpx version="1.1" creator="Mi Diario del Camino de Santiago" xmlns="http://www.topografix.com/GPX/1/1">
<metadata><name>Etapa 32: Arzúa - O Pedrouzo</name><copyright author="OpenStreetMap contributors"><license>https://opendatacommons.org/licenses/odbl/1-0/</license></copyright></metadata>
<trk><name>Etapa 32: Arzúa - O Pedrouzo</name><trkseg><trkpt lat="42.926222" lon="-8.16321"><ele>386</ele></trkpt><trkpt lat="42.926227" lon="-8.164438"><ele>382</ele></trkpt><trkpt lat="42.926335" lon="-8.165606"><ele>373</ele></trkpt><trkpt lat="42.926744" lon="-8.166695"><ele>366</ele></trkpt><trkpt lat="42.926785" lon="-8.167912"><ele>354</ele></trkpt><trkpt lat="42.927" lon="-8.169102"><ele>346</ele></trkpt><trkpt lat="42.927109" lon="-8.170291"><ele>339</ele></trkpt><trkpt lat="42.927033" lon="-8.171503"><ele>347</ele></trkpt><trkpt lat="42.927323" lon="-8.172663"><ele>355</ele></trkpt><trkpt lat="42.927375" lon="-8.17381"><ele>353</ele></trkpt><trkpt lat="42.926548" lon="-8.174212"><ele>352</ele></trkpt><trkpt lat="42.926061" lon="-8.175223"><ele>349</ele></trkpt><trkpt lat="42.925652" lon="-8.176317"><ele>344</ele></trkpt><trkpt lat="42.925311" lon="-8.177448"><ele>336</ele></trkpt><trkpt lat="42.925263" lon="-8.178675"><ele>330</ele></trkpt><trkpt lat="42.92548" lon="-8.179847"><ele>320</ele></trkpt><trkpt lat="42.925118" lon="-8.180469"><ele>315</ele></trkpt><trkpt lat="42.924681" lon="-8.18142"><ele>311</ele></trkpt><trkpt lat="42.924556" lon="-8.182636"><ele>318</ele></trkpt><trkpt lat="42.924226" lon="-8.183746"><ele>330</ele></trkpt><trkpt lat="42.92384" lon="-8.184734"><ele>332</ele></trkpt><trkpt lat="42.922971" lon="-8.185043"><ele>332</ele></trkpt><trkpt lat="42.922673" lon="-8.186057"><ele>337</ele></trkpt><trkpt lat="42.922729" lon="-8.187208"><ele>344</ele></trkpt><trkpt lat="42.923128" lon="-8.188204"><ele>358</ele></trkpt><trkpt lat="42.923522" lon="-8.188833"><ele>364</ele></trkpt><trkpt lat="42.924377" lon="-8.189215"><ele>367</ele></trkpt><trkpt lat="42.925232" lon="-8.189597"><ele>365</ele></trkpt><trkpt lat="42.926075" lon="-8.190014"><ele>364</ele></trkpt><trkpt lat="42.926163" lon="-8.191197"><ele>373</ele></trkpt><trkpt lat="42.926151" lon="-8.192425"><ele>381</ele></trkpt><trkpt lat="42.926336" lon="-8.193609"><ele>384</ele></trkpt><trkpt lat="42.926576" lon="-8.194788"><ele>390</ele></trkpt><trkpt lat="42.926593" lon="-8.195956"><ele>393</ele></trkpt><trkpt lat="42.926097" lon="-8.196968"><ele>388</ele></trkpt><trkpt lat="42.926029" lon="-8.198066"><ele>378</ele></trkpt><trkpt lat="42.926684" lon="-8.1989"><ele>366</ele></trkpt><trkpt lat="42.927259" lon="-8.199817"><ele>358</ele></trkpt><trkpt lat="42.927681" lon="-8.200901"><ele>358</ele></trkpt><trkpt lat="42.927828" lon="-8.202045"><ele>370</ele></trkpt><trkpt lat="42.927638" lon="-8.203241"><ele>380</ele></trkpt><trkpt lat="42.927463" lon="-8.20444"><ele>389</ele></trkpt><trkpt lat="42.92745" lon="-8.205667"><ele>393</ele></trkpt><trkpt lat="42.927536" lon="-8.206886"><ele>395</ele></trkpt><trkpt lat="42.927642" lon="-8.208074"><ele>397</ele></trkpt><trkpt lat="42.928117" lon="-8.209116"><ele>401</ele></trkpt><trkpt lat="42.928524" lon="-8.210209"><ele>402</ele></trkpt><trkpt lat="42.928677" lon="-8.211415"><ele>406</ele></trkpt><trkpt lat="42.928752" lon="-8.212639"><ele>405</ele></trkpt><trkpt lat="42.92878" lon="-8.213863"><ele>399</ele></trkpt><trkpt lat="42.92835" lon="-8.214918"><ele>402</ele></trkpt><trkpt lat="42.927923" lon="-8.215998"><ele>406</ele></trkpt><trkpt lat="42.927513" lon="-8.217091"><ele>404</ele></trkpt><trkpt lat="42.92699" lon="-8.218034"><ele>395</ele></trkpt><trkpt lat="42.926703" lon="-8.219198"><ele>385</ele></trkpt><trkpt lat="42.926383" lon="-8.220345"><ele>385</ele></trkpt><trkpt lat="42.926059" lon="-8.221491"><ele>385</ele></trkpt><trkpt lat="42.925899" lon="-8.222677"><ele>387</ele></trkpt><trkpt lat="42.925599" lon="-8.223816"><ele>389</ele></trkpt><trkpt lat="42.925139" lon="-8.224865"><ele>388</ele></trkpt><trkpt lat="42.924715" lon="-8.225948"><ele>387</ele></trkpt><trkpt lat="42.924108" lon="-8.226827"><ele>382</ele></trkpt><trkpt lat="42.923563" lon="-8.227795"><ele>385</ele></trkpt><trkpt lat="42.922992" lon="-8.228725"><ele>395</ele></trkpt><trkpt lat="42.922556" lon="-8.229788"><ele>399</ele></trkpt><trkpt lat="42.922171" lon="-8.230896"><ele>402</ele></trkpt><trkpt lat="42.921783" lon="-8.232001"><ele>398</ele></trkpt><trkpt lat="42.921313" lon="-8.233048"><ele>393</ele></trkpt><trkpt lat="42.920852" lon="-8.234089"><ele>392</ele></trkpt><trkpt lat="42.920545" lon="-8.235216"><ele>392</ele></trkpt><trkpt lat="42.920382" lon="-8.236389"><ele>384</ele></trkpt><trkpt lat="42.920077" lon="-8.237434"><ele>371</ele></trkpt><trkpt lat="42.919518" lon="-8.23834"><ele>368</ele></trkpt><trkpt lat="42.919065" lon="-8.2394"><ele>366</ele></trkpt><trkpt lat="42.918443" lon="-8.240272"><ele>363</ele></trkpt><trkpt lat="42.917913" lon="-8.241189"><ele>353</ele></trkpt><trkpt lat="42.917873" lon="-8.242301"><ele>345</ele></trkpt><trkpt lat="42.918179" lon="-8.243351"><ele>341</ele></trkpt><trkpt lat="42.917639" lon="-8.244081"><ele>337</ele></trkpt><trkpt lat="42.91781" lon="-8.245086"><ele>338</ele></trkpt><trkpt lat="42.917922" lon="-8.246259"><ele>341</ele></trkpt><trkpt lat="42.918105" lon="-8.24746"><ele>347</ele></trkpt><trkpt lat="42.918334" lon="-8.248646"><ele>350</ele></trkpt><trkpt lat="42.918547" lon="-8.249837"><ele>353</ele></trkpt><trkpt lat="42.918799" lon="-8.251012"><ele>364</ele></trkpt><trkpt lat="42.919313" lon="-8.252012"><ele>367</ele></trkpt><trkpt lat="42.919875" lon="-8.252927"><ele>369</ele></trkpt><trkpt lat="42.920664" lon="-8.25349"><ele>375</ele></trkpt><trkpt lat="42.92123" lon="-8.254408"><ele>377</ele></trkpt><trkpt lat="42.921649" lon="-8.255494"><ele>379</ele></trkpt><trkpt lat="42.922116" lon="-8.256542"><ele>376</ele></trkpt><trkpt lat="42.922374" lon="-8.2577"><ele>374</ele></trkpt><trkpt lat="42.922341" lon="-8.258839"><ele>378</ele></trkpt><trkpt lat="42.922294" lon="-8.260035"><ele>377</ele></trkpt><trkpt lat="42.922442" lon="-8.261245"><ele>370</ele></trkpt><trkpt lat="42.922842" lon="-8.262287"><ele>366</ele></trkpt><trkpt lat="42.923124" lon="-8.263452"><ele>362</ele></trkpt><trkpt lat="42.923414" lon="-8.264614"><ele>363</ele></trkpt><trkpt lat="42.923585" lon="-8.265786"><ele>368</ele></trkpt><trkpt lat="42.923508" lon="-8.266981"><ele>373</ele></trkpt><trkpt lat="42.924011" lon="-8.267974"><ele>375</ele></trkpt><trkpt lat="42.924732" lon="-8.268689"><ele>386</ele></trkpt><trkpt lat="42.925038" lon="-8.269825"><ele>385</ele></trkpt><trkpt lat="42.92523" lon="-8.271024"><ele>379</ele></trkpt><trkpt lat="42.92544" lon="-8.272217"><ele>374</ele></trkpt><trkpt lat="42.925677" lon="-8.273399"><ele>372</ele></trkpt><trkpt lat="42.926124" lon="-8.274413"><ele>370</ele></trkpt><trkpt lat="42.926426" lon="-8.27556"><ele>367</ele></trkpt><trkpt lat="42.926472" lon="-8.276785"><ele>363</ele></trkpt><trkpt lat="42.926259" lon="-8.277913"><ele>361</ele></trkpt><trkpt lat="42.926385" lon="-8.279129"><ele>360</ele></trkpt><trkpt lat="42.926419" lon="-8.280352"><ele>361</ele></trkpt><trkpt lat="42.926139" lon="-8.281516"><ele>364</ele></trkpt><trkpt lat="42.925693" lon="-8.282581"><ele>371</ele></trkpt><trkpt lat="42.925411" lon="-8.283742"><ele>376</ele></trkpt><trkpt lat="42.925397" lon="-8.284943"><ele>384</ele></trkpt><trkpt lat="42.92517" lon="-8.286131"><ele>393</ele></trkpt><trkpt lat="42.925113" lon="-8.287339"><ele>389</ele></trkpt><trkpt lat="42.924819" lon="-8.288497"><ele>387</ele></trkpt><trkpt lat="42.924407" lon="-8.289576"><ele>388</ele></trkpt><trkpt lat="42.923984" lon="-8.290468"><ele>393</ele></trkpt><trkpt lat="42.923419" lon="-8.291422"><ele>403</ele></trkpt><trkpt lat="42.923004" lon="-8.292492"><ele>403</ele></trkpt><trkpt lat="42.92256" lon="-8.293553"><ele>401</ele></trkpt><trkpt lat="42.922077" lon="-8.294586"><ele>400</ele></trkpt><trkpt lat="42.921521" lon="-8.295539"><ele>396</ele></trkpt><trkpt lat="42.920988" lon="-8.296486"><ele>392</ele></trkpt><trkpt lat="42.920414" lon="-8.297405"><ele>387</ele></trkpt><trkpt lat="42.920256" lon="-8.298593"><ele>377</ele></trkpt><trkpt lat="42.919691" lon="-8.299464"><ele>376</ele></trkpt><trkpt lat="42.919175" lon="-8.300423"><ele>376</ele></trkpt><trkpt lat="42.918969" lon="-8.301413"><ele>378</ele></trkpt><trkpt lat="42.919196" lon="-8.302595"><ele>377</ele></trkpt><trkpt lat="42.919265" lon="-8.303799"><ele>379</ele></trkpt><trkpt lat="42.91909" lon="-8.305002"><ele>377</ele></trkpt><trkpt lat="42.918987" lon="-8.305865"><ele>372</ele></trkpt><trkpt lat="42.918905" lon="-8.307042"><ele>369</ele></trkpt><trkpt lat="42.91844" lon="-8.30807"><ele>367</ele></trkpt><trkpt lat="42.918349" lon="-8.309217"><ele>368</ele></trkpt><trkpt lat="42.91836" lon="-8.310436"><ele>372</ele></trkpt><trkpt lat="42.917626" lon="-8.310496"><ele>370</ele></trkpt><trkpt lat="42.917377" lon="-8.311481"><ele>373</ele></trkpt><trkpt lat="42.917254" lon="-8.312697"><ele>377</ele></trkpt><trkpt lat="42.917132" lon="-8.313914"><ele>379</ele></trkpt><trkpt lat="42.917014" lon="-8.315131"><ele>383</ele></trkpt><trkpt lat="42.916702" lon="-8.316172"><ele>382</ele></trkpt><trkpt lat="42.916497" lon="-8.317368"><ele>386</ele></trkpt><trkpt lat="42.916281" lon="-8.318557"><ele>391</ele></trkpt><trkpt lat="42.915855" lon="-8.319639"><ele>397</ele></trkpt><trkpt lat="42.915502" lon="-8.320766"><ele>402</ele></trkpt><trkpt lat="42.915311" lon="-8.321963"><ele>405</ele></trkpt><trkpt lat="42.915287" lon="-8.323188"><ele>406</ele></trkpt><trkpt lat="42.915776" lon="-8.323537"><ele>413</ele></trkpt><trkpt lat="42.916538" lon="-8.323539"><ele>422</ele></trkpt><trkpt lat="42.916368" lon="-8.324743"><ele>416</ele></trkpt><trkpt lat="42.916449" lon="-8.325948"><ele>412</ele></trkpt><trkpt lat="42.916636" lon="-8.327134"><ele>407</ele></trkpt><trkpt lat="42.916988" lon="-8.328261"><ele>400</ele></trkpt><trkpt lat="42.917271" lon="-8.329419"><ele>385</ele></trkpt><trkpt lat="42.917401" lon="-8.330497"><ele>373</ele></trkpt><trkpt lat="42.916763" lon="-8.331218"><ele>374</ele></trkpt><trkpt lat="42.917107" lon="-8.332318"><ele>366</ele></trkpt><trkpt lat="42.917674" lon="-8.333271"><ele>366</ele></trkpt><trkpt lat="42.918105" lon="-8.334301"><ele>367</ele></trkpt><trkpt lat="42.918256" lon="-8.335511"><ele>355</ele></trkpt><trkpt lat="42.918369" lon="-8.336729"><ele>348</ele></trkpt><trkpt lat="42.91847" lon="-8.337949"><ele>343</ele></trkpt><trkpt lat="42.918348" lon="-8.339152"><ele>343</ele></trkpt><trkpt lat="42.918045" lon="-8.340303"><ele>351</ele></trkpt><trkpt lat="42.91773" lon="-8.341447"><ele>349</ele></trkpt><trkpt lat="42.917342" lon="-8.342552"><ele>340</ele></trkpt><trkpt lat="42.916736" lon="-8.343256"><ele>332</ele></trkpt><trkpt lat="42.916311" lon="-8.34401"><ele>324</ele></trkpt><trkpt lat="42.916063" lon="-8.345164"><ele>317</ele></trkpt><trkpt lat="42.915604" lon="-8.346205"><ele>310</ele></trkpt><trkpt lat="42.91505" lon="-8.347169"><ele>312</ele></trkpt><trkpt lat="42.914567" lon="-8.348188"><ele>302</ele></trkpt><trkpt lat="42.914488" lon="-8.349254"><ele>291</ele></trkpt><trkpt lat="42.914578" lon="-8.350257"><ele>280</ele></trkpt><trkpt lat="42.914229" lon="-8.351388"><ele>275</ele></trkpt><trkpt lat="42.913827" lon="-8.352486"><ele>273</ele></trkpt><trkpt lat="42.913244" lon="-8.353395"><ele>270</ele></trkpt><trkpt lat="42.912753" lon="-8.354384"><ele>266</ele></trkpt><trkpt lat="42.912465" lon="-8.355543"><ele>259</ele></trkpt><trkpt lat="42.912446" lon="-8.356769"><ele>258</ele></trkpt><trkpt lat="42.91203" lon="-8.357673"><ele>259</ele></trkpt><trkpt lat="42.911438" lon="-8.358597"><ele>267</ele></trkpt><trkpt lat="42.910878" lon="-8.359557"><ele>278</ele></trkpt><trkpt lat="42.910352" lon="-8.360531"><ele>282</ele></trkpt><trkpt lat="42.909973" lon="-8.361626"><ele>287</ele></trkpt><trkpt lat="42.909613" lon="-8.362744"><ele>295</ele></trkpt><trkpt lat="42.909054" lon="-8.363695"><ele>299</ele></trkpt><trkpt lat="42.908333" lon="-8.363335"><ele>296</ele></trkpt><trkpt lat="42.907487" lon="-8.363726"><ele>291</ele></trkpt></trkseg></trk></gpx>