<?xml version="1.0" encoding="UTF-8"?>
<gpx version="1.1" creator="Mi Diario del Camino de Santiago" xmlns="http://www.topografix.com/GPX/1/1">
<metadata><name>Etapa 29: Sarria - Portomarín</name><copyright author="OpenStreetMap contributors"><license>https://opendatacommons.org/licenses/odbl/1-0/</license></copyright></metadata>
<trk><name>Etapa 29: Sarria - Portomarín</name><trkseg><trkpt lat="42.777286" lon="-7.414351"><ele>446</ele></trkpt><trkpt lat="42.777433" lon="-7.415522"><ele>454</ele></trkpt><trkpt lat="42.777112" lon="-7.416666"><ele>461</ele></trkpt><trkpt lat="42.776989" lon="-7.417652"><ele>469</ele></trkpt><trkpt lat="42.777659" lon="-7.418356"><ele>470</ele></trkpt><trkpt lat="42.777883" lon="-7.419534"><ele>475</ele></trkpt><trkpt lat="42.778352" lon="-7.420564"><ele>473</ele></trkpt><trkpt lat="42.777985" lon="-7.421308"><ele>469</ele></trkpt><trkpt lat="42.777214" lon="-7.421939"><ele>452</ele></trkpt><trkpt lat="42.776867" lon="-7.42263"><ele>437</ele></trkpt><trkpt lat="42.777691" lon="-7.423095"><ele>433</ele></trkpt><trkpt lat="42.778403" lon="-7.423657"><ele>431</ele></trkpt><trkpt lat="42.77807" lon="-7.424761"><ele>435</ele></trkpt><trkpt lat="42.777477" lon="-7.425607"><ele>441</ele></trkpt><trkpt lat="42.776838" lon="-7.426463"><ele>447</ele></trkpt><trkpt lat="42.776204" lon="-7.426687"><ele>439</ele></trkpt><trkpt lat="42.775479" lon="-7.427393"><ele>435</ele></trkpt><trkpt lat="42.774858" lon="-7.428266"><ele>439</ele></trkpt><trkpt lat="42.774415" lon="-7.429271"><ele>444</ele></trkpt><trkpt lat="42.774059" lon="-7.430367"><ele>448</ele></trkpt><trkpt lat="42.773225" lon="-7.430811"><ele>440</ele></trkpt><trkpt lat="42.772682" lon="-7.431596"><ele>444</ele></trkpt><trkpt lat="42.77263" lon="-7.432819"><ele>452</ele></trkpt><trkpt lat="42.772441" lon="-7.433998"><ele>468</ele></trkpt><trkpt lat="42.772353" lon="-7.435187"><ele>481</ele></trkpt><trkpt lat="42.772358" lon="-7.436393"><ele>495</ele></trkpt><trkpt lat="42.771726" lon="-7.435827"><ele>499</ele></trkpt><trkpt lat="42.77114" lon="-7.436636"><ele>503</ele></trkpt><trkpt lat="42.770755" lon="-7.43774"><ele>504</ele></trkpt><trkpt lat="42.770187" lon="-7.438684"><ele>502</ele></trkpt><trkpt lat="42.769844" lon="-7.43975"><ele>502</ele></trkpt><trkpt lat="42.770435" lon="-7.440585"><ele>504</ele></trkpt><trkpt lat="42.770616" lon="-7.441779"><ele>502</ele></trkpt><trkpt lat="42.770875" lon="-7.442948"><ele>505</ele></trkpt><trkpt lat="42.770322" lon="-7.443623"><ele>513</ele></trkpt><trkpt lat="42.769619" lon="-7.444362"><ele>521</ele></trkpt><trkpt lat="42.768783" lon="-7.444155"><ele>519</ele></trkpt><trkpt lat="42.768572" lon="-7.44524"><ele>529</ele></trkpt><trkpt lat="42.767879" lon="-7.44599"><ele>534</ele></trkpt><trkpt lat="42.767192" lon="-7.446776"><ele>538</ele></trkpt><trkpt lat="42.766699" lon="-7.447779"><ele>542</ele></trkpt><trkpt lat="42.766546" lon="-7.448975"><ele>550</ele></trkpt><trkpt lat="42.766102" lon="-7.450034"><ele>551</ele></trkpt><trkpt lat="42.766322" lon="-7.450954"><ele>556</ele></trkpt><trkpt lat="42.767042" lon="-7.451687"><ele>562</ele></trkpt><trkpt lat="42.767803" lon="-7.452339"><ele>568</ele></trkpt><trkpt lat="42.768603" lon="-7.452893"><ele>569</ele></trkpt><trkpt lat="42.769166" lon="-7.453844"><ele>574</ele></trkpt><trkpt lat="42.769431" lon="-7.455005"><ele>581</ele></trkpt><trkpt lat="42.769535" lon="-7.456194"><ele>588</ele></trkpt><trkpt lat="42.768889" lon="-7.457021"><ele>592</ele></trkpt><trkpt lat="42.768481" lon="-7.458102"><ele>595</ele></trkpt><trkpt lat="42.768096" lon="-7.459113"><ele>594</ele></trkpt><trkpt lat="42.768754" lon="-7.45988"><ele>596</ele></trkpt><trkpt lat="42.769187" lon="-7.460938"><ele>598</ele></trkpt><trkpt lat="42.769259" lon="-7.462146"><ele>601</ele></trkpt><trkpt lat="42.769301" lon="-7.46334"><ele>611</ele></trkpt><trkpt lat="42.769685" lon="-7.464382"><ele>621</ele></trkpt><trkpt lat="42.770048" lon="-7.465415"><ele>625</ele></trkpt><trkpt lat="42.770303" lon="-7.466539"><ele>628</ele></trkpt><trkpt lat="42.770935" lon="-7.467061"><ele>630</ele></trkpt><trkpt lat="42.771716" lon="-7.467286"><ele>630</ele></trkpt><trkpt lat="42.772428" lon="-7.468034"><ele>629</ele></trkpt><trkpt lat="42.773039" lon="-7.468924"><ele>623</ele></trkpt><trkpt lat="42.77356" lon="-7.469911"><ele>619</ele></trkpt><trkpt lat="42.774159" lon="-7.470816"><ele>618</ele></trkpt><trkpt lat="42.774865" lon="-7.471546"><ele>617</ele></trkpt><trkpt lat="42.774814" lon="-7.472669"><ele>616</ele></trkpt><trkpt lat="42.774463" lon="-7.473796"><ele>614</ele></trkpt><trkpt lat="42.774127" lon="-7.474933"><ele>611</ele></trkpt><trkpt lat="42.773764" lon="-7.476049"><ele>609</ele></trkpt><trkpt lat="42.773259" lon="-7.477031"><ele>606</ele></trkpt><trkpt lat="42.773101" lon="-7.478211"><ele>601</ele></trkpt><trkpt lat="42.772719" lon="-7.479292"><ele>595</ele></trkpt><trkpt lat="42.77298" lon="-7.479992"><ele>595</ele></trkpt><trkpt lat="42.773828" lon="-7.479951"><ele>599</ele></trkpt><trkpt lat="42.77467" lon="-7.48034"><ele>604</ele></trkpt><trkpt lat="42.775449" lon="-7.480793"><ele>604</ele></trkpt><trkpt lat="42.776308" lon="-7.481153"><ele>604</ele></trkpt><trkpt lat="42.777125" lon="-7.481644"><ele>610</ele></trkpt><trkpt lat="42.778001" lon="-7.481927"><ele>614</ele></trkpt><trkpt lat="42.778805" lon="-7.482466"><ele>619</ele></trkpt><trkpt lat="42.779626" lon="-7.482965"><ele>625</ele></trkpt><trkpt lat="42.780478" lon="-7.4833"><ele>628</ele></trkpt><trkpt lat="42.781131" lon="-7.484088"><ele>629</ele></trkpt><trkpt lat="42.781073" lon="-7.485297"><ele>629</ele></trkpt><trkpt lat="42.780956" lon="-7.486508"><ele>629</ele></trkpt><trkpt lat="42.781033" lon="-7.487719"><ele>629</ele></trkpt><trkpt lat="42.781103" lon="-7.48893"><ele>634</ele></trkpt><trkpt lat="42.781031" lon="-7.49015"><ele>635</ele></trkpt><trkpt lat="42.780966" lon="-7.491367"><ele>637</ele></trkpt><trkpt lat="42.780665" lon="-7.492521"><ele>636</ele></trkpt><trkpt lat="42.780392" lon="-7.49364"><ele>631</ele></trkpt><trkpt lat="42.780425" lon="-7.494627"><ele>632</ele></trkpt><trkpt lat="42.780959" lon="-7.495602"><ele>635</ele></trkpt><trkpt lat="42.780182" lon="-7.495895"><ele>639</ele></trkpt><trkpt lat="42.779478" lon="-7.496363"><ele>639</ele></trkpt><trkpt lat="42.77935" lon="-7.497567"><ele>639</ele></trkpt><trkpt lat="42.779148" lon="-7.498756"><ele>641</ele></trkpt><trkpt lat="42.778577" lon="-7.499615"><ele>639</ele></trkpt><trkpt lat="42.777881" lon="-7.500385"><ele>636</ele></trkpt><trkpt lat="42.777656" lon="-7.501544"><ele>643</ele></trkpt><trkpt lat="42.777347" lon="-7.502678"><ele>642</ele></trkpt><trkpt lat="42.777506" lon="-7.503791"><ele>642</ele></trkpt><trkpt lat="42.777349" lon="-7.504952"><ele>639</ele></trkpt><trkpt lat="42.777206" lon="-7.506121"><ele>632</ele></trkpt><trkpt lat="42.777737" lon="-7.507101"><ele>625</ele></trkpt><trkpt lat="42.778323" lon="-7.508028"><ele>617</ele></trkpt><trkpt lat="42.77871" lon="-7.508841"><ele>617</ele></trkpt><trkpt lat="42.778363" lon="-7.509921"><ele>623</ele></trkpt><trkpt lat="42.778657" lon="-7.511079"><ele>634</ele></trkpt><trkpt lat="42.778731" lon="-7.512253"><ele>642</ele></trkpt><trkpt lat="42.778928" lon="-7.513406"><ele>649</ele></trkpt><trkpt lat="42.778999" lon="-7.514573"><ele>649</ele></trkpt><trkpt lat="42.779447" lon="-7.515536"><ele>654</ele></trkpt><trkpt lat="42.779691" lon="-7.516669"><ele>657</ele></trkpt><trkpt lat="42.780096" lon="-7.517752"><ele>663</ele></trkpt><trkpt lat="42.780346" lon="-7.518928"><ele>664</ele></trkpt><trkpt lat="42.780947" lon="-7.519779"><ele>661</ele></trkpt><trkpt lat="42.781472" lon="-7.520747"><ele>656</ele></trkpt><trkpt lat="42.782208" lon="-7.521207"><ele>649</ele></trkpt><trkpt lat="42.783058" lon="-7.521227"><ele>646</ele></trkpt><trkpt lat="42.783881" lon="-7.521145"><ele>646</ele></trkpt><trkpt lat="42.784707" lon="-7.52139"><ele>645</ele></trkpt><trkpt lat="42.785276" lon="-7.522254"><ele>657</ele></trkpt><trkpt lat="42.784905" lon="-7.523364"><ele>662</ele></trkpt><trkpt lat="42.784472" lon="-7.524431"><ele>663</ele></trkpt><trkpt lat="42.784095" lon="-7.525539"><ele>660</ele></trkpt><trkpt lat="42.783943" lon="-7.526697"><ele>661</ele></trkpt><trkpt lat="42.783627" lon="-7.527812"><ele>656</ele></trkpt><trkpt lat="42.783765" lon="-7.529017"><ele>655</ele></trkpt><trkpt lat="42.783919" lon="-7.530145"><ele>663</ele></trkpt><trkpt lat="42.783579" lon="-7.531204"><ele>662</ele></trkpt><trkpt lat="42.783497" lon="-7.532391"><ele>663</ele></trkpt><trkpt lat="42.783496" lon="-7.533459"><ele>661</ele></trkpt><trkpt lat="42.78352" lon="-7.534683"><ele>654</ele></trkpt><trkpt lat="42.783706" lon="-7.535879"><ele>642</ele></trkpt><trkpt lat="42.783868" lon="-7.537082"><ele>637</ele></trkpt><trkpt lat="42.784099" lon="-7.53826"><ele>642</ele></trkpt><trkpt lat="42.784242" lon="-7.539451"><ele>644</ele></trkpt><trkpt lat="42.784409" lon="-7.540637"><ele>638</ele></trkpt><trkpt lat="42.784925" lon="-7.541634"><ele>640</ele></trkpt><trkpt lat="42.784807" lon="-7.542547"><ele>636</ele></trkpt><trkpt lat="42.784934" lon="-7.543587"><ele>631</ele></trkpt><trkpt lat="42.784859" lon="-7.544797"><ele>630</ele></trkpt><trkpt lat="42.784377" lon="-7.545781"><ele>631</ele></trkpt><trkpt lat="42.78508" lon="-7.546329"><ele>644</ele></trkpt><trkpt lat="42.784613" lon="-7.547203"><ele>643</ele></trkpt><trkpt lat="42.784189" lon="-7.548265"><ele>642</ele></trkpt><trkpt lat="42.783977" lon="-7.549448"><ele>639</ele></trkpt><trkpt lat="42.784152" lon="-7.550618"><ele>636</ele></trkpt><trkpt lat="42.784202" lon="-7.551788"><ele>637</ele></trkpt><trkpt lat="42.784076" lon="-7.552979"><ele>642</ele></trkpt><trkpt lat="42.783845" lon="-7.554159"><ele>648</ele></trkpt><trkpt lat="42.783216" lon="-7.555016"><ele>647</ele></trkpt><trkpt lat="42.782896" lon="-7.555943"><ele>643</ele></trkpt><trkpt lat="42.783405" lon="-7.556879"><ele>637</ele></trkpt><trkpt lat="42.784225" lon="-7.557377"><ele>638</ele></trkpt><trkpt lat="42.784642" lon="-7.558427"><ele>631</ele></trkpt><trkpt lat="42.78488" lon="-7.559403"><ele>620</ele></trkpt><trkpt lat="42.785536" lon="-7.56023"><ele>615</ele></trkpt><trkpt lat="42.786068" lon="-7.561175"><ele>607</ele></trkpt><trkpt lat="42.786386" lon="-7.562279"><ele>595</ele></trkpt><trkpt lat="42.786991" lon="-7.563143"><ele>582</ele></trkpt><trkpt lat="42.787346" lon="-7.564177"><ele>571</ele></trkpt><trkpt lat="42.787696" lon="-7.565304"><ele>563</ele></trkpt><trkpt lat="42.78808" lon="-7.566373"><ele>558</ele></trkpt><trkpt lat="42.788508" lon="-7.567369"><ele>555</ele></trkpt><trkpt lat="42.7887" lon="-7.568486"><ele>551</ele></trkpt><trkpt lat="42.788968" lon="-7.569622"><ele>538</ele></trkpt><trkpt lat="42.789472" lon="-7.570633"><ele>535</ele></trkpt><trkpt lat="42.79017" lon="-7.571379"><ele>534</ele></trkpt><trkpt lat="42.790815" lon="-7.572222"><ele>537</ele></trkpt><trkpt lat="42.790981" lon="-7.573415"><ele>543</ele></trkpt><trkpt lat="42.790938" lon="-7.574607"><ele>546</ele></trkpt><trkpt lat="42.791075" lon="-7.575814"><ele>554</ele></trkpt><trkpt lat="42.791008" lon="-7.577032"><ele>554</ele></trkpt><trkpt lat="42.79082" lon="-7.578229"><ele>554</ele></trkpt><trkpt lat="42.790825" lon="-7.57945"><ele>554</ele></trkpt><trkpt lat="42.790969" lon="-7.58066"><ele>553</ele></trkpt><trkpt lat="42.791126" lon="-7.581866"><ele>548</ele></trkpt><trkpt lat="42.791367" lon="-7.583032"><ele>539</ele></trkpt><trkpt lat="42.79193" lon="-7.583905"><ele>531</ele></trkpt><trkpt lat="42.792719" lon="-7.584373"><ele>523</ele></trkpt><trkpt lat="42.793337" lon="-7.585183"><ele>509</ele></trkpt><trkpt lat="42.793699" lon="-7.586299"><ele>497</ele></trkpt><trkpt lat="42.794007" lon="-7.587337"><ele>490</ele></trkpt><trkpt lat="42.794143" lon="-7.588439"><ele>485</ele></trkpt><trkpt lat="42.794299" lon="-7.589646"><ele>478</ele></trkpt><trkpt lat="42.794356" lon="-7.59086"><ele>476</ele></trkpt><trkpt lat="42.794482" lon="-7.592026"><ele>475</ele></trkpt><trkpt lat="42.7948" lon="-7.593167"><ele>470</ele></trkpt><trkpt lat="42.794942" lon="-7.594372"><ele>461</ele></trkpt><trkpt lat="42.795203" lon="-7.595543"><ele>452</ele></trkpt><trkpt lat="42.79523" lon="-7.596757"><ele>444</ele></trkpt><trkpt lat="42.795449" lon="-7.597916"><ele>436</ele></trkpt><trkpt lat="42.795508" lon="-7.599112"><ele>432</ele></trkpt><trkpt lat="42.795584" lon="-7.60033"><ele>429</ele></trkpt><trkpt lat="42.795499" lon="-7.601522"><ele>428</ele></trkpt><trkpt lat="42.795672" lon="-7.602638"><ele>427</ele></trkpt><trkpt lat="42.795378" lon="-7.603661"><ele>423</ele></trkpt><trkpt lat="42.795112" lon="-7.604747"><ele>421</ele></trkpt><trkpt lat="42.795448" lon="-7.605879"><ele>418</ele></trkpt><trkpt lat="42.795651" lon="-7.607072"><ele>419</ele></trkpt><trkpt lat="42.795849" lon="-7.608254"><ele>423</ele></trkpt><trkpt lat="42.796244" lon="-7.609268"><ele>423</ele></trkpt><trkpt lat="42.796906" lon="-7.608581"><ele>420</ele></trkpt><trkpt lat="42.797736" lon="-7.608152"><ele>419</ele></trkpt><trkpt lat="42.798539" lon="-7.60865"><ele>410</ele></trkpt><trkpt lat="42.799231" lon="-7.609166"><ele>396</ele></trkpt><trkpt lat="42.799565" lon="-7.610291"><ele>384</ele></trkpt><trkpt lat="42.800272" lon="-7.610896"><ele>373</ele></trkpt><trkpt lat="42.80068" lon="-7.611792"><ele>364</ele></trkpt><trkpt lat="42.801181" lon="-7.61247"><ele>360</ele></trkpt><trkpt lat="42.801998" lon="-7.61298"><ele>353</ele></trkpt><trkpt lat="42.802285" lon="-7.614046"><ele>342</ele></trkpt><trkpt lat="42.802345" lon="-7.615119"><ele>322</ele></trkpt><trkpt lat="42.803152" lon="-7.61566"><ele>320</ele></trkpt><trkpt lat="42.803966" lon="-7.616181"><ele>320</ele></trkpt><trkpt lat="42.804782" lon="-7.616696"><ele>332</ele></trkpt><trkpt lat="42.805549" lon="-7.61717"><ele>363</ele></trkpt><trkpt lat="42.806248" lon="-7.616734"><ele>380</ele></trkpt></trkseg></trk></gpx>