<?xml version="1.0" encoding="UTF-8"?>
<gpx version="1.1" creator="Mi Diario del Camino de Santiago" xmlns="http://www.topografix.com/GPX/1/1">
<metadata><name>Etapa 7: Los Arcos - Logroño</name><copyright author="OpenStreetMap contributors"><license>https://opendatacommons.org/licenses/odbl/1-0/</license></copyright></metadata>
<trk><name>Etapa 7: Los Arcos - Logroño</name><trkseg><trkpt lat="42.5691" lon="-2.192681"><ele>450</ele></trkpt><trkpt lat="42.568755" lon="-2.193807"><ele>448</ele></trkpt><trkpt lat="42.56844" lon="-2.194949"><ele>448</ele></trkpt><trkpt lat="42.568161" lon="-2.196109"><ele>453</ele></trkpt><trkpt lat="42.567831" lon="-2.197245"><ele>458</ele></trkpt><trkpt lat="42.567446" lon="-2.198334"><ele>462</ele></trkpt><trkpt lat="42.567171" lon="-2.199486"><ele>465</ele></trkpt><trkpt lat="42.567092" lon="-2.200701"><ele>467</ele></trkpt><trkpt lat="42.566911" lon="-2.201897"><ele>467</ele></trkpt><trkpt lat="42.566659" lon="-2.20306"><ele>465</ele></trkpt><trkpt lat="42.566547" lon="-2.204268"><ele>464</ele></trkpt><trkpt lat="42.566467" lon="-2.205483"><ele>464</ele></trkpt><trkpt lat="42.566296" lon="-2.206682"><ele>463</ele></trkpt><trkpt lat="42.566121" lon="-2.207879"><ele>463</ele></trkpt><trkpt lat="42.566043" lon="-2.209095"><ele>466</ele></trkpt><trkpt lat="42.565972" lon="-2.210313"><ele>467</ele></trkpt><trkpt lat="42.565894" lon="-2.211529"><ele>467</ele></trkpt><trkpt lat="42.565815" lon="-2.212745"><ele>466</ele></trkpt><trkpt lat="42.565748" lon="-2.213963"><ele>467</ele></trkpt><trkpt lat="42.565648" lon="-2.215176"><ele>467</ele></trkpt><trkpt lat="42.565517" lon="-2.216384"><ele>467</ele></trkpt><trkpt lat="42.565413" lon="-2.217597"><ele>466</ele></trkpt><trkpt lat="42.565325" lon="-2.218812"><ele>466</ele></trkpt><trkpt lat="42.565239" lon="-2.220028"><ele>465</ele></trkpt><trkpt lat="42.565153" lon="-2.221243"><ele>467</ele></trkpt><trkpt lat="42.565065" lon="-2.222458"><ele>467</ele></trkpt><trkpt lat="42.56496" lon="-2.223671"><ele>466</ele></trkpt><trkpt lat="42.564762" lon="-2.224862"><ele>465</ele></trkpt><trkpt lat="42.564555" lon="-2.22605"><ele>463</ele></trkpt><trkpt lat="42.564348" lon="-2.227238"><ele>459</ele></trkpt><trkpt lat="42.564142" lon="-2.228427"><ele>457</ele></trkpt><trkpt lat="42.563942" lon="-2.229617"><ele>453</ele></trkpt><trkpt lat="42.563742" lon="-2.230807"><ele>450</ele></trkpt><trkpt lat="42.563528" lon="-2.231993"><ele>453</ele></trkpt><trkpt lat="42.563326" lon="-2.233183"><ele>453</ele></trkpt><trkpt lat="42.563126" lon="-2.234373"><ele>451</ele></trkpt><trkpt lat="42.562891" lon="-2.235552"><ele>451</ele></trkpt><trkpt lat="42.563307" lon="-2.236511"><ele>453</ele></trkpt><trkpt lat="42.563592" lon="-2.237585"><ele>457</ele></trkpt><trkpt lat="42.563639" lon="-2.238803"><ele>460</ele></trkpt><trkpt lat="42.563687" lon="-2.24002"><ele>463</ele></trkpt><trkpt lat="42.563803" lon="-2.24123"><ele>465</ele></trkpt><trkpt lat="42.563801" lon="-2.24245"><ele>464</ele></trkpt><trkpt lat="42.563704" lon="-2.243662"><ele>463</ele></trkpt><trkpt lat="42.563543" lon="-2.244862"><ele>464</ele></trkpt><trkpt lat="42.56351" lon="-2.246064"><ele>465</ele></trkpt><trkpt lat="42.563647" lon="-2.247269"><ele>465</ele></trkpt><trkpt lat="42.563877" lon="-2.248439"><ele>466</ele></trkpt><trkpt lat="42.564321" lon="-2.249474"><ele>465</ele></trkpt><trkpt lat="42.564123" lon="-2.250654"><ele>463</ele></trkpt><trkpt lat="42.564019" lon="-2.251863"><ele>462</ele></trkpt><trkpt lat="42.563813" lon="-2.253044"><ele>459</ele></trkpt><trkpt lat="42.563561" lon="-2.254204"><ele>456</ele></trkpt><trkpt lat="42.563623" lon="-2.255291"><ele>454</ele></trkpt><trkpt lat="42.562961" lon="-2.256093"><ele>453</ele></trkpt><trkpt lat="42.562907" lon="-2.257223"><ele>463</ele></trkpt><trkpt lat="42.562215" lon="-2.257943"><ele>464</ele></trkpt><trkpt lat="42.561464" lon="-2.258614"><ele>465</ele></trkpt><trkpt lat="42.560721" lon="-2.259301"><ele>467</ele></trkpt><trkpt lat="42.560082" lon="-2.26016"><ele>466</ele></trkpt><trkpt lat="42.559453" lon="-2.261032"><ele>465</ele></trkpt><trkpt lat="42.558904" lon="-2.261995"><ele>464</ele></trkpt><trkpt lat="42.558439" lon="-2.26304"><ele>464</ele></trkpt><trkpt lat="42.557979" lon="-2.264089"><ele>463</ele></trkpt><trkpt lat="42.557428" lon="-2.265006"><ele>471</ele></trkpt><trkpt lat="42.556537" lon="-2.264934"><ele>478</ele></trkpt><trkpt lat="42.555822" lon="-2.265647"><ele>484</ele></trkpt><trkpt lat="42.555102" lon="-2.266354"><ele>487</ele></trkpt><trkpt lat="42.554218" lon="-2.266467"><ele>490</ele></trkpt><trkpt lat="42.553653" lon="-2.266925"><ele>496</ele></trkpt><trkpt lat="42.553085" lon="-2.267209"><ele>488</ele></trkpt><trkpt lat="42.552261" lon="-2.266722"><ele>476</ele></trkpt><trkpt lat="42.551474" lon="-2.266799"><ele>470</ele></trkpt><trkpt lat="42.550744" lon="-2.267465"><ele>462</ele></trkpt><trkpt lat="42.5504" lon="-2.268556"><ele>452</ele></trkpt><trkpt lat="42.550685" lon="-2.269668"><ele>445</ele></trkpt><trkpt lat="42.55127" lon="-2.270583"><ele>456</ele></trkpt><trkpt lat="42.551965" lon="-2.271198"><ele>465</ele></trkpt><trkpt lat="42.551948" lon="-2.272259"><ele>468</ele></trkpt><trkpt lat="42.551585" lon="-2.273296"><ele>476</ele></trkpt><trkpt lat="42.551278" lon="-2.274442"><ele>482</ele></trkpt><trkpt lat="42.55075" lon="-2.275427"><ele>485</ele></trkpt><trkpt lat="42.550203" lon="-2.276394"><ele>486</ele></trkpt><trkpt lat="42.549648" lon="-2.277328"><ele>496</ele></trkpt><trkpt lat="42.549577" lon="-2.278544"><ele>502</ele></trkpt><trkpt lat="42.549456" lon="-2.279754"><ele>503</ele></trkpt><trkpt lat="42.549249" lon="-2.28094"><ele>502</ele></trkpt><trkpt lat="42.549065" lon="-2.282126"><ele>500</ele></trkpt><trkpt lat="42.548552" lon="-2.283087"><ele>492</ele></trkpt><trkpt lat="42.548273" lon="-2.284154"><ele>495</ele></trkpt><trkpt lat="42.547639" lon="-2.285003"><ele>498</ele></trkpt><trkpt lat="42.547183" lon="-2.285929"><ele>489</ele></trkpt><trkpt lat="42.546823" lon="-2.287003"><ele>492</ele></trkpt><trkpt lat="42.546111" lon="-2.287506"><ele>500</ele></trkpt><trkpt lat="42.545232" lon="-2.287448"><ele>515</ele></trkpt><trkpt lat="42.544699" lon="-2.288361"><ele>520</ele></trkpt><trkpt lat="42.544509" lon="-2.289544"><ele>526</ele></trkpt><trkpt lat="42.544347" lon="-2.290736"><ele>533</ele></trkpt><trkpt lat="42.544101" lon="-2.2919"><ele>540</ele></trkpt><trkpt lat="42.543586" lon="-2.292893"><ele>549</ele></trkpt><trkpt lat="42.54338" lon="-2.293854"><ele>553</ele></trkpt><trkpt lat="42.543072" lon="-2.294985"><ele>561</ele></trkpt><trkpt lat="42.542634" lon="-2.296042"><ele>562</ele></trkpt><trkpt lat="42.541994" lon="-2.296874"><ele>560</ele></trkpt><trkpt lat="42.541768" lon="-2.298018"><ele>549</ele></trkpt><trkpt lat="42.542166" lon="-2.299001"><ele>543</ele></trkpt><trkpt lat="42.542223" lon="-2.299981"><ele>540</ele></trkpt><trkpt lat="42.541541" lon="-2.300264"><ele>544</ele></trkpt><trkpt lat="42.541891" lon="-2.30135"><ele>551</ele></trkpt><trkpt lat="42.54144" lon="-2.302068"><ele>565</ele></trkpt><trkpt lat="42.541193" lon="-2.303203"><ele>573</ele></trkpt><trkpt lat="42.541277" lon="-2.304418"><ele>573</ele></trkpt><trkpt lat="42.541125" lon="-2.305554"><ele>576</ele></trkpt><trkpt lat="42.540706" lon="-2.3062"><ele>572</ele></trkpt><trkpt lat="42.54039" lon="-2.306876"><ele>565</ele></trkpt><trkpt lat="42.540901" lon="-2.307834"><ele>568</ele></trkpt><trkpt lat="42.540896" lon="-2.309039"><ele>558</ele></trkpt><trkpt lat="42.540623" lon="-2.310196"><ele>545</ele></trkpt><trkpt lat="42.539899" lon="-2.310771"><ele>535</ele></trkpt><trkpt lat="42.539732" lon="-2.311913"><ele>523</ele></trkpt><trkpt lat="42.539193" lon="-2.312398"><ele>507</ele></trkpt><trkpt lat="42.539496" lon="-2.313226"><ele>507</ele></trkpt><trkpt lat="42.539525" lon="-2.313785"><ele>513</ele></trkpt><trkpt lat="42.538633" lon="-2.313899"><ele>506</ele></trkpt><trkpt lat="42.537936" lon="-2.314621"><ele>502</ele></trkpt><trkpt lat="42.537289" lon="-2.315269"><ele>494</ele></trkpt><trkpt lat="42.537072" lon="-2.316451"><ele>502</ele></trkpt><trkpt lat="42.536488" lon="-2.317364"><ele>492</ele></trkpt><trkpt lat="42.536001" lon="-2.318372"><ele>485</ele></trkpt><trkpt lat="42.53522" lon="-2.31892"><ele>473</ele></trkpt><trkpt lat="42.534415" lon="-2.319411"><ele>473</ele></trkpt><trkpt lat="42.533694" lon="-2.320118"><ele>473</ele></trkpt><trkpt lat="42.533038" lon="-2.320947"><ele>467</ele></trkpt><trkpt lat="42.532346" lon="-2.321707"><ele>464</ele></trkpt><trkpt lat="42.531651" lon="-2.32232"><ele>463</ele></trkpt><trkpt lat="42.530779" lon="-2.322605"><ele>470</ele></trkpt><trkpt lat="42.529929" lon="-2.322955"><ele>468</ele></trkpt><trkpt lat="42.529062" lon="-2.323152"><ele>461</ele></trkpt><trkpt lat="42.528279" lon="-2.323738"><ele>459</ele></trkpt><trkpt lat="42.527611" lon="-2.324533"><ele>462</ele></trkpt><trkpt lat="42.526966" lon="-2.325361"><ele>472</ele></trkpt><trkpt lat="42.526288" lon="-2.326121"><ele>472</ele></trkpt><trkpt lat="42.526123" lon="-2.327295"><ele>478</ele></trkpt><trkpt lat="42.526135" lon="-2.32839"><ele>479</ele></trkpt><trkpt lat="42.526024" lon="-2.329554"><ele>483</ele></trkpt><trkpt lat="42.525494" lon="-2.330394"><ele>494</ele></trkpt><trkpt lat="42.52474" lon="-2.330972"><ele>504</ele></trkpt><trkpt lat="42.524431" lon="-2.332078"><ele>503</ele></trkpt><trkpt lat="42.524191" lon="-2.333255"><ele>500</ele></trkpt><trkpt lat="42.523971" lon="-2.334435"><ele>495</ele></trkpt><trkpt lat="42.523631" lon="-2.335564"><ele>487</ele></trkpt><trkpt lat="42.523233" lon="-2.336656"><ele>480</ele></trkpt><trkpt lat="42.522714" lon="-2.337567"><ele>476</ele></trkpt><trkpt lat="42.522264" lon="-2.338614"><ele>477</ele></trkpt><trkpt lat="42.52178" lon="-2.339593"><ele>481</ele></trkpt><trkpt lat="42.521154" lon="-2.340468"><ele>481</ele></trkpt><trkpt lat="42.520702" lon="-2.341522"><ele>480</ele></trkpt><trkpt lat="42.520266" lon="-2.342589"><ele>478</ele></trkpt><trkpt lat="42.519829" lon="-2.343656"><ele>477</ele></trkpt><trkpt lat="42.519531" lon="-2.344804"><ele>471</ele></trkpt><trkpt lat="42.51927" lon="-2.345972"><ele>471</ele></trkpt><trkpt lat="42.519011" lon="-2.34714"><ele>469</ele></trkpt><trkpt lat="42.518747" lon="-2.348307"><ele>467</ele></trkpt><trkpt lat="42.518482" lon="-2.349473"><ele>466</ele></trkpt><trkpt lat="42.518138" lon="-2.350527"><ele>463</ele></trkpt><trkpt lat="42.517691" lon="-2.351577"><ele>459</ele></trkpt><trkpt lat="42.517498" lon="-2.352766"><ele>457</ele></trkpt><trkpt lat="42.517342" lon="-2.353965"><ele>452</ele></trkpt><trkpt lat="42.517119" lon="-2.355143"><ele>445</ele></trkpt><trkpt lat="42.517041" lon="-2.356258"><ele>445</ele></trkpt><trkpt lat="42.51659" lon="-2.357291"><ele>444</ele></trkpt><trkpt lat="42.516311" lon="-2.35845"><ele>444</ele></trkpt><trkpt lat="42.516155" lon="-2.359644"><ele>444</ele></trkpt><trkpt lat="42.516059" lon="-2.360848"><ele>446</ele></trkpt><trkpt lat="42.515844" lon="-2.362011"><ele>446</ele></trkpt><trkpt lat="42.515717" lon="-2.36313"><ele>447</ele></trkpt><trkpt lat="42.515634" lon="-2.3642"><ele>447</ele></trkpt><trkpt lat="42.515528" lon="-2.36539"><ele>447</ele></trkpt><trkpt lat="42.51549" lon="-2.366606"><ele>453</ele></trkpt><trkpt lat="42.515338" lon="-2.367808"><ele>455</ele></trkpt><trkpt lat="42.51515" lon="-2.368955"><ele>461</ele></trkpt><trkpt lat="42.515351" lon="-2.369819"><ele>470</ele></trkpt><trkpt lat="42.515027" lon="-2.370598"><ele>474</ele></trkpt><trkpt lat="42.51493" lon="-2.371811"><ele>477</ele></trkpt><trkpt lat="42.514843" lon="-2.373026"><ele>473</ele></trkpt><trkpt lat="42.515204" lon="-2.373799"><ele>465</ele></trkpt><trkpt lat="42.515486" lon="-2.374705"><ele>455</ele></trkpt><trkpt lat="42.515177" lon="-2.375527"><ele>444</ele></trkpt><trkpt lat="42.514904" lon="-2.376346"><ele>436</ele></trkpt><trkpt lat="42.514279" lon="-2.377207"><ele>430</ele></trkpt><trkpt lat="42.513391" lon="-2.37733"><ele>427</ele></trkpt><trkpt lat="42.512803" lon="-2.377935"><ele>425</ele></trkpt><trkpt lat="42.512855" lon="-2.379128"><ele>427</ele></trkpt><trkpt lat="42.512014" lon="-2.379248"><ele>425</ele></trkpt><trkpt lat="42.51124" lon="-2.379393"><ele>424</ele></trkpt><trkpt lat="42.510351" lon="-2.379482"><ele>424</ele></trkpt><trkpt lat="42.509878" lon="-2.380449"><ele>424</ele></trkpt><trkpt lat="42.509603" lon="-2.381575"><ele>420</ele></trkpt><trkpt lat="42.508869" lon="-2.382275"><ele>417</ele></trkpt><trkpt lat="42.508099" lon="-2.382902"><ele>417</ele></trkpt><trkpt lat="42.507406" lon="-2.383437"><ele>416</ele></trkpt><trkpt lat="42.50661" lon="-2.383919"><ele>413</ele></trkpt><trkpt lat="42.505723" lon="-2.3841"><ele>412</ele></trkpt><trkpt lat="42.505107" lon="-2.38483"><ele>410</ele></trkpt><trkpt lat="42.504408" lon="-2.385596"><ele>407</ele></trkpt><trkpt lat="42.50372" lon="-2.386374"><ele>405</ele></trkpt><trkpt lat="42.502967" lon="-2.386958"><ele>403</ele></trkpt><trkpt lat="42.502138" lon="-2.387424"><ele>400</ele></trkpt><trkpt lat="42.501487" lon="-2.388164"><ele>398</ele></trkpt><trkpt lat="42.500606" lon="-2.388004"><ele>396</ele></trkpt><trkpt lat="42.499776" lon="-2.388321"><ele>395</ele></trkpt><trkpt lat="42.498943" lon="-2.388742"><ele>394</ele></trkpt><trkpt lat="42.498055" lon="-2.388873"><ele>393</ele></trkpt><trkpt lat="42.49718" lon="-2.388737"><ele>395</ele></trkpt><trkpt lat="42.496303" lon="-2.388574"><ele>394</ele></trkpt><trkpt lat="42.495926" lon="-2.389543"><ele>400</ele></trkpt><trkpt lat="42.495933" lon="-2.390756"><ele>400</ele></trkpt><trkpt lat="42.496004" lon="-2.391951"><ele>392</ele></trkpt><trkpt lat="42.495914" lon="-2.393148"><ele>391</ele></trkpt><trkpt lat="42.495725" lon="-2.394327"><ele>390</ele></trkpt><trkpt lat="42.495528" lon="-2.39548"><ele>390</ele></trkpt><trkpt lat="42.495379" lon="-2.396676"><ele>391</ele></trkpt><trkpt lat="42.495229" lon="-2.397876"><ele>391</ele></trkpt><trkpt lat="42.494975" lon="-2.399045"><ele>392</ele></trkpt><trkpt lat="42.494561" lon="-2.400125"><ele>395</ele></trkpt><trkpt lat="42.494048" lon="-2.401122"><ele>399</ele></trkpt><trkpt lat="42.494035" lon="-2.402259"><ele>403</ele></trkpt><trkpt lat="42.494216" lon="-2.403372"><ele>406</ele></trkpt><trkpt lat="42.493916" lon="-2.404406"><ele>408</ele></trkpt><trkpt lat="42.493593" lon="-2.405314"><ele>406</ele></trkpt><trkpt lat="42.493194" lon="-2.406384"><ele>404</ele></trkpt><trkpt lat="42.492902" lon="-2.407534"><ele>401</ele></trkpt><trkpt lat="42.492558" lon="-2.40866"><ele>400</ele></trkpt><trkpt lat="42.492241" lon="-2.409794"><ele>397</ele></trkpt><trkpt lat="42.491921" lon="-2.410935"><ele>396</ele></trkpt><trkpt lat="42.491599" lon="-2.412073"><ele>393</ele></trkpt><trkpt lat="42.491333" lon="-2.413231"><ele>389</ele></trkpt><trkpt lat="42.491008" lon="-2.414314"><ele>388</ele></trkpt><trkpt lat="42.490686" lon="-2.415451"><ele>388</ele></trkpt><trkpt lat="42.490404" lon="-2.416568"><ele>390</ele></trkpt><trkpt lat="42.490051" lon="-2.417689"><ele>389</ele></trkpt><trkpt lat="42.489562" lon="-2.418482"><ele>392</ele></trkpt><trkpt lat="42.489125" lon="-2.41944"><ele>394</ele></trkpt><trkpt lat="42.488851" lon="-2.42046"><ele>397</ele></trkpt><trkpt lat="42.488669" lon="-2.421654"><ele>401</ele></trkpt><trkpt lat="42.488292" lon="-2.422753"><ele>403</ele></trkpt><trkpt lat="42.487784" lon="-2.423758"><ele>406</ele></trkpt><trkpt lat="42.487287" lon="-2.424775"><ele>410</ele></trkpt><trkpt lat="42.486793" lon="-2.425793"><ele>417</ele></trkpt><trkpt lat="42.486297" lon="-2.42681"><ele>420</ele></trkpt><trkpt lat="42.485815" lon="-2.42784"><ele>427</ele></trkpt><trkpt lat="42.485457" lon="-2.428954"><ele>429</ele></trkpt><trkpt lat="42.485179" lon="-2.430114"><ele>432</ele></trkpt><trkpt lat="42.484886" lon="-2.431266"><ele>432</ele></trkpt><trkpt lat="42.4843" lon="-2.432179"><ele>429</ele></trkpt><trkpt lat="42.483618" lon="-2.432972"><ele>427</ele></trkpt><trkpt lat="42.482911" lon="-2.433727"><ele>427</ele></trkpt><trkpt lat="42.482185" lon="-2.43444"><ele>424</ele></trkpt><trkpt lat="42.481359" lon="-2.43492"><ele>421</ele></trkpt><trkpt lat="42.480512" lon="-2.43533"><ele>415</ele></trkpt><trkpt lat="42.47969" lon="-2.435821"><ele>413</ele></trkpt><trkpt lat="42.478894" lon="-2.436386"><ele>409</ele></trkpt><trkpt lat="42.478115" lon="-2.436994"><ele>405</ele></trkpt><trkpt lat="42.477288" lon="-2.437464"><ele>401</ele></trkpt><trkpt lat="42.476637" lon="-2.438236"><ele>389</ele></trkpt><trkpt lat="42.476097" lon="-2.43917"><ele>379</ele></trkpt><trkpt lat="42.475229" lon="-2.43944"><ele>370</ele></trkpt><trkpt lat="42.474338" lon="-2.439581"><ele>369</ele></trkpt><trkpt lat="42.473474" lon="-2.439862"><ele>369</ele></trkpt><trkpt lat="42.472682" lon="-2.440335"><ele>371</ele></trkpt><trkpt lat="42.471989" lon="-2.440843"><ele>370</ele></trkpt><trkpt lat="42.471465" lon="-2.441816"><ele>368</ele></trkpt><trkpt lat="42.471146" lon="-2.442948"><ele>368</ele></trkpt><trkpt lat="42.470983" lon="-2.444006"><ele>371</ele></trkpt><trkpt lat="42.470182" lon="-2.443836"><ele>366</ele></trkpt><trkpt lat="42.469332" lon="-2.443438"><ele>367</ele></trkpt><trkpt lat="42.468674" lon="-2.443723"><ele>379</ele></trkpt><trkpt lat="42.468313" lon="-2.444831"><ele>382</ele></trkpt><trkpt lat="42.467912" lon="-2.445899"><ele>383</ele></trkpt></trkseg></trk></gpx>