<?xml version="1.0" encoding="UTF-8"?>
<gpx version="1.1" creator="Mi Diario del Camino de Santiago" xmlns="http://www.topografix.com/GPX/1/1">
<metadata><name>Etapa 24: Foncebadón - Ponferrada</name><copyright author="OpenStreetMap contributors"><license>https://opendatacommons.org/licenses/odbl/1-0/</license></copyright></metadata>
<trk><name>Etapa 24: Foncebadón - Ponferrada</name><trkseg><trkpt lat="42.491263" lon="-6.342635"><ele>1427</ele></trkpt><trkpt lat="42.491799" lon="-6.343552"><ele>1439</ele></trkpt><trkpt lat="42.492209" lon="-6.344609"><ele>1441</ele></trkpt><trkpt lat="42.492613" lon="-6.345685"><ele>1446</ele></trkpt><trkpt lat="42.492573" lon="-6.346884"><ele>1447</ele></trkpt><trkpt lat="42.492337" lon="-6.348061"><ele>1448</ele></trkpt><trkpt lat="42.492053" lon="-6.349185"><ele>1456</ele></trkpt><trkpt lat="42.491704" lon="-6.350257"><ele>1469</ele></trkpt><trkpt lat="42.490821" lon="-6.350208"><ele>1459</ele></trkpt><trkpt lat="42.490002" lon="-6.350654"><ele>1468</ele></trkpt><trkpt lat="42.489925" lon="-6.35177"><ele>1475</ele></trkpt><trkpt lat="42.490556" lon="-6.352622"><ele>1483</ele></trkpt><trkpt lat="42.491285" lon="-6.353308"><ele>1490</ele></trkpt><trkpt lat="42.491589" lon="-6.354418"><ele>1485</ele></trkpt><trkpt lat="42.49121" lon="-6.355308"><ele>1488</ele></trkpt><trkpt lat="42.490791" lon="-6.356319"><ele>1490</ele></trkpt><trkpt lat="42.49073" lon="-6.357535"><ele>1496</ele></trkpt><trkpt lat="42.490388" lon="-6.358654"><ele>1497</ele></trkpt><trkpt lat="42.489956" lon="-6.359717"><ele>1498</ele></trkpt><trkpt lat="42.489356" lon="-6.360621"><ele>1499</ele></trkpt><trkpt lat="42.488855" lon="-6.361579"><ele>1499</ele></trkpt><trkpt lat="42.488591" lon="-6.362714"><ele>1493</ele></trkpt><trkpt lat="42.488704" lon="-6.363912"><ele>1488</ele></trkpt><trkpt lat="42.489047" lon="-6.365039"><ele>1485</ele></trkpt><trkpt lat="42.489254" lon="-6.366217"><ele>1479</ele></trkpt><trkpt lat="42.489147" lon="-6.367411"><ele>1475</ele></trkpt><trkpt lat="42.489087" lon="-6.368621"><ele>1475</ele></trkpt><trkpt lat="42.489107" lon="-6.369839"><ele>1473</ele></trkpt><trkpt lat="42.489397" lon="-6.370991"><ele>1474</ele></trkpt><trkpt lat="42.489828" lon="-6.37206"><ele>1478</ele></trkpt><trkpt lat="42.489942" lon="-6.373195"><ele>1478</ele></trkpt><trkpt lat="42.489235" lon="-6.373898"><ele>1479</ele></trkpt><trkpt lat="42.488666" lon="-6.374834"><ele>1474</ele></trkpt><trkpt lat="42.48837" lon="-6.375968"><ele>1468</ele></trkpt><trkpt lat="42.488491" lon="-6.377173"><ele>1459</ele></trkpt><trkpt lat="42.488444" lon="-6.378368"><ele>1456</ele></trkpt><trkpt lat="42.487978" lon="-6.379403"><ele>1456</ele></trkpt><trkpt lat="42.487609" lon="-6.380506"><ele>1460</ele></trkpt><trkpt lat="42.487771" lon="-6.381664"><ele>1457</ele></trkpt><trkpt lat="42.48809" lon="-6.382798"><ele>1455</ele></trkpt><trkpt lat="42.488269" lon="-6.383992"><ele>1450</ele></trkpt><trkpt lat="42.488879" lon="-6.384745"><ele>1446</ele></trkpt><trkpt lat="42.489493" lon="-6.3856"><ele>1441</ele></trkpt><trkpt lat="42.490071" lon="-6.386523"><ele>1437</ele></trkpt><trkpt lat="42.4905" lon="-6.387536"><ele>1441</ele></trkpt><trkpt lat="42.490392" lon="-6.388719"><ele>1440</ele></trkpt><trkpt lat="42.490073" lon="-6.38983"><ele>1437</ele></trkpt><trkpt lat="42.489996" lon="-6.391024"><ele>1437</ele></trkpt><trkpt lat="42.490337" lon="-6.392052"><ele>1434</ele></trkpt><trkpt lat="42.491013" lon="-6.392845"><ele>1443</ele></trkpt><trkpt lat="42.490991" lon="-6.393851"><ele>1445</ele></trkpt><trkpt lat="42.49083" lon="-6.394981"><ele>1438</ele></trkpt><trkpt lat="42.491058" lon="-6.396159"><ele>1438</ele></trkpt><trkpt lat="42.491383" lon="-6.397289"><ele>1442</ele></trkpt><trkpt lat="42.492024" lon="-6.39813"><ele>1460</ele></trkpt><trkpt lat="42.491869" lon="-6.399234"><ele>1459</ele></trkpt><trkpt lat="42.49187" lon="-6.400388"><ele>1457</ele></trkpt><trkpt lat="42.492192" lon="-6.401526"><ele>1458</ele></trkpt><trkpt lat="42.492462" lon="-6.402686"><ele>1462</ele></trkpt><trkpt lat="42.492544" lon="-6.403867"><ele>1462</ele></trkpt><trkpt lat="42.492483" lon="-6.405004"><ele>1470</ele></trkpt><trkpt lat="42.491829" lon="-6.405734"><ele>1478</ele></trkpt><trkpt lat="42.490955" lon="-6.405909"><ele>1485</ele></trkpt><trkpt lat="42.490133" lon="-6.406336"><ele>1489</ele></trkpt><trkpt lat="42.489619" lon="-6.407145"><ele>1490</ele></trkpt><trkpt lat="42.489957" lon="-6.408247"><ele>1493</ele></trkpt><trkpt lat="42.490374" lon="-6.409322"><ele>1498</ele></trkpt><trkpt lat="42.490561" lon="-6.410511"><ele>1498</ele></trkpt><trkpt lat="42.490463" lon="-6.411705"><ele>1498</ele></trkpt><trkpt lat="42.489963" lon="-6.412711"><ele>1501</ele></trkpt><trkpt lat="42.48959" lon="-6.413755"><ele>1503</ele></trkpt><trkpt lat="42.489625" lon="-6.414968"><ele>1500</ele></trkpt><trkpt lat="42.489575" lon="-6.416175"><ele>1497</ele></trkpt><trkpt lat="42.489548" lon="-6.41739"><ele>1501</ele></trkpt><trkpt lat="42.489296" lon="-6.418494"><ele>1507</ele></trkpt><trkpt lat="42.488576" lon="-6.419199"><ele>1508</ele></trkpt><trkpt lat="42.488334" lon="-6.420369"><ele>1510</ele></trkpt><trkpt lat="42.488571" lon="-6.42153"><ele>1502</ele></trkpt><trkpt lat="42.488833" lon="-6.422684"><ele>1491</ele></trkpt><trkpt lat="42.488833" lon="-6.42387"><ele>1487</ele></trkpt><trkpt lat="42.489123" lon="-6.425001"><ele>1478</ele></trkpt><trkpt lat="42.489462" lon="-6.426123"><ele>1464</ele></trkpt><trkpt lat="42.489921" lon="-6.427161"><ele>1450</ele></trkpt><trkpt lat="42.490599" lon="-6.427961"><ele>1438</ele></trkpt><trkpt lat="42.491183" lon="-6.428849"><ele>1435</ele></trkpt><trkpt lat="42.491518" lon="-6.429981"><ele>1430</ele></trkpt><trkpt lat="42.49179" lon="-6.431142"><ele>1418</ele></trkpt><trkpt lat="42.491793" lon="-6.432347"><ele>1406</ele></trkpt><trkpt lat="42.491652" lon="-6.433549"><ele>1404</ele></trkpt><trkpt lat="42.491488" lon="-6.434747"><ele>1405</ele></trkpt><trkpt lat="42.491316" lon="-6.435943"><ele>1404</ele></trkpt><trkpt lat="42.491173" lon="-6.437147"><ele>1402</ele></trkpt><trkpt lat="42.49103" lon="-6.438325"><ele>1393</ele></trkpt><trkpt lat="42.491274" lon="-6.439491"><ele>1394</ele></trkpt><trkpt lat="42.491866" lon="-6.44038"><ele>1390</ele></trkpt><trkpt lat="42.492652" lon="-6.44096"><ele>1365</ele></trkpt><trkpt lat="42.493383" lon="-6.441656"><ele>1344</ele></trkpt><trkpt lat="42.494249" lon="-6.441975"><ele>1330</ele></trkpt><trkpt lat="42.495063" lon="-6.442468"><ele>1314</ele></trkpt><trkpt lat="42.495574" lon="-6.443431"><ele>1304</ele></trkpt><trkpt lat="42.49603" lon="-6.444478"><ele>1291</ele></trkpt><trkpt lat="42.496452" lon="-6.445553"><ele>1280</ele></trkpt><trkpt lat="42.496589" lon="-6.446757"><ele>1267</ele></trkpt><trkpt lat="42.496768" lon="-6.447947"><ele>1258</ele></trkpt><trkpt lat="42.496937" lon="-6.449146"><ele>1252</ele></trkpt><trkpt lat="42.49689" lon="-6.450357"><ele>1245</ele></trkpt><trkpt lat="42.49698" lon="-6.451565"><ele>1237</ele></trkpt><trkpt lat="42.497051" lon="-6.452751"><ele>1221</ele></trkpt><trkpt lat="42.496972" lon="-6.453962"><ele>1196</ele></trkpt><trkpt lat="42.497365" lon="-6.455028"><ele>1168</ele></trkpt><trkpt lat="42.496901" lon="-6.45524"><ele>1161</ele></trkpt><trkpt lat="42.497633" lon="-6.455817"><ele>1151</ele></trkpt><trkpt lat="42.498393" lon="-6.456402"><ele>1145</ele></trkpt><trkpt lat="42.499023" lon="-6.457269"><ele>1140</ele></trkpt><trkpt lat="42.499522" lon="-6.458264"><ele>1138</ele></trkpt><trkpt lat="42.500392" lon="-6.458519"><ele>1132</ele></trkpt><trkpt lat="42.501135" lon="-6.459191"><ele>1122</ele></trkpt><trkpt lat="42.50185" lon="-6.459093"><ele>1117</ele></trkpt><trkpt lat="42.502666" lon="-6.459596"><ele>1116</ele></trkpt><trkpt lat="42.503532" lon="-6.459887"><ele>1114</ele></trkpt><trkpt lat="42.50419" lon="-6.460692"><ele>1112</ele></trkpt><trkpt lat="42.504965" lon="-6.461302"><ele>1108</ele></trkpt><trkpt lat="42.505735" lon="-6.461928"><ele>1113</ele></trkpt><trkpt lat="42.506325" lon="-6.462837"><ele>1113</ele></trkpt><trkpt lat="42.506894" lon="-6.463774"><ele>1115</ele></trkpt><trkpt lat="42.507128" lon="-6.464855"><ele>1100</ele></trkpt><trkpt lat="42.507325" lon="-6.465993"><ele>1084</ele></trkpt><trkpt lat="42.508025" lon="-6.466733"><ele>1065</ele></trkpt><trkpt lat="42.508849" lon="-6.467204"><ele>1046</ele></trkpt><trkpt lat="42.509663" lon="-6.467697"><ele>1027</ele></trkpt><trkpt lat="42.510318" lon="-6.468445"><ele>1018</ele></trkpt><trkpt lat="42.510981" lon="-6.469266"><ele>1011</ele></trkpt><trkpt lat="42.511743" lon="-6.469903"><ele>1003</ele></trkpt><trkpt lat="42.512499" lon="-6.470559"><ele>995</ele></trkpt><trkpt lat="42.513288" lon="-6.471131"><ele>984</ele></trkpt><trkpt lat="42.513925" lon="-6.471892"><ele>989</ele></trkpt><trkpt lat="42.514782" lon="-6.472217"><ele>978</ele></trkpt><trkpt lat="42.515653" lon="-6.472036"><ele>967</ele></trkpt><trkpt lat="42.516528" lon="-6.472065"><ele>959</ele></trkpt><trkpt lat="42.517121" lon="-6.472975"><ele>953</ele></trkpt><trkpt lat="42.517773" lon="-6.473796"><ele>956</ele></trkpt><trkpt lat="42.518283" lon="-6.474797"><ele>955</ele></trkpt><trkpt lat="42.518775" lon="-6.475818"><ele>955</ele></trkpt><trkpt lat="42.5192" lon="-6.47689"><ele>949</ele></trkpt><trkpt lat="42.519836" lon="-6.477734"><ele>939</ele></trkpt><trkpt lat="42.520518" lon="-6.478492"><ele>933</ele></trkpt><trkpt lat="42.521357" lon="-6.478908"><ele>932</ele></trkpt><trkpt lat="42.522084" lon="-6.479593"><ele>923</ele></trkpt><trkpt lat="42.522631" lon="-6.480495"><ele>918</ele></trkpt><trkpt lat="42.523136" lon="-6.481427"><ele>912</ele></trkpt><trkpt lat="42.523654" lon="-6.482397"><ele>904</ele></trkpt><trkpt lat="42.52408" lon="-6.483449"><ele>895</ele></trkpt><trkpt lat="42.524608" lon="-6.484426"><ele>883</ele></trkpt><trkpt lat="42.525038" lon="-6.485481"><ele>875</ele></trkpt><trkpt lat="42.525359" lon="-6.486578"><ele>868</ele></trkpt><trkpt lat="42.525316" lon="-6.487724"><ele>860</ele></trkpt><trkpt lat="42.525601" lon="-6.488874"><ele>860</ele></trkpt><trkpt lat="42.52578" lon="-6.49001"><ele>858</ele></trkpt><trkpt lat="42.525927" lon="-6.491169"><ele>855</ele></trkpt><trkpt lat="42.526197" lon="-6.492304"><ele>851</ele></trkpt><trkpt lat="42.526584" lon="-6.493372"><ele>847</ele></trkpt><trkpt lat="42.527399" lon="-6.493585"><ele>844</ele></trkpt><trkpt lat="42.528186" lon="-6.494097"><ele>843</ele></trkpt><trkpt lat="42.528617" lon="-6.495095"><ele>840</ele></trkpt><trkpt lat="42.528748" lon="-6.496278"><ele>840</ele></trkpt><trkpt lat="42.529203" lon="-6.497314"><ele>837</ele></trkpt><trkpt lat="42.529438" lon="-6.498394"><ele>826</ele></trkpt><trkpt lat="42.529848" lon="-6.499452"><ele>812</ele></trkpt><trkpt lat="42.530289" lon="-6.500456"><ele>797</ele></trkpt><trkpt lat="42.530248" lon="-6.501669"><ele>791</ele></trkpt><trkpt lat="42.530591" lon="-6.501743"><ele>789</ele></trkpt><trkpt lat="42.530392" lon="-6.50287"><ele>781</ele></trkpt><trkpt lat="42.530474" lon="-6.504082"><ele>768</ele></trkpt><trkpt lat="42.530495" lon="-6.505285"><ele>756</ele></trkpt><trkpt lat="42.530244" lon="-6.506398"><ele>747</ele></trkpt><trkpt lat="42.530116" lon="-6.507535"><ele>738</ele></trkpt><trkpt lat="42.530209" lon="-6.508742"><ele>725</ele></trkpt><trkpt lat="42.53073" lon="-6.509727"><ele>720</ele></trkpt><trkpt lat="42.53113" lon="-6.510787"><ele>697</ele></trkpt><trkpt lat="42.531995" lon="-6.51057"><ele>702</ele></trkpt><trkpt lat="42.532699" lon="-6.510977"><ele>692</ele></trkpt><trkpt lat="42.533353" lon="-6.511249"><ele>672</ele></trkpt><trkpt lat="42.534242" lon="-6.511176"><ele>659</ele></trkpt><trkpt lat="42.535098" lon="-6.510939"><ele>665</ele></trkpt><trkpt lat="42.534736" lon="-6.511983"><ele>659</ele></trkpt><trkpt lat="42.534263" lon="-6.513015"><ele>642</ele></trkpt><trkpt lat="42.534416" lon="-6.514061"><ele>630</ele></trkpt><trkpt lat="42.534837" lon="-6.515013"><ele>627</ele></trkpt><trkpt lat="42.534874" lon="-6.516194"><ele>607</ele></trkpt><trkpt lat="42.535466" lon="-6.516943"><ele>602</ele></trkpt><trkpt lat="42.536306" lon="-6.517377"><ele>597</ele></trkpt><trkpt lat="42.537153" lon="-6.51774"><ele>596</ele></trkpt><trkpt lat="42.53759" lon="-6.518596"><ele>585</ele></trkpt><trkpt lat="42.537803" lon="-6.519764"><ele>583</ele></trkpt><trkpt lat="42.538159" lon="-6.520884"><ele>582</ele></trkpt><trkpt lat="42.538533" lon="-6.521994"><ele>580</ele></trkpt><trkpt lat="42.539051" lon="-6.522952"><ele>580</ele></trkpt><trkpt lat="42.539515" lon="-6.523997"><ele>579</ele></trkpt><trkpt lat="42.540014" lon="-6.525012"><ele>578</ele></trkpt><trkpt lat="42.540527" lon="-6.526015"><ele>577</ele></trkpt><trkpt lat="42.541134" lon="-6.526915"><ele>574</ele></trkpt><trkpt lat="42.541745" lon="-6.527811"><ele>571</ele></trkpt><trkpt lat="42.542284" lon="-6.528633"><ele>571</ele></trkpt><trkpt lat="42.542887" lon="-6.528974"><ele>568</ele></trkpt><trkpt lat="42.543493" lon="-6.529872"><ele>567</ele></trkpt><trkpt lat="42.544046" lon="-6.530834"><ele>565</ele></trkpt><trkpt lat="42.5444" lon="-6.531954"><ele>565</ele></trkpt><trkpt lat="42.544867" lon="-6.532994"><ele>566</ele></trkpt><trkpt lat="42.54545" lon="-6.533921"><ele>566</ele></trkpt><trkpt lat="42.545736" lon="-6.534976"><ele>567</ele></trkpt><trkpt lat="42.545755" lon="-6.536185"><ele>570</ele></trkpt><trkpt lat="42.545701" lon="-6.537386"><ele>575</ele></trkpt><trkpt lat="42.546101" lon="-6.53842"><ele>581</ele></trkpt><trkpt lat="42.546566" lon="-6.539382"><ele>580</ele></trkpt><trkpt lat="42.546586" lon="-6.540595"><ele>582</ele></trkpt><trkpt lat="42.546519" lon="-6.541812"><ele>584</ele></trkpt><trkpt lat="42.546406" lon="-6.543017"><ele>588</ele></trkpt><trkpt lat="42.546457" lon="-6.544235"><ele>592</ele></trkpt><trkpt lat="42.546345" lon="-6.545441"><ele>598</ele></trkpt><trkpt lat="42.546118" lon="-6.546618"><ele>605</ele></trkpt><trkpt lat="42.545916" lon="-6.547799"><ele>611</ele></trkpt><trkpt lat="42.545657" lon="-6.548949"><ele>614</ele></trkpt><trkpt lat="42.545336" lon="-6.550064"><ele>608</ele></trkpt><trkpt lat="42.544932" lon="-6.551067"><ele>597</ele></trkpt><trkpt lat="42.544661" lon="-6.552228"><ele>588</ele></trkpt><trkpt lat="42.54438" lon="-6.553374"><ele>581</ele></trkpt><trkpt lat="42.544047" lon="-6.5545"><ele>573</ele></trkpt><trkpt lat="42.543948" lon="-6.555707"><ele>564</ele></trkpt><trkpt lat="42.543266" lon="-6.556474"><ele>558</ele></trkpt><trkpt lat="42.542604" lon="-6.557301"><ele>565</ele></trkpt><trkpt lat="42.541948" lon="-6.558133"><ele>574</ele></trkpt><trkpt lat="42.541457" lon="-6.559153"><ele>575</ele></trkpt><trkpt lat="42.540981" lon="-6.560161"><ele>575</ele></trkpt><trkpt lat="42.54029" lon="-6.560922"><ele>566</ele></trkpt><trkpt lat="42.539534" lon="-6.56157"><ele>557</ele></trkpt><trkpt lat="42.538904" lon="-6.562363"><ele>546</ele></trkpt><trkpt lat="42.538654" lon="-6.563529"><ele>535</ele></trkpt><trkpt lat="42.538547" lon="-6.564648"><ele>529</ele></trkpt><trkpt lat="42.538668" lon="-6.565856"><ele>528</ele></trkpt><trkpt lat="42.538843" lon="-6.567053"><ele>527</ele></trkpt><trkpt lat="42.53884" lon="-6.568233"><ele>526</ele></trkpt><trkpt lat="42.538499" lon="-6.569361"><ele>525</ele></trkpt><trkpt lat="42.538361" lon="-6.570563"><ele>523</ele></trkpt><trkpt lat="42.538233" lon="-6.571771"><ele>521</ele></trkpt><trkpt lat="42.538102" lon="-6.572979"><ele>518</ele></trkpt><trkpt lat="42.537975" lon="-6.574187"><ele>519</ele></trkpt><trkpt lat="42.537776" lon="-6.575371"><ele>518</ele></trkpt><trkpt lat="42.537189" lon="-6.576291"><ele>518</ele></trkpt><trkpt lat="42.536593" lon="-6.577201"><ele>519</ele></trkpt><trkpt lat="42.536072" lon="-6.578177"><ele>518</ele></trkpt><trkpt lat="42.536075" lon="-6.579364"><ele>517</ele></trkpt><trkpt lat="42.536144" lon="-6.58054"><ele>514</ele></trkpt><trkpt lat="42.535537" lon="-6.581363"><ele>513</ele></trkpt><trkpt lat="42.534886" lon="-6.582086"><ele>510</ele></trkpt><trkpt lat="42.534555" lon="-6.583206"><ele>512</ele></trkpt><trkpt lat="42.534913" lon="-6.584291"><ele>515</ele></trkpt><trkpt lat="42.535144" lon="-6.585467"><ele>517</ele></trkpt><trkpt lat="42.535713" lon="-6.586378"><ele>512</ele></trkpt><trkpt lat="42.536313" lon="-6.587286"><ele>511</ele></trkpt><trkpt lat="42.536415" lon="-6.587785"><ele>512</ele></trkpt><trkpt lat="42.537121" lon="-6.58854"><ele>511</ele></trkpt><trkpt lat="42.537795" lon="-6.589348"><ele>511</ele></trkpt><trkpt lat="42.538499" lon="-6.589551"><ele>503</ele></trkpt><trkpt lat="42.539283" lon="-6.589352"><ele>508</ele></trkpt><trkpt lat="42.539617" lon="-6.590456"><ele>506</ele></trkpt><trkpt lat="42.540234" lon="-6.591329"><ele>509</ele></trkpt><trkpt lat="42.540879" lon="-6.592136"><ele>521</ele></trkpt><trkpt lat="42.541458" lon="-6.592894"><ele>527</ele></trkpt><trkpt lat="42.542357" lon="-6.5929"><ele>530</ele></trkpt><trkpt lat="42.542988" lon="-6.593233"><ele>533</ele></trkpt><trkpt lat="42.543595" lon="-6.592845"><ele>537</ele></trkpt><trkpt lat="42.544072" lon="-6.592619"><ele>538</ele></trkpt></trkseg></trk></gpx>