<?xml version="1.0" encoding="UTF-8"?>
<gpx version="1.1" creator="Mi Diario del Camino de Santiago" xmlns="http://www.topografix.com/GPX/1/1">
<metadata><name>Etapa 27: O Cebreiro - Triacastela</name><copyright author="OpenStreetMap contributors"><license>https://opendatacommons.org/licenses/odbl/1-0/</license></copyright></metadata>
<trk><name>Etapa 27: O Cebreiro - Triacastela</name><trkseg><trkpt lat="42.707713" lon="-7.043625"><ele>1291</ele></trkpt><trkpt lat="42.707675" lon="-7.04474"><ele>1285</ele></trkpt><trkpt lat="42.707958" lon="-7.045896"><ele>1278</ele></trkpt><trkpt lat="42.707932" lon="-7.047087"><ele>1270</ele></trkpt><trkpt lat="42.707527" lon="-7.048178"><ele>1269</ele></trkpt><trkpt lat="42.70712" lon="-7.049269"><ele>1271</ele></trkpt><trkpt lat="42.70688" lon="-7.050445"><ele>1264</ele></trkpt><trkpt lat="42.706291" lon="-7.051328"><ele>1262</ele></trkpt><trkpt lat="42.705615" lon="-7.052088"><ele>1264</ele></trkpt><trkpt lat="42.705294" lon="-7.053226"><ele>1257</ele></trkpt><trkpt lat="42.704871" lon="-7.054295"><ele>1248</ele></trkpt><trkpt lat="42.704246" lon="-7.055171"><ele>1245</ele></trkpt><trkpt lat="42.70364" lon="-7.056069"><ele>1244</ele></trkpt><trkpt lat="42.703446" lon="-7.057247"><ele>1239</ele></trkpt><trkpt lat="42.703666" lon="-7.058426"><ele>1243</ele></trkpt><trkpt lat="42.704012" lon="-7.059555"><ele>1249</ele></trkpt><trkpt lat="42.704383" lon="-7.060669"><ele>1256</ele></trkpt><trkpt lat="42.704933" lon="-7.061634"><ele>1246</ele></trkpt><trkpt lat="42.70505" lon="-7.062811"><ele>1251</ele></trkpt><trkpt lat="42.704764" lon="-7.063971"><ele>1247</ele></trkpt><trkpt lat="42.704474" lon="-7.06513"><ele>1245</ele></trkpt><trkpt lat="42.704372" lon="-7.066303"><ele>1252</ele></trkpt><trkpt lat="42.704787" lon="-7.067384"><ele>1238</ele></trkpt><trkpt lat="42.704878" lon="-7.068597"><ele>1233</ele></trkpt><trkpt lat="42.70445" lon="-7.069649"><ele>1236</ele></trkpt><trkpt lat="42.703706" lon="-7.070329"><ele>1234</ele></trkpt><trkpt lat="42.703266" lon="-7.070343"><ele>1237</ele></trkpt><trkpt lat="42.702482" lon="-7.070876"><ele>1236</ele></trkpt><trkpt lat="42.701724" lon="-7.071504"><ele>1236</ele></trkpt><trkpt lat="42.700917" lon="-7.072043"><ele>1230</ele></trkpt><trkpt lat="42.700099" lon="-7.07252"><ele>1222</ele></trkpt><trkpt lat="42.69937" lon="-7.073122"><ele>1219</ele></trkpt><trkpt lat="42.698711" lon="-7.07389"><ele>1222</ele></trkpt><trkpt lat="42.698285" lon="-7.074933"><ele>1223</ele></trkpt><trkpt lat="42.698098" lon="-7.07604"><ele>1229</ele></trkpt><trkpt lat="42.698502" lon="-7.077131"><ele>1230</ele></trkpt><trkpt lat="42.698916" lon="-7.078161"><ele>1222</ele></trkpt><trkpt lat="42.698943" lon="-7.079372"><ele>1230</ele></trkpt><trkpt lat="42.69872" lon="-7.080503"><ele>1254</ele></trkpt><trkpt lat="42.698828" lon="-7.081679"><ele>1246</ele></trkpt><trkpt lat="42.698784" lon="-7.082897"><ele>1253</ele></trkpt><trkpt lat="42.698734" lon="-7.084117"><ele>1271</ele></trkpt><trkpt lat="42.698863" lon="-7.085324"><ele>1273</ele></trkpt><trkpt lat="42.699052" lon="-7.08652"><ele>1268</ele></trkpt><trkpt lat="42.699265" lon="-7.087709"><ele>1264</ele></trkpt><trkpt lat="42.699464" lon="-7.088894"><ele>1259</ele></trkpt><trkpt lat="42.699621" lon="-7.090064"><ele>1245</ele></trkpt><trkpt lat="42.699965" lon="-7.091152"><ele>1231</ele></trkpt><trkpt lat="42.700422" lon="-7.092181"><ele>1220</ele></trkpt><trkpt lat="42.701014" lon="-7.093089"><ele>1211</ele></trkpt><trkpt lat="42.701395" lon="-7.094177"><ele>1201</ele></trkpt><trkpt lat="42.702014" lon="-7.095064"><ele>1203</ele></trkpt><trkpt lat="42.702622" lon="-7.095966"><ele>1208</ele></trkpt><trkpt lat="42.703283" lon="-7.096792"><ele>1212</ele></trkpt><trkpt lat="42.703967" lon="-7.097586"><ele>1221</ele></trkpt><trkpt lat="42.7043" lon="-7.098677"><ele>1231</ele></trkpt><trkpt lat="42.704809" lon="-7.099598"><ele>1240</ele></trkpt><trkpt lat="42.705073" lon="-7.100737"><ele>1241</ele></trkpt><trkpt lat="42.705103" lon="-7.101953"><ele>1241</ele></trkpt><trkpt lat="42.70519" lon="-7.10315"><ele>1239</ele></trkpt><trkpt lat="42.705437" lon="-7.1043"><ele>1233</ele></trkpt><trkpt lat="42.705131" lon="-7.105433"><ele>1236</ele></trkpt><trkpt lat="42.705519" lon="-7.106499"><ele>1237</ele></trkpt><trkpt lat="42.705786" lon="-7.107656"><ele>1245</ele></trkpt><trkpt lat="42.706439" lon="-7.10835"><ele>1247</ele></trkpt><trkpt lat="42.707324" lon="-7.108311"><ele>1233</ele></trkpt><trkpt lat="42.707828" lon="-7.109195"><ele>1230</ele></trkpt><trkpt lat="42.707479" lon="-7.110315"><ele>1242</ele></trkpt><trkpt lat="42.707914" lon="-7.111331"><ele>1242</ele></trkpt><trkpt lat="42.708804" lon="-7.111394"><ele>1238</ele></trkpt><trkpt lat="42.709687" lon="-7.11129"><ele>1229</ele></trkpt><trkpt lat="42.709915" lon="-7.11223"><ele>1235</ele></trkpt><trkpt lat="42.710193" lon="-7.113365"><ele>1239</ele></trkpt><trkpt lat="42.710605" lon="-7.114382"><ele>1230</ele></trkpt><trkpt lat="42.710188" lon="-7.115455"><ele>1235</ele></trkpt><trkpt lat="42.709803" lon="-7.116541"><ele>1242</ele></trkpt><trkpt lat="42.709628" lon="-7.117719"><ele>1256</ele></trkpt><trkpt lat="42.710404" lon="-7.118205"><ele>1245</ele></trkpt><trkpt lat="42.710604" lon="-7.119324"><ele>1259</ele></trkpt><trkpt lat="42.710712" lon="-7.120526"><ele>1272</ele></trkpt><trkpt lat="42.711191" lon="-7.121556"><ele>1277</ele></trkpt><trkpt lat="42.711675" lon="-7.122576"><ele>1283</ele></trkpt><trkpt lat="42.712249" lon="-7.123498"><ele>1280</ele></trkpt><trkpt lat="42.712275" lon="-7.124674"><ele>1313</ele></trkpt><trkpt lat="42.712753" lon="-7.125369"><ele>1328</ele></trkpt><trkpt lat="42.71268" lon="-7.126378"><ele>1331</ele></trkpt><trkpt lat="42.713255" lon="-7.127319"><ele>1331</ele></trkpt><trkpt lat="42.713825" lon="-7.128265"><ele>1322</ele></trkpt><trkpt lat="42.7145" lon="-7.129054"><ele>1322</ele></trkpt><trkpt lat="42.715258" lon="-7.129663"><ele>1321</ele></trkpt><trkpt lat="42.715845" lon="-7.13059"><ele>1324</ele></trkpt><trkpt lat="42.716304" lon="-7.13163"><ele>1330</ele></trkpt><trkpt lat="42.71648" lon="-7.132829"><ele>1322</ele></trkpt><trkpt lat="42.716863" lon="-7.133926"><ele>1313</ele></trkpt><trkpt lat="42.717448" lon="-7.134856"><ele>1309</ele></trkpt><trkpt lat="42.718018" lon="-7.135802"><ele>1305</ele></trkpt><trkpt lat="42.718452" lon="-7.13687"><ele>1302</ele></trkpt><trkpt lat="42.718743" lon="-7.138026"><ele>1299</ele></trkpt><trkpt lat="42.719078" lon="-7.139161"><ele>1294</ele></trkpt><trkpt lat="42.7197" lon="-7.140013"><ele>1291</ele></trkpt><trkpt lat="42.720489" lon="-7.140601"><ele>1293</ele></trkpt><trkpt lat="42.721169" lon="-7.141384"><ele>1290</ele></trkpt><trkpt lat="42.721729" lon="-7.142342"><ele>1282</ele></trkpt><trkpt lat="42.722276" lon="-7.143311"><ele>1289</ele></trkpt><trkpt lat="42.722641" lon="-7.144428"><ele>1290</ele></trkpt><trkpt lat="42.722953" lon="-7.145575"><ele>1294</ele></trkpt><trkpt lat="42.723366" lon="-7.14666"><ele>1291</ele></trkpt><trkpt lat="42.723944" lon="-7.147594"><ele>1286</ele></trkpt><trkpt lat="42.724632" lon="-7.148378"><ele>1285</ele></trkpt><trkpt lat="42.725237" lon="-7.14928"><ele>1284</ele></trkpt><trkpt lat="42.725808" lon="-7.150225"><ele>1285</ele></trkpt><trkpt lat="42.726422" lon="-7.151114"><ele>1287</ele></trkpt><trkpt lat="42.726883" lon="-7.152156"><ele>1284</ele></trkpt><trkpt lat="42.727317" lon="-7.15322"><ele>1287</ele></trkpt><trkpt lat="42.727988" lon="-7.154029"><ele>1290</ele></trkpt><trkpt lat="42.728731" lon="-7.154714"><ele>1284</ele></trkpt><trkpt lat="42.729493" lon="-7.155313"><ele>1280</ele></trkpt><trkpt lat="42.730289" lon="-7.155866"><ele>1282</ele></trkpt><trkpt lat="42.731024" lon="-7.15655"><ele>1289</ele></trkpt><trkpt lat="42.731549" lon="-7.157535"><ele>1286</ele></trkpt><trkpt lat="42.732094" lon="-7.158493"><ele>1282</ele></trkpt><trkpt lat="42.732725" lon="-7.159348"><ele>1282</ele></trkpt><trkpt lat="42.733319" lon="-7.160259"><ele>1280</ele></trkpt><trkpt lat="42.73377" lon="-7.161316"><ele>1284</ele></trkpt><trkpt lat="42.734245" lon="-7.162348"><ele>1286</ele></trkpt><trkpt lat="42.734574" lon="-7.163487"><ele>1285</ele></trkpt><trkpt lat="42.734899" lon="-7.164628"><ele>1275</ele></trkpt><trkpt lat="42.735248" lon="-7.165756"><ele>1271</ele></trkpt><trkpt lat="42.735593" lon="-7.166886"><ele>1262</ele></trkpt><trkpt lat="42.736073" lon="-7.167919"><ele>1262</ele></trkpt><trkpt lat="42.736538" lon="-7.168966"><ele>1258</ele></trkpt><trkpt lat="42.736981" lon="-7.170029"><ele>1255</ele></trkpt><trkpt lat="42.737198" lon="-7.171179"><ele>1246</ele></trkpt><trkpt lat="42.736894" lon="-7.172281"><ele>1246</ele></trkpt><trkpt lat="42.737095" lon="-7.173467"><ele>1246</ele></trkpt><trkpt lat="42.737844" lon="-7.174071"><ele>1232</ele></trkpt><trkpt lat="42.738697" lon="-7.17429"><ele>1229</ele></trkpt><trkpt lat="42.739441" lon="-7.174959"><ele>1234</ele></trkpt><trkpt lat="42.74018" lon="-7.175628"><ele>1231</ele></trkpt><trkpt lat="42.740887" lon="-7.176382"><ele>1222</ele></trkpt><trkpt lat="42.741538" lon="-7.177226"><ele>1208</ele></trkpt><trkpt lat="42.742228" lon="-7.177972"><ele>1205</ele></trkpt><trkpt lat="42.743126" lon="-7.178016"><ele>1192</ele></trkpt><trkpt lat="42.743989" lon="-7.178189"><ele>1183</ele></trkpt><trkpt lat="42.744131" lon="-7.179191"><ele>1182</ele></trkpt><trkpt lat="42.743982" lon="-7.180397"><ele>1178</ele></trkpt><trkpt lat="42.743704" lon="-7.181555"><ele>1174</ele></trkpt><trkpt lat="42.743696" lon="-7.182738"><ele>1168</ele></trkpt><trkpt lat="42.744042" lon="-7.183828"><ele>1161</ele></trkpt><trkpt lat="42.74413" lon="-7.184863"><ele>1152</ele></trkpt><trkpt lat="42.743725" lon="-7.185939"><ele>1173</ele></trkpt><trkpt lat="42.743922" lon="-7.187103"><ele>1171</ele></trkpt><trkpt lat="42.744688" lon="-7.187733"><ele>1149</ele></trkpt><trkpt lat="42.744625" lon="-7.188877"><ele>1145</ele></trkpt><trkpt lat="42.743917" lon="-7.189598"><ele>1143</ele></trkpt><trkpt lat="42.743062" lon="-7.189978"><ele>1148</ele></trkpt><trkpt lat="42.742203" lon="-7.190341"><ele>1146</ele></trkpt><trkpt lat="42.74138" lon="-7.190834"><ele>1132</ele></trkpt><trkpt lat="42.740598" lon="-7.19143"><ele>1132</ele></trkpt><trkpt lat="42.74012" lon="-7.192412"><ele>1124</ele></trkpt><trkpt lat="42.74062" lon="-7.193385"><ele>1102</ele></trkpt><trkpt lat="42.740603" lon="-7.194605"><ele>1095</ele></trkpt><trkpt lat="42.740955" lon="-7.195636"><ele>1085</ele></trkpt><trkpt lat="42.741375" lon="-7.196718"><ele>1072</ele></trkpt><trkpt lat="42.74191" lon="-7.1977"><ele>1057</ele></trkpt><trkpt lat="42.742375" lon="-7.198746"><ele>1048</ele></trkpt><trkpt lat="42.742905" lon="-7.199735"><ele>1041</ele></trkpt><trkpt lat="42.74341" lon="-7.200746"><ele>1028</ele></trkpt><trkpt lat="42.743508" lon="-7.20193"><ele>1015</ele></trkpt><trkpt lat="42.74313" lon="-7.20304"><ele>1007</ele></trkpt><trkpt lat="42.742747" lon="-7.204132"><ele>989</ele></trkpt><trkpt lat="42.742799" lon="-7.204803"><ele>976</ele></trkpt><trkpt lat="42.743694" lon="-7.204727"><ele>968</ele></trkpt><trkpt lat="42.743746" lon="-7.205341"><ele>960</ele></trkpt><trkpt lat="42.743163" lon="-7.20623"><ele>945</ele></trkpt><trkpt lat="42.743834" lon="-7.206563"><ele>940</ele></trkpt><trkpt lat="42.744221" lon="-7.207667"><ele>922</ele></trkpt><trkpt lat="42.744596" lon="-7.208739"><ele>910</ele></trkpt><trkpt lat="42.744926" lon="-7.209847"><ele>900</ele></trkpt><trkpt lat="42.745148" lon="-7.211017"><ele>885</ele></trkpt><trkpt lat="42.745533" lon="-7.212096"><ele>873</ele></trkpt><trkpt lat="42.746152" lon="-7.212975"><ele>863</ele></trkpt><trkpt lat="42.746763" lon="-7.213864"><ele>860</ele></trkpt><trkpt lat="42.747208" lon="-7.214928"><ele>855</ele></trkpt><trkpt lat="42.747535" lon="-7.216066"><ele>849</ele></trkpt><trkpt lat="42.74738" lon="-7.217164"><ele>831</ele></trkpt><trkpt lat="42.74779" lon="-7.218172"><ele>819</ele></trkpt><trkpt lat="42.748532" lon="-7.218819"><ele>814</ele></trkpt><trkpt lat="42.749087" lon="-7.219665"><ele>806</ele></trkpt><trkpt lat="42.749937" lon="-7.220034"><ele>801</ele></trkpt><trkpt lat="42.75056" lon="-7.220871"><ele>792</ele></trkpt><trkpt lat="42.75088" lon="-7.221931"><ele>788</ele></trkpt><trkpt lat="42.750727" lon="-7.223131"><ele>780</ele></trkpt><trkpt lat="42.750922" lon="-7.224269"><ele>769</ele></trkpt><trkpt lat="42.751474" lon="-7.225229"><ele>758</ele></trkpt><trkpt lat="42.75226" lon="-7.225823"><ele>747</ele></trkpt><trkpt lat="42.753125" lon="-7.226136"><ele>743</ele></trkpt><trkpt lat="42.753875" lon="-7.22671"><ele>740</ele></trkpt><trkpt lat="42.754395" lon="-7.227701"><ele>722</ele></trkpt><trkpt lat="42.755061" lon="-7.228488"><ele>708</ele></trkpt><trkpt lat="42.755638" lon="-7.229394"><ele>694</ele></trkpt><trkpt lat="42.755843" lon="-7.230528"><ele>696</ele></trkpt><trkpt lat="42.755613" lon="-7.231681"><ele>696</ele></trkpt><trkpt lat="42.755851" lon="-7.232855"><ele>695</ele></trkpt><trkpt lat="42.756154" lon="-7.233979"><ele>698</ele></trkpt><trkpt lat="42.756085" lon="-7.235198"><ele>690</ele></trkpt><trkpt lat="42.756118" lon="-7.23642"><ele>682</ele></trkpt><trkpt lat="42.75608" lon="-7.237643"><ele>676</ele></trkpt><trkpt lat="42.756025" lon="-7.238865"><ele>671</ele></trkpt></trkseg></trk></gpx>