<?xml version="1.0" encoding="UTF-8"?>
<gpx version="1.1" creator="Mi Diario del Camino de Santiago" xmlns="http://www.topografix.com/GPX/1/1">
<metadata><name>Etapa 3: Zubiri - Pamplona</name><copyright author="OpenStreetMap contributors"><license>https://opendatacommons.org/licenses/odbl/1-0/</license></copyright></metadata>
<trk><name>Etapa 3: Zubiri - Pamplona</name><trkseg><trkpt lat="42.929838" lon="-1.502848"><ele>530</ele></trkpt><trkpt lat="42.929009" lon="-1.502559"><ele>536</ele></trkpt><trkpt lat="42.928168" lon="-1.502222"><ele>539</ele></trkpt><trkpt lat="42.927396" lon="-1.502818"><ele>537</ele></trkpt><trkpt lat="42.926874" lon="-1.503797"><ele>536</ele></trkpt><trkpt lat="42.926156" lon="-1.504437"><ele>529</ele></trkpt><trkpt lat="42.925304" lon="-1.504808"><ele>529</ele></trkpt><trkpt lat="42.924429" lon="-1.504603"><ele>530</ele></trkpt><trkpt lat="42.923794" lon="-1.50503"><ele>529</ele></trkpt><trkpt lat="42.923505" lon="-1.506193"><ele>526</ele></trkpt><trkpt lat="42.922801" lon="-1.506436"><ele>532</ele></trkpt><trkpt lat="42.921964" lon="-1.506883"><ele>534</ele></trkpt><trkpt lat="42.921126" lon="-1.50733"><ele>536</ele></trkpt><trkpt lat="42.920303" lon="-1.507814"><ele>541</ele></trkpt><trkpt lat="42.919911" lon="-1.508909"><ele>546</ele></trkpt><trkpt lat="42.919327" lon="-1.509768"><ele>550</ele></trkpt><trkpt lat="42.918523" lon="-1.510309"><ele>554</ele></trkpt><trkpt lat="42.917784" lon="-1.511007"><ele>556</ele></trkpt><trkpt lat="42.916971" lon="-1.511511"><ele>567</ele></trkpt><trkpt lat="42.916155" lon="-1.511991"><ele>569</ele></trkpt><trkpt lat="42.915533" lon="-1.512871"><ele>561</ele></trkpt><trkpt lat="42.914966" lon="-1.513799"><ele>546</ele></trkpt><trkpt lat="42.914866" lon="-1.514368"><ele>537</ele></trkpt><trkpt lat="42.914379" lon="-1.515226"><ele>525</ele></trkpt><trkpt lat="42.913696" lon="-1.515936"><ele>517</ele></trkpt><trkpt lat="42.913046" lon="-1.516651"><ele>519</ele></trkpt><trkpt lat="42.912174" lon="-1.516874"><ele>535</ele></trkpt><trkpt lat="42.911382" lon="-1.517442"><ele>540</ele></trkpt><trkpt lat="42.910682" lon="-1.517145"><ele>547</ele></trkpt><trkpt lat="42.910375" lon="-1.518187"><ele>538</ele></trkpt><trkpt lat="42.910235" lon="-1.5194"><ele>529</ele></trkpt><trkpt lat="42.909884" lon="-1.520529"><ele>531</ele></trkpt><trkpt lat="42.909477" lon="-1.521622"><ele>525</ele></trkpt><trkpt lat="42.909103" lon="-1.522729"><ele>520</ele></trkpt><trkpt lat="42.908803" lon="-1.523738"><ele>521</ele></trkpt><trkpt lat="42.908136" lon="-1.52456"><ele>535</ele></trkpt><trkpt lat="42.907477" lon="-1.525168"><ele>530</ele></trkpt><trkpt lat="42.906632" lon="-1.525273"><ele>525</ele></trkpt><trkpt lat="42.906608" lon="-1.526187"><ele>527</ele></trkpt><trkpt lat="42.90712" lon="-1.527184"><ele>521</ele></trkpt><trkpt lat="42.90757" lon="-1.528203"><ele>520</ele></trkpt><trkpt lat="42.907535" lon="-1.529409"><ele>523</ele></trkpt><trkpt lat="42.907137" lon="-1.530505"><ele>519</ele></trkpt><trkpt lat="42.906674" lon="-1.531557"><ele>515</ele></trkpt><trkpt lat="42.906116" lon="-1.532513"><ele>511</ele></trkpt><trkpt lat="42.905532" lon="-1.533347"><ele>513</ele></trkpt><trkpt lat="42.904768" lon="-1.533973"><ele>515</ele></trkpt><trkpt lat="42.904035" lon="-1.534678"><ele>513</ele></trkpt><trkpt lat="42.903317" lon="-1.535304"><ele>508</ele></trkpt><trkpt lat="42.903047" lon="-1.536189"><ele>511</ele></trkpt><trkpt lat="42.902529" lon="-1.537192"><ele>513</ele></trkpt><trkpt lat="42.902029" lon="-1.538208"><ele>506</ele></trkpt><trkpt lat="42.901443" lon="-1.539077"><ele>503</ele></trkpt><trkpt lat="42.901085" lon="-1.539584"><ele>502</ele></trkpt><trkpt lat="42.900601" lon="-1.540601"><ele>504</ele></trkpt><trkpt lat="42.8998" lon="-1.541136"><ele>511</ele></trkpt><trkpt lat="42.898964" lon="-1.541586"><ele>515</ele></trkpt><trkpt lat="42.898128" lon="-1.542018"><ele>516</ele></trkpt><trkpt lat="42.897247" lon="-1.541832"><ele>522</ele></trkpt><trkpt lat="42.896714" lon="-1.542596"><ele>528</ele></trkpt><trkpt lat="42.896702" lon="-1.543434"><ele>530</ele></trkpt><trkpt lat="42.896386" lon="-1.544492"><ele>527</ele></trkpt><trkpt lat="42.895934" lon="-1.54552"><ele>519</ele></trkpt><trkpt lat="42.895322" lon="-1.546418"><ele>516</ele></trkpt><trkpt lat="42.894915" lon="-1.547482"><ele>513</ele></trkpt><trkpt lat="42.895031" lon="-1.548689"><ele>509</ele></trkpt><trkpt lat="42.894746" lon="-1.549788"><ele>505</ele></trkpt><trkpt lat="42.894077" lon="-1.550351"><ele>509</ele></trkpt><trkpt lat="42.89354" lon="-1.551318"><ele>507</ele></trkpt><trkpt lat="42.892967" lon="-1.552248"><ele>510</ele></trkpt><trkpt lat="42.892195" lon="-1.552816"><ele>519</ele></trkpt><trkpt lat="42.891688" lon="-1.553788"><ele>517</ele></trkpt><trkpt lat="42.890997" lon="-1.554543"><ele>517</ele></trkpt><trkpt lat="42.89024" lon="-1.55516"><ele>516</ele></trkpt><trkpt lat="42.889683" lon="-1.556113"><ele>514</ele></trkpt><trkpt lat="42.889456" lon="-1.557109"><ele>503</ele></trkpt><trkpt lat="42.889541" lon="-1.558237"><ele>490</ele></trkpt><trkpt lat="42.888846" lon="-1.558875"><ele>488</ele></trkpt><trkpt lat="42.888033" lon="-1.559376"><ele>493</ele></trkpt><trkpt lat="42.887395" lon="-1.560229"><ele>496</ele></trkpt><trkpt lat="42.886901" lon="-1.561227"><ele>493</ele></trkpt><trkpt lat="42.88644" lon="-1.562247"><ele>491</ele></trkpt><trkpt lat="42.885616" lon="-1.562676"><ele>487</ele></trkpt><trkpt lat="42.884735" lon="-1.562586"><ele>482</ele></trkpt><trkpt lat="42.883885" lon="-1.562242"><ele>488</ele></trkpt><trkpt lat="42.88299" lon="-1.56232"><ele>485</ele></trkpt><trkpt lat="42.882122" lon="-1.562518"><ele>485</ele></trkpt><trkpt lat="42.881498" lon="-1.563308"><ele>482</ele></trkpt><trkpt lat="42.880808" lon="-1.564088"><ele>482</ele></trkpt><trkpt lat="42.879976" lon="-1.564463"><ele>480</ele></trkpt><trkpt lat="42.879173" lon="-1.565006"><ele>478</ele></trkpt><trkpt lat="42.878511" lon="-1.56562"><ele>474</ele></trkpt><trkpt lat="42.878125" lon="-1.566418"><ele>481</ele></trkpt><trkpt lat="42.877308" lon="-1.566932"><ele>479</ele></trkpt><trkpt lat="42.876494" lon="-1.567453"><ele>483</ele></trkpt><trkpt lat="42.875683" lon="-1.567984"><ele>492</ele></trkpt><trkpt lat="42.874872" lon="-1.568515"><ele>488</ele></trkpt><trkpt lat="42.874062" lon="-1.569046"><ele>473</ele></trkpt><trkpt lat="42.873251" lon="-1.569256"><ele>472</ele></trkpt><trkpt lat="42.872393" lon="-1.569407"><ele>476</ele></trkpt><trkpt lat="42.871506" lon="-1.569203"><ele>474</ele></trkpt><trkpt lat="42.870652" lon="-1.569256"><ele>471</ele></trkpt><trkpt lat="42.869788" lon="-1.569011"><ele>472</ele></trkpt><trkpt lat="42.868917" lon="-1.568906"><ele>477</ele></trkpt><trkpt lat="42.868043" lon="-1.568795"><ele>477</ele></trkpt><trkpt lat="42.867168" lon="-1.569029"><ele>479</ele></trkpt><trkpt lat="42.866324" lon="-1.569424"><ele>483</ele></trkpt><trkpt lat="42.865525" lon="-1.56994"><ele>478</ele></trkpt><trkpt lat="42.865082" lon="-1.57056"><ele>476</ele></trkpt><trkpt lat="42.864265" lon="-1.570983"><ele>474</ele></trkpt><trkpt lat="42.863389" lon="-1.571201"><ele>471</ele></trkpt><trkpt lat="42.862511" lon="-1.57122"><ele>468</ele></trkpt><trkpt lat="42.861724" lon="-1.570837"><ele>471</ele></trkpt><trkpt lat="42.861076" lon="-1.571612"><ele>473</ele></trkpt><trkpt lat="42.86035" lon="-1.572337"><ele>473</ele></trkpt><trkpt lat="42.859793" lon="-1.573279"><ele>467</ele></trkpt><trkpt lat="42.859973" lon="-1.574421"><ele>471</ele></trkpt><trkpt lat="42.8594" lon="-1.575212"><ele>470</ele></trkpt><trkpt lat="42.858765" lon="-1.57608"><ele>467</ele></trkpt><trkpt lat="42.858112" lon="-1.576922"><ele>468</ele></trkpt><trkpt lat="42.85743" lon="-1.577721"><ele>469</ele></trkpt><trkpt lat="42.856579" lon="-1.578027"><ele>463</ele></trkpt><trkpt lat="42.855741" lon="-1.578327"><ele>462</ele></trkpt><trkpt lat="42.854892" lon="-1.578679"><ele>464</ele></trkpt><trkpt lat="42.854043" lon="-1.579057"><ele>455</ele></trkpt><trkpt lat="42.853215" lon="-1.579531"><ele>458</ele></trkpt><trkpt lat="42.85267" lon="-1.580404"><ele>458</ele></trkpt><trkpt lat="42.852282" lon="-1.581504"><ele>456</ele></trkpt><trkpt lat="42.852121" lon="-1.582702"><ele>454</ele></trkpt><trkpt lat="42.85244" lon="-1.583762"><ele>463</ele></trkpt><trkpt lat="42.852363" lon="-1.584425"><ele>469</ele></trkpt><trkpt lat="42.851869" lon="-1.585424"><ele>483</ele></trkpt><trkpt lat="42.851158" lon="-1.586089"><ele>488</ele></trkpt><trkpt lat="42.850521" lon="-1.585673"><ele>473</ele></trkpt><trkpt lat="42.849647" lon="-1.58568"><ele>466</ele></trkpt><trkpt lat="42.848868" lon="-1.586285"><ele>470</ele></trkpt><trkpt lat="42.848092" lon="-1.58689"><ele>467</ele></trkpt><trkpt lat="42.847286" lon="-1.587409"><ele>464</ele></trkpt><trkpt lat="42.846482" lon="-1.587932"><ele>472</ele></trkpt><trkpt lat="42.845658" lon="-1.588421"><ele>475</ele></trkpt><trkpt lat="42.844839" lon="-1.588881"><ele>478</ele></trkpt><trkpt lat="42.844036" lon="-1.589344"><ele>475</ele></trkpt><trkpt lat="42.843389" lon="-1.589975"><ele>472</ele></trkpt><trkpt lat="42.84251" lon="-1.590162"><ele>472</ele></trkpt><trkpt lat="42.841734" lon="-1.590763"><ele>473</ele></trkpt><trkpt lat="42.841034" lon="-1.591477"><ele>474</ele></trkpt><trkpt lat="42.840453" lon="-1.592094"><ele>472</ele></trkpt><trkpt lat="42.839577" lon="-1.592068"><ele>475</ele></trkpt><trkpt lat="42.838849" lon="-1.591953"><ele>474</ele></trkpt><trkpt lat="42.838547" lon="-1.593105"><ele>489</ele></trkpt><trkpt lat="42.838351" lon="-1.594298"><ele>494</ele></trkpt><trkpt lat="42.838338" lon="-1.595521"><ele>497</ele></trkpt><trkpt lat="42.83834" lon="-1.596742"><ele>491</ele></trkpt><trkpt lat="42.838383" lon="-1.597963"><ele>478</ele></trkpt><trkpt lat="42.838233" lon="-1.599165"><ele>471</ele></trkpt><trkpt lat="42.837957" lon="-1.60033"><ele>466</ele></trkpt><trkpt lat="42.837516" lon="-1.601398"><ele>463</ele></trkpt><trkpt lat="42.837023" lon="-1.60242"><ele>458</ele></trkpt><trkpt lat="42.836385" lon="-1.603247"><ele>444</ele></trkpt><trkpt lat="42.836178" lon="-1.604227"><ele>433</ele></trkpt><trkpt lat="42.835391" lon="-1.604694"><ele>438</ele></trkpt><trkpt lat="42.834596" lon="-1.605267"><ele>442</ele></trkpt><trkpt lat="42.833868" lon="-1.605986"><ele>438</ele></trkpt><trkpt lat="42.833144" lon="-1.606714"><ele>434</ele></trkpt><trkpt lat="42.83238" lon="-1.607361"><ele>436</ele></trkpt><trkpt lat="42.831647" lon="-1.60807"><ele>436</ele></trkpt><trkpt lat="42.83093" lon="-1.60881"><ele>435</ele></trkpt><trkpt lat="42.830342" lon="-1.609711"><ele>434</ele></trkpt><trkpt lat="42.829831" lon="-1.610657"><ele>435</ele></trkpt><trkpt lat="42.829166" lon="-1.611409"><ele>432</ele></trkpt><trkpt lat="42.828549" lon="-1.612301"><ele>431</ele></trkpt><trkpt lat="42.827965" lon="-1.613159"><ele>432</ele></trkpt><trkpt lat="42.827351" lon="-1.614056"><ele>434</ele></trkpt><trkpt lat="42.826738" lon="-1.614952"><ele>434</ele></trkpt><trkpt lat="42.826125" lon="-1.615849"><ele>438</ele></trkpt><trkpt lat="42.825496" lon="-1.616726"><ele>439</ele></trkpt><trkpt lat="42.82482" lon="-1.617533"><ele>433</ele></trkpt><trkpt lat="42.824137" lon="-1.618332"><ele>433</ele></trkpt><trkpt lat="42.823447" lon="-1.619117"><ele>428</ele></trkpt><trkpt lat="42.823201" lon="-1.620137"><ele>424</ele></trkpt><trkpt lat="42.823154" lon="-1.621268"><ele>422</ele></trkpt><trkpt lat="42.823218" lon="-1.62202"><ele>420</ele></trkpt><trkpt lat="42.823108" lon="-1.623155"><ele>419</ele></trkpt><trkpt lat="42.822791" lon="-1.624295"><ele>419</ele></trkpt><trkpt lat="42.822393" lon="-1.625393"><ele>418</ele></trkpt><trkpt lat="42.822063" lon="-1.626533"><ele>419</ele></trkpt><trkpt lat="42.821786" lon="-1.627657"><ele>417</ele></trkpt><trkpt lat="42.821472" lon="-1.628806"><ele>419</ele></trkpt><trkpt lat="42.821205" lon="-1.629959"><ele>420</ele></trkpt><trkpt lat="42.821348" lon="-1.631168"><ele>420</ele></trkpt><trkpt lat="42.821417" lon="-1.63239"><ele>418</ele></trkpt><trkpt lat="42.821488" lon="-1.633613"><ele>420</ele></trkpt><trkpt lat="42.821398" lon="-1.634769"><ele>420</ele></trkpt><trkpt lat="42.821045" lon="-1.635895"><ele>419</ele></trkpt><trkpt lat="42.820785" lon="-1.637067"><ele>417</ele></trkpt><trkpt lat="42.821091" lon="-1.637824"><ele>414</ele></trkpt><trkpt lat="42.820781" lon="-1.63894"><ele>419</ele></trkpt><trkpt lat="42.821124" lon="-1.639905"><ele>429</ele></trkpt><trkpt lat="42.821884" lon="-1.640441"><ele>426</ele></trkpt><trkpt lat="42.821611" lon="-1.641591"><ele>430</ele></trkpt><trkpt lat="42.821139" lon="-1.642493"><ele>438</ele></trkpt><trkpt lat="42.820714" lon="-1.643281"><ele>446</ele></trkpt><trkpt lat="42.819829" lon="-1.643103"><ele>456</ele></trkpt><trkpt lat="42.818958" lon="-1.642835"><ele>456</ele></trkpt></trkseg></trk></gpx>