<?xml version="1.0" encoding="UTF-8"?>
<gpx version="1.1" creator="Mi Diario del Camino de Santiago" xmlns="http://www.topografix.com/GPX/1/1">
<metadata><name>Etapa 33: O Pedrouzo - Santiago de Compostela</name><copyright author="OpenStreetMap contributors"><license>https://opendatacommons.org/licenses/odbl/1-0/</license></copyright></metadata>
<trk><name>Etapa 33: O Pedrouzo - Santiago de Compostela</name><trkseg><trkpt lat="42.90719" lon="-8.364045"><ele>290</ele></trkpt><trkpt lat="42.907841" lon="-8.364889"><ele>293</ele></trkpt><trkpt lat="42.908254" lon="-8.365788"><ele>301</ele></trkpt><trkpt lat="42.907888" lon="-8.366907"><ele>298</ele></trkpt><trkpt lat="42.907438" lon="-8.367969"><ele>299</ele></trkpt><trkpt lat="42.907104" lon="-8.369098"><ele>295</ele></trkpt><trkpt lat="42.90665" lon="-8.370151"><ele>287</ele></trkpt><trkpt lat="42.90647" lon="-8.370991"><ele>276</ele></trkpt><trkpt lat="42.905807" lon="-8.371787"><ele>265</ele></trkpt><trkpt lat="42.906077" lon="-8.372756"><ele>268</ele></trkpt><trkpt lat="42.905769" lon="-8.373902"><ele>278</ele></trkpt><trkpt lat="42.905214" lon="-8.374835"><ele>285</ele></trkpt><trkpt lat="42.904494" lon="-8.375569"><ele>283</ele></trkpt><trkpt lat="42.903988" lon="-8.376554"><ele>283</ele></trkpt><trkpt lat="42.903743" lon="-8.377733"><ele>291</ele></trkpt><trkpt lat="42.903617" lon="-8.378948"><ele>296</ele></trkpt><trkpt lat="42.903648" lon="-8.380168"><ele>295</ele></trkpt><trkpt lat="42.903741" lon="-8.381381"><ele>288</ele></trkpt><trkpt lat="42.903755" lon="-8.382394"><ele>283</ele></trkpt><trkpt lat="42.904077" lon="-8.383541"><ele>290</ele></trkpt><trkpt lat="42.904408" lon="-8.384682"><ele>299</ele></trkpt><trkpt lat="42.90481" lon="-8.385777"><ele>302</ele></trkpt><trkpt lat="42.90431" lon="-8.3866"><ele>284</ele></trkpt><trkpt lat="42.903456" lon="-8.386981"><ele>272</ele></trkpt><trkpt lat="42.90344" lon="-8.38793"><ele>268</ele></trkpt><trkpt lat="42.903786" lon="-8.389061"><ele>264</ele></trkpt><trkpt lat="42.904372" lon="-8.389965"><ele>259</ele></trkpt><trkpt lat="42.904553" lon="-8.391122"><ele>251</ele></trkpt><trkpt lat="42.9053" lon="-8.391593"><ele>250</ele></trkpt><trkpt lat="42.9057" lon="-8.392692"><ele>247</ele></trkpt><trkpt lat="42.905862" lon="-8.39378"><ele>251</ele></trkpt><trkpt lat="42.905798" lon="-8.394943"><ele>258</ele></trkpt><trkpt lat="42.90563" lon="-8.396148"><ele>264</ele></trkpt><trkpt lat="42.905506" lon="-8.397364"><ele>273</ele></trkpt><trkpt lat="42.905918" lon="-8.398302"><ele>286</ele></trkpt><trkpt lat="42.906341" lon="-8.399384"><ele>294</ele></trkpt><trkpt lat="42.906217" lon="-8.400566"><ele>298</ele></trkpt><trkpt lat="42.906053" lon="-8.401751"><ele>302</ele></trkpt><trkpt lat="42.905876" lon="-8.402782"><ele>309</ele></trkpt><trkpt lat="42.905754" lon="-8.403977"><ele>315</ele></trkpt><trkpt lat="42.905894" lon="-8.405156"><ele>319</ele></trkpt><trkpt lat="42.905875" lon="-8.406381"><ele>329</ele></trkpt><trkpt lat="42.905886" lon="-8.407592"><ele>335</ele></trkpt><trkpt lat="42.905772" lon="-8.408764"><ele>342</ele></trkpt><trkpt lat="42.906162" lon="-8.409837"><ele>347</ele></trkpt><trkpt lat="42.906739" lon="-8.410679"><ele>353</ele></trkpt><trkpt lat="42.907448" lon="-8.411351"><ele>359</ele></trkpt><trkpt lat="42.907739" lon="-8.412508"><ele>368</ele></trkpt><trkpt lat="42.908041" lon="-8.413665"><ele>373</ele></trkpt><trkpt lat="42.908353" lon="-8.414816"><ele>372</ele></trkpt><trkpt lat="42.909245" lon="-8.414724"><ele>371</ele></trkpt><trkpt lat="42.91013" lon="-8.414522"><ele>373</ele></trkpt><trkpt lat="42.911026" lon="-8.414426"><ele>375</ele></trkpt><trkpt lat="42.911914" lon="-8.414237"><ele>370</ele></trkpt><trkpt lat="42.912809" lon="-8.41413"><ele>366</ele></trkpt><trkpt lat="42.913629" lon="-8.414154"><ele>363</ele></trkpt><trkpt lat="42.91362" lon="-8.415379"><ele>360</ele></trkpt><trkpt lat="42.913639" lon="-8.416607"><ele>355</ele></trkpt><trkpt lat="42.913656" lon="-8.417835"><ele>350</ele></trkpt><trkpt lat="42.913644" lon="-8.419043"><ele>345</ele></trkpt><trkpt lat="42.913483" lon="-8.420193"><ele>343</ele></trkpt><trkpt lat="42.913459" lon="-8.421415"><ele>334</ele></trkpt><trkpt lat="42.913298" lon="-8.4226"><ele>330</ele></trkpt><trkpt lat="42.912677" lon="-8.423477"><ele>329</ele></trkpt><trkpt lat="42.911894" lon="-8.424057"><ele>335</ele></trkpt><trkpt lat="42.911051" lon="-8.424297"><ele>339</ele></trkpt><trkpt lat="42.910215" lon="-8.424142"><ele>339</ele></trkpt><trkpt lat="42.909349" lon="-8.42382"><ele>339</ele></trkpt><trkpt lat="42.908738" lon="-8.424054"><ele>336</ele></trkpt><trkpt lat="42.908929" lon="-8.425247"><ele>333</ele></trkpt><trkpt lat="42.908685" lon="-8.426232"><ele>334</ele></trkpt><trkpt lat="42.908099" lon="-8.427069"><ele>344</ele></trkpt><trkpt lat="42.907346" lon="-8.427733"><ele>350</ele></trkpt><trkpt lat="42.906814" lon="-8.428697"><ele>348</ele></trkpt><trkpt lat="42.906332" lon="-8.429728"><ele>345</ele></trkpt><trkpt lat="42.90564" lon="-8.430481"><ele>340</ele></trkpt><trkpt lat="42.905367" lon="-8.431619"><ele>336</ele></trkpt><trkpt lat="42.904881" lon="-8.432638"><ele>335</ele></trkpt><trkpt lat="42.904388" lon="-8.433646"><ele>333</ele></trkpt><trkpt lat="42.904161" lon="-8.434822"><ele>328</ele></trkpt><trkpt lat="42.903728" lon="-8.435773"><ele>325</ele></trkpt><trkpt lat="42.903114" lon="-8.436669"><ele>321</ele></trkpt><trkpt lat="42.902499" lon="-8.437566"><ele>318</ele></trkpt><trkpt lat="42.901975" lon="-8.438541"><ele>316</ele></trkpt><trkpt lat="42.901877" lon="-8.439761"><ele>313</ele></trkpt><trkpt lat="42.901728" lon="-8.440971"><ele>310</ele></trkpt><trkpt lat="42.901581" lon="-8.442182"><ele>306</ele></trkpt><trkpt lat="42.901175" lon="-8.443254"><ele>301</ele></trkpt><trkpt lat="42.900826" lon="-8.444384"><ele>300</ele></trkpt><trkpt lat="42.900626" lon="-8.445559"><ele>299</ele></trkpt><trkpt lat="42.90034" lon="-8.446719"><ele>297</ele></trkpt><trkpt lat="42.899644" lon="-8.446545"><ele>298</ele></trkpt><trkpt lat="42.899407" lon="-8.445439"><ele>300</ele></trkpt><trkpt lat="42.899031" lon="-8.444695"><ele>299</ele></trkpt><trkpt lat="42.898332" lon="-8.444242"><ele>297</ele></trkpt><trkpt lat="42.898036" lon="-8.445218"><ele>295</ele></trkpt><trkpt lat="42.897533" lon="-8.446224"><ele>302</ele></trkpt><trkpt lat="42.897207" lon="-8.447363"><ele>315</ele></trkpt><trkpt lat="42.896382" lon="-8.447583"><ele>329</ele></trkpt><trkpt lat="42.895545" lon="-8.447818"><ele>327</ele></trkpt><trkpt lat="42.894831" lon="-8.447294"><ele>327</ele></trkpt><trkpt lat="42.894134" lon="-8.447601"><ele>332</ele></trkpt><trkpt lat="42.893358" lon="-8.448178"><ele>343</ele></trkpt><trkpt lat="42.892682" lon="-8.448986"><ele>347</ele></trkpt><trkpt lat="42.892066" lon="-8.449849"><ele>351</ele></trkpt><trkpt lat="42.891506" lon="-8.450142"><ele>353</ele></trkpt><trkpt lat="42.891431" lon="-8.451339"><ele>352</ele></trkpt><trkpt lat="42.891353" lon="-8.452559"><ele>359</ele></trkpt><trkpt lat="42.890938" lon="-8.453577"><ele>364</ele></trkpt><trkpt lat="42.890849" lon="-8.454795"><ele>374</ele></trkpt><trkpt lat="42.890337" lon="-8.455795"><ele>377</ele></trkpt><trkpt lat="42.890118" lon="-8.456969"><ele>382</ele></trkpt><trkpt lat="42.890298" lon="-8.458155"><ele>380</ele></trkpt><trkpt lat="42.890511" lon="-8.459336"><ele>383</ele></trkpt><trkpt lat="42.890545" lon="-8.460545"><ele>385</ele></trkpt><trkpt lat="42.890373" lon="-8.461745"><ele>386</ele></trkpt><trkpt lat="42.890392" lon="-8.462973"><ele>387</ele></trkpt><trkpt lat="42.890511" lon="-8.464186"><ele>387</ele></trkpt><trkpt lat="42.890689" lon="-8.46539"><ele>388</ele></trkpt><trkpt lat="42.890856" lon="-8.466596"><ele>390</ele></trkpt><trkpt lat="42.891021" lon="-8.467802"><ele>389</ele></trkpt><trkpt lat="42.891199" lon="-8.469006"><ele>392</ele></trkpt><trkpt lat="42.89138" lon="-8.470208"><ele>388</ele></trkpt><trkpt lat="42.891546" lon="-8.471414"><ele>386</ele></trkpt><trkpt lat="42.891692" lon="-8.472625"><ele>382</ele></trkpt><trkpt lat="42.891837" lon="-8.473837"><ele>380</ele></trkpt><trkpt lat="42.891982" lon="-8.475048"><ele>380</ele></trkpt><trkpt lat="42.89217" lon="-8.476243"><ele>379</ele></trkpt><trkpt lat="42.891936" lon="-8.476528"><ele>379</ele></trkpt><trkpt lat="42.891052" lon="-8.476299"><ele>380</ele></trkpt><trkpt lat="42.890512" lon="-8.476703"><ele>380</ele></trkpt><trkpt lat="42.890547" lon="-8.47793"><ele>375</ele></trkpt><trkpt lat="42.890581" lon="-8.479156"><ele>373</ele></trkpt><trkpt lat="42.890616" lon="-8.480383"><ele>377</ele></trkpt><trkpt lat="42.890651" lon="-8.48161"><ele>382</ele></trkpt><trkpt lat="42.890686" lon="-8.482836"><ele>380</ele></trkpt><trkpt lat="42.890721" lon="-8.484063"><ele>377</ele></trkpt><trkpt lat="42.890749" lon="-8.48529"><ele>374</ele></trkpt><trkpt lat="42.890614" lon="-8.48641"><ele>368</ele></trkpt><trkpt lat="42.890969" lon="-8.487404"><ele>362</ele></trkpt><trkpt lat="42.891476" lon="-8.488088"><ele>360</ele></trkpt><trkpt lat="42.89126" lon="-8.489273"><ele>360</ele></trkpt><trkpt lat="42.890955" lon="-8.490422"><ele>364</ele></trkpt><trkpt lat="42.890669" lon="-8.491577"><ele>365</ele></trkpt><trkpt lat="42.890219" lon="-8.49264"><ele>367</ele></trkpt><trkpt lat="42.889829" lon="-8.493738"><ele>368</ele></trkpt><trkpt lat="42.889452" lon="-8.494804"><ele>365</ele></trkpt><trkpt lat="42.889055" lon="-8.495905"><ele>363</ele></trkpt><trkpt lat="42.888614" lon="-8.496951"><ele>357</ele></trkpt><trkpt lat="42.88825" lon="-8.498072"><ele>348</ele></trkpt><trkpt lat="42.887997" lon="-8.499239"><ele>336</ele></trkpt><trkpt lat="42.887706" lon="-8.500351"><ele>325</ele></trkpt><trkpt lat="42.887867" lon="-8.501557"><ele>312</ele></trkpt><trkpt lat="42.8876" lon="-8.502708"><ele>305</ele></trkpt><trkpt lat="42.887422" lon="-8.503781"><ele>298</ele></trkpt><trkpt lat="42.886916" lon="-8.504563"><ele>294</ele></trkpt><trkpt lat="42.886744" lon="-8.505481"><ele>283</ele></trkpt><trkpt lat="42.886599" lon="-8.506692"><ele>274</ele></trkpt><trkpt lat="42.886532" lon="-8.507916"><ele>271</ele></trkpt><trkpt lat="42.886493" lon="-8.509138"><ele>273</ele></trkpt><trkpt lat="42.886319" lon="-8.510305"><ele>274</ele></trkpt><trkpt lat="42.88633" lon="-8.511327"><ele>276</ele></trkpt><trkpt lat="42.886353" lon="-8.512554"><ele>278</ele></trkpt><trkpt lat="42.886319" lon="-8.513668"><ele>280</ele></trkpt><trkpt lat="42.886279" lon="-8.514894"><ele>283</ele></trkpt><trkpt lat="42.88628" lon="-8.516116"><ele>287</ele></trkpt><trkpt lat="42.886334" lon="-8.517266"><ele>289</ele></trkpt><trkpt lat="42.886539" lon="-8.518446"><ele>291</ele></trkpt><trkpt lat="42.886656" lon="-8.519663"><ele>292</ele></trkpt><trkpt lat="42.886844" lon="-8.520852"><ele>290</ele></trkpt><trkpt lat="42.887065" lon="-8.522025"><ele>288</ele></trkpt><trkpt lat="42.887212" lon="-8.52321"><ele>289</ele></trkpt><trkpt lat="42.88723" lon="-8.524277"><ele>285</ele></trkpt><trkpt lat="42.88712" lon="-8.525483"><ele>284</ele></trkpt><trkpt lat="42.886737" lon="-8.526591"><ele>284</ele></trkpt><trkpt lat="42.886222" lon="-8.527563"><ele>282</ele></trkpt><trkpt lat="42.886087" lon="-8.528751"><ele>282</ele></trkpt><trkpt lat="42.88594" lon="-8.529959"><ele>278</ele></trkpt><trkpt lat="42.885428" lon="-8.530946"><ele>275</ele></trkpt><trkpt lat="42.885035" lon="-8.531968"><ele>273</ele></trkpt><trkpt lat="42.885121" lon="-8.533074"><ele>279</ele></trkpt><trkpt lat="42.884378" lon="-8.533761"><ele>280</ele></trkpt><trkpt lat="42.883625" lon="-8.534164"><ele>280</ele></trkpt><trkpt lat="42.882735" lon="-8.534341"><ele>279</ele></trkpt><trkpt lat="42.881939" lon="-8.534878"><ele>281</ele></trkpt><trkpt lat="42.881645" lon="-8.536011"><ele>281</ele></trkpt><trkpt lat="42.881405" lon="-8.537194"><ele>277</ele></trkpt><trkpt lat="42.881333" lon="-8.538383"><ele>269</ele></trkpt><trkpt lat="42.881781" lon="-8.539447"><ele>269</ele></trkpt><trkpt lat="42.881852" lon="-8.540523"><ele>271</ele></trkpt><trkpt lat="42.881577" lon="-8.541656"><ele>279</ele></trkpt><trkpt lat="42.881177" lon="-8.54261"><ele>279</ele></trkpt><trkpt lat="42.881234" lon="-8.54383"><ele>273</ele></trkpt><trkpt lat="42.880975" lon="-8.545002"><ele>264</ele></trkpt><trkpt lat="42.880494" lon="-8.545749"><ele>255</ele></trkpt></trkseg></trk></gpx>