<?xml version="1.0" encoding="UTF-8"?>
<gpx version="1.1" creator="Mi Diario del Camino de Santiago" xmlns="http://www.topografix.com/GPX/1/1">
<metadata><name>Etapa 17: Carrión de los Condes - Terradillos de los Templarios</name><copyright author="OpenStreetMap contributors"><license>https://opendatacommons.org/licenses/odbl/1-0/</license></copyright></metadata>
<trk><name>Etapa 17: Carrión de los Condes - Terradillos de los Templarios</name><trkseg><trkpt lat="42.33718" lon="-4.601406"><ele>834</ele></trkpt><trkpt lat="42.337377" lon="-4.602591"><ele>835</ele></trkpt><trkpt lat="42.337774" lon="-4.603646"><ele>837</ele></trkpt><trkpt lat="42.33867" lon="-4.603705"><ele>840</ele></trkpt><trkpt lat="42.339545" lon="-4.603962"><ele>840</ele></trkpt><trkpt lat="42.33969" lon="-4.604539"><ele>840</ele></trkpt><trkpt lat="42.339383" lon="-4.605674"><ele>838</ele></trkpt><trkpt lat="42.3397" lon="-4.606732"><ele>823</ele></trkpt><trkpt lat="42.339635" lon="-4.607945"><ele>822</ele></trkpt><trkpt lat="42.339937" lon="-4.608972"><ele>825</ele></trkpt><trkpt lat="42.340486" lon="-4.609935"><ele>828</ele></trkpt><trkpt lat="42.340728" lon="-4.61106"><ele>828</ele></trkpt><trkpt lat="42.340719" lon="-4.612276"><ele>824</ele></trkpt><trkpt lat="42.340501" lon="-4.613372"><ele>825</ele></trkpt><trkpt lat="42.340872" lon="-4.614382"><ele>825</ele></trkpt><trkpt lat="42.340968" lon="-4.615591"><ele>824</ele></trkpt><trkpt lat="42.34103" lon="-4.616805"><ele>823</ele></trkpt><trkpt lat="42.341084" lon="-4.61802"><ele>823</ele></trkpt><trkpt lat="42.341148" lon="-4.619233"><ele>822</ele></trkpt><trkpt lat="42.34127" lon="-4.620439"><ele>824</ele></trkpt><trkpt lat="42.34119" lon="-4.621604"><ele>824</ele></trkpt><trkpt lat="42.341442" lon="-4.622556"><ele>824</ele></trkpt><trkpt lat="42.341493" lon="-4.62376"><ele>824</ele></trkpt><trkpt lat="42.341594" lon="-4.624968"><ele>826</ele></trkpt><trkpt lat="42.341696" lon="-4.626177"><ele>828</ele></trkpt><trkpt lat="42.341828" lon="-4.62738"><ele>826</ele></trkpt><trkpt lat="42.341956" lon="-4.628585"><ele>827</ele></trkpt><trkpt lat="42.342071" lon="-4.629788"><ele>825</ele></trkpt><trkpt lat="42.342173" lon="-4.630997"><ele>825</ele></trkpt><trkpt lat="42.342263" lon="-4.632207"><ele>826</ele></trkpt><trkpt lat="42.342367" lon="-4.633415"><ele>827</ele></trkpt><trkpt lat="42.342475" lon="-4.634623"><ele>828</ele></trkpt><trkpt lat="42.342605" lon="-4.635826"><ele>828</ele></trkpt><trkpt lat="42.342704" lon="-4.637035"><ele>827</ele></trkpt><trkpt lat="42.342804" lon="-4.638244"><ele>828</ele></trkpt><trkpt lat="42.342897" lon="-4.639454"><ele>829</ele></trkpt><trkpt lat="42.342996" lon="-4.640663"><ele>828</ele></trkpt><trkpt lat="42.343084" lon="-4.641874"><ele>827</ele></trkpt><trkpt lat="42.343184" lon="-4.643083"><ele>828</ele></trkpt><trkpt lat="42.343279" lon="-4.644293"><ele>828</ele></trkpt><trkpt lat="42.343363" lon="-4.645504"><ele>827</ele></trkpt><trkpt lat="42.343449" lon="-4.646715"><ele>825</ele></trkpt><trkpt lat="42.343531" lon="-4.647927"><ele>826</ele></trkpt><trkpt lat="42.343612" lon="-4.649139"><ele>827</ele></trkpt><trkpt lat="42.343698" lon="-4.65035"><ele>826</ele></trkpt><trkpt lat="42.343805" lon="-4.651558"><ele>827</ele></trkpt><trkpt lat="42.343958" lon="-4.652757"><ele>829</ele></trkpt><trkpt lat="42.344201" lon="-4.653922"><ele>828</ele></trkpt><trkpt lat="42.344498" lon="-4.65507"><ele>829</ele></trkpt><trkpt lat="42.34479" lon="-4.656221"><ele>828</ele></trkpt><trkpt lat="42.345021" lon="-4.657393"><ele>830</ele></trkpt><trkpt lat="42.344877" lon="-4.658581"><ele>832</ele></trkpt><trkpt lat="42.344455" lon="-4.659637"><ele>831</ele></trkpt><trkpt lat="42.344201" lon="-4.660729"><ele>831</ele></trkpt><trkpt lat="42.34418" lon="-4.661945"><ele>832</ele></trkpt><trkpt lat="42.344155" lon="-4.663162"><ele>831</ele></trkpt><trkpt lat="42.344135" lon="-4.664378"><ele>832</ele></trkpt><trkpt lat="42.344119" lon="-4.665594"><ele>832</ele></trkpt><trkpt lat="42.344118" lon="-4.666799"><ele>833</ele></trkpt><trkpt lat="42.344029" lon="-4.66801"><ele>833</ele></trkpt><trkpt lat="42.343946" lon="-4.669221"><ele>832</ele></trkpt><trkpt lat="42.343863" lon="-4.670433"><ele>832</ele></trkpt><trkpt lat="42.343764" lon="-4.671642"><ele>832</ele></trkpt><trkpt lat="42.343647" lon="-4.672849"><ele>832</ele></trkpt><trkpt lat="42.343531" lon="-4.674055"><ele>832</ele></trkpt><trkpt lat="42.343414" lon="-4.675261"><ele>834</ele></trkpt><trkpt lat="42.343298" lon="-4.676468"><ele>835</ele></trkpt><trkpt lat="42.343174" lon="-4.677673"><ele>834</ele></trkpt><trkpt lat="42.343062" lon="-4.67888"><ele>837</ele></trkpt><trkpt lat="42.342946" lon="-4.680087"><ele>832</ele></trkpt><trkpt lat="42.342826" lon="-4.681293"><ele>834</ele></trkpt><trkpt lat="42.342691" lon="-4.682496"><ele>834</ele></trkpt><trkpt lat="42.342554" lon="-4.683698"><ele>833</ele></trkpt><trkpt lat="42.342416" lon="-4.684901"><ele>834</ele></trkpt><trkpt lat="42.342293" lon="-4.686106"><ele>835</ele></trkpt><trkpt lat="42.342157" lon="-4.687308"><ele>836</ele></trkpt><trkpt lat="42.342027" lon="-4.688512"><ele>837</ele></trkpt><trkpt lat="42.341905" lon="-4.689718"><ele>836</ele></trkpt><trkpt lat="42.341775" lon="-4.690922"><ele>837</ele></trkpt><trkpt lat="42.341631" lon="-4.692123"><ele>836</ele></trkpt><trkpt lat="42.341487" lon="-4.693318"><ele>835</ele></trkpt><trkpt lat="42.341345" lon="-4.69452"><ele>836</ele></trkpt><trkpt lat="42.3412" lon="-4.69572"><ele>837</ele></trkpt><trkpt lat="42.341051" lon="-4.69692"><ele>837</ele></trkpt><trkpt lat="42.340891" lon="-4.698117"><ele>838</ele></trkpt><trkpt lat="42.340732" lon="-4.699315"><ele>839</ele></trkpt><trkpt lat="42.340581" lon="-4.700514"><ele>840</ele></trkpt><trkpt lat="42.340428" lon="-4.701713"><ele>840</ele></trkpt><trkpt lat="42.340275" lon="-4.702912"><ele>839</ele></trkpt><trkpt lat="42.340122" lon="-4.704111"><ele>840</ele></trkpt><trkpt lat="42.33996" lon="-4.705308"><ele>840</ele></trkpt><trkpt lat="42.339796" lon="-4.706504"><ele>840</ele></trkpt><trkpt lat="42.339631" lon="-4.7077"><ele>840</ele></trkpt><trkpt lat="42.33946" lon="-4.708895"><ele>840</ele></trkpt><trkpt lat="42.339289" lon="-4.710089"><ele>842</ele></trkpt><trkpt lat="42.339118" lon="-4.711284"><ele>841</ele></trkpt><trkpt lat="42.338947" lon="-4.712478"><ele>843</ele></trkpt><trkpt lat="42.338776" lon="-4.713672"><ele>843</ele></trkpt><trkpt lat="42.338605" lon="-4.714867"><ele>844</ele></trkpt><trkpt lat="42.338434" lon="-4.716061"><ele>844</ele></trkpt><trkpt lat="42.338262" lon="-4.717256"><ele>844</ele></trkpt><trkpt lat="42.338089" lon="-4.718449"><ele>844</ele></trkpt><trkpt lat="42.337928" lon="-4.719646"><ele>844</ele></trkpt><trkpt lat="42.337763" lon="-4.720842"><ele>844</ele></trkpt><trkpt lat="42.337598" lon="-4.722038"><ele>844</ele></trkpt><trkpt lat="42.337425" lon="-4.723232"><ele>845</ele></trkpt><trkpt lat="42.337251" lon="-4.724425"><ele>846</ele></trkpt><trkpt lat="42.337075" lon="-4.725618"><ele>846</ele></trkpt><trkpt lat="42.336897" lon="-4.726811"><ele>845</ele></trkpt><trkpt lat="42.336719" lon="-4.728003"><ele>845</ele></trkpt><trkpt lat="42.336545" lon="-4.729197"><ele>846</ele></trkpt><trkpt lat="42.33637" lon="-4.73039"><ele>848</ele></trkpt><trkpt lat="42.33619" lon="-4.731582"><ele>849</ele></trkpt><trkpt lat="42.33601" lon="-4.732774"><ele>850</ele></trkpt><trkpt lat="42.335824" lon="-4.733965"><ele>849</ele></trkpt><trkpt lat="42.335639" lon="-4.735155"><ele>849</ele></trkpt><trkpt lat="42.335447" lon="-4.736344"><ele>849</ele></trkpt><trkpt lat="42.335256" lon="-4.737533"><ele>849</ele></trkpt><trkpt lat="42.335065" lon="-4.738721"><ele>851</ele></trkpt><trkpt lat="42.334873" lon="-4.73991"><ele>852</ele></trkpt><trkpt lat="42.33468" lon="-4.741098"><ele>852</ele></trkpt><trkpt lat="42.334488" lon="-4.742287"><ele>854</ele></trkpt><trkpt lat="42.334291" lon="-4.743474"><ele>851</ele></trkpt><trkpt lat="42.334095" lon="-4.744661"><ele>850</ele></trkpt><trkpt lat="42.333908" lon="-4.745851"><ele>852</ele></trkpt><trkpt lat="42.333718" lon="-4.74704"><ele>851</ele></trkpt><trkpt lat="42.333538" lon="-4.748232"><ele>853</ele></trkpt><trkpt lat="42.333365" lon="-4.749426"><ele>851</ele></trkpt><trkpt lat="42.333197" lon="-4.750621"><ele>850</ele></trkpt><trkpt lat="42.333045" lon="-4.75182"><ele>852</ele></trkpt><trkpt lat="42.33287" lon="-4.753013"><ele>851</ele></trkpt><trkpt lat="42.332704" lon="-4.754208"><ele>852</ele></trkpt><trkpt lat="42.33254" lon="-4.755404"><ele>853</ele></trkpt><trkpt lat="42.332374" lon="-4.756599"><ele>854</ele></trkpt><trkpt lat="42.332208" lon="-4.757795"><ele>855</ele></trkpt><trkpt lat="42.33203" lon="-4.758986"><ele>858</ele></trkpt><trkpt lat="42.33179" lon="-4.760159"><ele>861</ele></trkpt><trkpt lat="42.331555" lon="-4.761333"><ele>862</ele></trkpt><trkpt lat="42.331327" lon="-4.76251"><ele>862</ele></trkpt><trkpt lat="42.331098" lon="-4.763686"><ele>863</ele></trkpt><trkpt lat="42.330869" lon="-4.764863"><ele>864</ele></trkpt><trkpt lat="42.330641" lon="-4.766039"><ele>862</ele></trkpt><trkpt lat="42.330412" lon="-4.767216"><ele>864</ele></trkpt><trkpt lat="42.330177" lon="-4.76839"><ele>863</ele></trkpt><trkpt lat="42.329941" lon="-4.769564"><ele>865</ele></trkpt><trkpt lat="42.329703" lon="-4.770737"><ele>867</ele></trkpt><trkpt lat="42.329565" lon="-4.771938"><ele>868</ele></trkpt><trkpt lat="42.329461" lon="-4.773146"><ele>869</ele></trkpt><trkpt lat="42.329358" lon="-4.774354"><ele>870</ele></trkpt><trkpt lat="42.329265" lon="-4.775564"><ele>870</ele></trkpt><trkpt lat="42.329173" lon="-4.776774"><ele>872</ele></trkpt><trkpt lat="42.329103" lon="-4.777987"><ele>871</ele></trkpt><trkpt lat="42.329069" lon="-4.779202"><ele>872</ele></trkpt><trkpt lat="42.329047" lon="-4.780418"><ele>871</ele></trkpt><trkpt lat="42.329022" lon="-4.781633"><ele>871</ele></trkpt><trkpt lat="42.329012" lon="-4.78285"><ele>870</ele></trkpt><trkpt lat="42.328998" lon="-4.784066"><ele>871</ele></trkpt><trkpt lat="42.328985" lon="-4.785282"><ele>872</ele></trkpt><trkpt lat="42.328973" lon="-4.786499"><ele>871</ele></trkpt><trkpt lat="42.328986" lon="-4.787715"><ele>872</ele></trkpt><trkpt lat="42.329011" lon="-4.788931"><ele>871</ele></trkpt><trkpt lat="42.329036" lon="-4.790147"><ele>870</ele></trkpt><trkpt lat="42.32906" lon="-4.791363"><ele>871</ele></trkpt><trkpt lat="42.329061" lon="-4.792579"><ele>870</ele></trkpt><trkpt lat="42.329026" lon="-4.793794"><ele>872</ele></trkpt><trkpt lat="42.328986" lon="-4.79501"><ele>870</ele></trkpt><trkpt lat="42.328946" lon="-4.796225"><ele>871</ele></trkpt><trkpt lat="42.328905" lon="-4.79744"><ele>871</ele></trkpt><trkpt lat="42.328865" lon="-4.798655"><ele>872</ele></trkpt><trkpt lat="42.328895" lon="-4.799869"><ele>865</ele></trkpt><trkpt lat="42.328999" lon="-4.801077"><ele>862</ele></trkpt><trkpt lat="42.329102" lon="-4.802279"><ele>862</ele></trkpt><trkpt lat="42.32915" lon="-4.803493"><ele>860</ele></trkpt><trkpt lat="42.329236" lon="-4.804703"><ele>856</ele></trkpt><trkpt lat="42.329274" lon="-4.805918"><ele>854</ele></trkpt><trkpt lat="42.329327" lon="-4.807133"><ele>854</ele></trkpt><trkpt lat="42.329378" lon="-4.808346"><ele>852</ele></trkpt><trkpt lat="42.329422" lon="-4.809558"><ele>852</ele></trkpt><trkpt lat="42.329426" lon="-4.810703"><ele>853</ele></trkpt><trkpt lat="42.329492" lon="-4.811916"><ele>857</ele></trkpt><trkpt lat="42.329805" lon="-4.81301"><ele>855</ele></trkpt><trkpt lat="42.330377" lon="-4.813949"><ele>858</ele></trkpt><trkpt lat="42.330949" lon="-4.814888"><ele>858</ele></trkpt><trkpt lat="42.331515" lon="-4.815834"><ele>856</ele></trkpt><trkpt lat="42.332074" lon="-4.816786"><ele>854</ele></trkpt><trkpt lat="42.332628" lon="-4.817744"><ele>855</ele></trkpt><trkpt lat="42.33317" lon="-4.818715"><ele>856</ele></trkpt><trkpt lat="42.333692" lon="-4.819706"><ele>857</ele></trkpt><trkpt lat="42.334211" lon="-4.820699"><ele>857</ele></trkpt><trkpt lat="42.334726" lon="-4.821697"><ele>858</ele></trkpt><trkpt lat="42.335243" lon="-4.822692"><ele>859</ele></trkpt><trkpt lat="42.335761" lon="-4.823687"><ele>858</ele></trkpt><trkpt lat="42.336279" lon="-4.824681"><ele>857</ele></trkpt><trkpt lat="42.336791" lon="-4.825681"><ele>858</ele></trkpt><trkpt lat="42.337295" lon="-4.826689"><ele>859</ele></trkpt><trkpt lat="42.337787" lon="-4.827707"><ele>860</ele></trkpt><trkpt lat="42.338274" lon="-4.82873"><ele>860</ele></trkpt><trkpt lat="42.338745" lon="-4.829766"><ele>861</ele></trkpt><trkpt lat="42.339185" lon="-4.830827"><ele>863</ele></trkpt><trkpt lat="42.339626" lon="-4.831888"><ele>862</ele></trkpt><trkpt lat="42.340066" lon="-4.832949"><ele>862</ele></trkpt><trkpt lat="42.340442" lon="-4.834022"><ele>862</ele></trkpt><trkpt lat="42.340693" lon="-4.835116"><ele>863</ele></trkpt><trkpt lat="42.341104" lon="-4.836198"><ele>862</ele></trkpt><trkpt lat="42.341516" lon="-4.837279"><ele>864</ele></trkpt><trkpt lat="42.341954" lon="-4.838342"><ele>867</ele></trkpt><trkpt lat="42.342417" lon="-4.839385"><ele>871</ele></trkpt><trkpt lat="42.342782" lon="-4.840495"><ele>875</ele></trkpt><trkpt lat="42.343037" lon="-4.841661"><ele>880</ele></trkpt><trkpt lat="42.343222" lon="-4.842852"><ele>882</ele></trkpt><trkpt lat="42.343471" lon="-4.84402"><ele>884</ele></trkpt><trkpt lat="42.343817" lon="-4.845143"><ele>889</ele></trkpt><trkpt lat="42.344207" lon="-4.846239"><ele>893</ele></trkpt><trkpt lat="42.344565" lon="-4.847355"><ele>897</ele></trkpt><trkpt lat="42.344945" lon="-4.848457"><ele>899</ele></trkpt><trkpt lat="42.345351" lon="-4.849543"><ele>899</ele></trkpt><trkpt lat="42.345756" lon="-4.850629"><ele>900</ele></trkpt><trkpt lat="42.34616" lon="-4.851716"><ele>901</ele></trkpt><trkpt lat="42.34656" lon="-4.852806"><ele>901</ele></trkpt><trkpt lat="42.346959" lon="-4.853897"><ele>901</ele></trkpt><trkpt lat="42.34736" lon="-4.854986"><ele>901</ele></trkpt><trkpt lat="42.347776" lon="-4.856065"><ele>901</ele></trkpt><trkpt lat="42.348081" lon="-4.857206"><ele>902</ele></trkpt><trkpt lat="42.348116" lon="-4.858419"><ele>899</ele></trkpt><trkpt lat="42.347696" lon="-4.859457"><ele>895</ele></trkpt><trkpt lat="42.347978" lon="-4.860504"><ele>889</ele></trkpt><trkpt lat="42.348445" lon="-4.861543"><ele>884</ele></trkpt><trkpt lat="42.349034" lon="-4.862433"><ele>879</ele></trkpt><trkpt lat="42.349783" lon="-4.863105"><ele>877</ele></trkpt><trkpt lat="42.35053" lon="-4.863781"><ele>873</ele></trkpt><trkpt lat="42.351278" lon="-4.864444"><ele>872</ele></trkpt><trkpt lat="42.352131" lon="-4.864646"><ele>872</ele></trkpt><trkpt lat="42.352992" lon="-4.864985"><ele>875</ele></trkpt><trkpt lat="42.353589" lon="-4.865576"><ele>873</ele></trkpt><trkpt lat="42.353142" lon="-4.866528"><ele>870</ele></trkpt><trkpt lat="42.352483" lon="-4.867296"><ele>869</ele></trkpt><trkpt lat="42.352062" lon="-4.868372"><ele>871</ele></trkpt><trkpt lat="42.351731" lon="-4.869408"><ele>874</ele></trkpt><trkpt lat="42.352628" lon="-4.869508"><ele>874</ele></trkpt><trkpt lat="42.353524" lon="-4.869601"><ele>874</ele></trkpt><trkpt lat="42.354422" lon="-4.869678"><ele>873</ele></trkpt><trkpt lat="42.355319" lon="-4.869767"><ele>873</ele></trkpt><trkpt lat="42.356216" lon="-4.869856"><ele>873</ele></trkpt><trkpt lat="42.356382" lon="-4.870973"><ele>875</ele></trkpt><trkpt lat="42.356573" lon="-4.872161"><ele>877</ele></trkpt><trkpt lat="42.356787" lon="-4.873343"><ele>879</ele></trkpt><trkpt lat="42.357002" lon="-4.874525"><ele>876</ele></trkpt><trkpt lat="42.357231" lon="-4.875701"><ele>873</ele></trkpt><trkpt lat="42.357501" lon="-4.876862"><ele>876</ele></trkpt><trkpt lat="42.357771" lon="-4.878023"><ele>877</ele></trkpt><trkpt lat="42.358045" lon="-4.879182"><ele>880</ele></trkpt><trkpt lat="42.358327" lon="-4.880338"><ele>881</ele></trkpt><trkpt lat="42.35861" lon="-4.881493"><ele>881</ele></trkpt><trkpt lat="42.358892" lon="-4.882648"><ele>882</ele></trkpt><trkpt lat="42.359174" lon="-4.883804"><ele>883</ele></trkpt><trkpt lat="42.359443" lon="-4.884965"><ele>882</ele></trkpt><trkpt lat="42.359663" lon="-4.886145"><ele>884</ele></trkpt><trkpt lat="42.359884" lon="-4.887325"><ele>885</ele></trkpt><trkpt lat="42.360092" lon="-4.888509"><ele>884</ele></trkpt><trkpt lat="42.360301" lon="-4.889693"><ele>882</ele></trkpt><trkpt lat="42.360887" lon="-4.890465"><ele>879</ele></trkpt><trkpt lat="42.361679" lon="-4.891031"><ele>876</ele></trkpt><trkpt lat="42.362356" lon="-4.890629"><ele>878</ele></trkpt><trkpt lat="42.362989" lon="-4.890328"><ele>882</ele></trkpt></trkseg></trk></gpx>