<?xml version="1.0" encoding="UTF-8"?>
<gpx version="1.1" creator="Mi Diario del Camino de Santiago" xmlns="http://www.topografix.com/GPX/1/1">
<metadata><name>Etapa F4M: Muxía (santuario) - Fisterra</name><copyright author="OpenStreetMap contributors"><license>https://opendatacommons.org/licenses/odbl/1-0/</license></copyright></metadata>
<trk><name>Etapa F4M: Muxía (santuario) - Fisterra</name><trkseg><trkpt lat="43.111916" lon="-9.219286"><ele>9</ele></trkpt><trkpt lat="43.111075" lon="-9.219372"><ele>20</ele></trkpt><trkpt lat="43.110177" lon="-9.219396"><ele>26</ele></trkpt><trkpt lat="43.109279" lon="-9.219426"><ele>27</ele></trkpt><trkpt lat="43.108386" lon="-9.219481"><ele>26</ele></trkpt><trkpt lat="43.107656" lon="-9.218828"><ele>26</ele></trkpt><trkpt lat="43.106779" lon="-9.218653"><ele>23</ele></trkpt><trkpt lat="43.105915" lon="-9.218623"><ele>16</ele></trkpt><trkpt lat="43.105029" lon="-9.218751"><ele>11</ele></trkpt><trkpt lat="43.104173" lon="-9.218768"><ele>7</ele></trkpt><trkpt lat="43.103281" lon="-9.218654"><ele>6</ele></trkpt><trkpt lat="43.102397" lon="-9.218467"><ele>9</ele></trkpt><trkpt lat="43.101701" lon="-9.219155"><ele>12</ele></trkpt><trkpt lat="43.100993" lon="-9.219912"><ele>9</ele></trkpt><trkpt lat="43.100114" lon="-9.22015"><ele>13</ele></trkpt><trkpt lat="43.099221" lon="-9.220299"><ele>19</ele></trkpt><trkpt lat="43.098339" lon="-9.220516"><ele>19</ele></trkpt><trkpt lat="43.097476" lon="-9.220857"><ele>15</ele></trkpt><trkpt lat="43.096594" lon="-9.220948"><ele>13</ele></trkpt><trkpt lat="43.09573" lon="-9.220606"><ele>16</ele></trkpt><trkpt lat="43.09485" lon="-9.220385"><ele>16</ele></trkpt><trkpt lat="43.093953" lon="-9.220446"><ele>15</ele></trkpt><trkpt lat="43.093055" lon="-9.220472"><ele>17</ele></trkpt><trkpt lat="43.092163" lon="-9.220323"><ele>15</ele></trkpt><trkpt lat="43.091307" lon="-9.219946"><ele>15</ele></trkpt><trkpt lat="43.090423" lon="-9.219775"><ele>19</ele></trkpt><trkpt lat="43.089529" lon="-9.219906"><ele>15</ele></trkpt><trkpt lat="43.088645" lon="-9.219808"><ele>16</ele></trkpt><trkpt lat="43.087896" lon="-9.219174"><ele>18</ele></trkpt><trkpt lat="43.087143" lon="-9.218506"><ele>22</ele></trkpt><trkpt lat="43.086451" lon="-9.217725"><ele>25</ele></trkpt><trkpt lat="43.08578" lon="-9.216905"><ele>35</ele></trkpt><trkpt lat="43.085067" lon="-9.216155"><ele>38</ele></trkpt><trkpt lat="43.084344" lon="-9.215423"><ele>41</ele></trkpt><trkpt lat="43.083638" lon="-9.214661"><ele>42</ele></trkpt><trkpt lat="43.082865" lon="-9.214157"><ele>48</ele></trkpt><trkpt lat="43.082375" lon="-9.214616"><ele>56</ele></trkpt><trkpt lat="43.081665" lon="-9.21387"><ele>69</ele></trkpt><trkpt lat="43.08081" lon="-9.213512"><ele>83</ele></trkpt><trkpt lat="43.079991" lon="-9.213863"><ele>102</ele></trkpt><trkpt lat="43.079184" lon="-9.213798"><ele>105</ele></trkpt><trkpt lat="43.078555" lon="-9.213494"><ele>101</ele></trkpt><trkpt lat="43.077781" lon="-9.214086"><ele>104</ele></trkpt><trkpt lat="43.077284" lon="-9.215112"><ele>115</ele></trkpt><trkpt lat="43.076796" lon="-9.216145"><ele>125</ele></trkpt><trkpt lat="43.07631" lon="-9.217182"><ele>136</ele></trkpt><trkpt lat="43.075929" lon="-9.218254"><ele>144</ele></trkpt><trkpt lat="43.075969" lon="-9.219047"><ele>152</ele></trkpt><trkpt lat="43.075209" lon="-9.219702"><ele>161</ele></trkpt><trkpt lat="43.074592" lon="-9.220567"><ele>172</ele></trkpt><trkpt lat="43.073926" lon="-9.221366"><ele>185</ele></trkpt><trkpt lat="43.073151" lon="-9.221965"><ele>188</ele></trkpt><trkpt lat="43.072434" lon="-9.222709"><ele>199</ele></trkpt><trkpt lat="43.071704" lon="-9.223427"><ele>213</ele></trkpt><trkpt lat="43.071058" lon="-9.224243"><ele>216</ele></trkpt><trkpt lat="43.07076" lon="-9.225403"><ele>228</ele></trkpt><trkpt lat="43.070477" lon="-9.226569"><ele>236</ele></trkpt><trkpt lat="43.069909" lon="-9.227419"><ele>238</ele></trkpt><trkpt lat="43.069193" lon="-9.228066"><ele>248</ele></trkpt><trkpt lat="43.068387" lon="-9.228228"><ele>250</ele></trkpt><trkpt lat="43.067512" lon="-9.227949"><ele>253</ele></trkpt><trkpt lat="43.066823" lon="-9.227173"><ele>255</ele></trkpt><trkpt lat="43.06615" lon="-9.22636"><ele>258</ele></trkpt><trkpt lat="43.065364" lon="-9.225788"><ele>263</ele></trkpt><trkpt lat="43.064497" lon="-9.225516"><ele>264</ele></trkpt><trkpt lat="43.063608" lon="-9.225628"><ele>266</ele></trkpt><trkpt lat="43.06272" lon="-9.225815"><ele>268</ele></trkpt><trkpt lat="43.061846" lon="-9.226074"><ele>264</ele></trkpt><trkpt lat="43.060972" lon="-9.22635"><ele>254</ele></trkpt><trkpt lat="43.060086" lon="-9.226562"><ele>246</ele></trkpt><trkpt lat="43.059267" lon="-9.226314"><ele>244</ele></trkpt><trkpt lat="43.058589" lon="-9.225508"><ele>241</ele></trkpt><trkpt lat="43.057862" lon="-9.224846"><ele>242</ele></trkpt><trkpt lat="43.056963" lon="-9.224821"><ele>224</ele></trkpt><trkpt lat="43.056377" lon="-9.225318"><ele>219</ele></trkpt><trkpt lat="43.056007" lon="-9.226422"><ele>209</ele></trkpt><trkpt lat="43.055518" lon="-9.227455"><ele>202</ele></trkpt><trkpt lat="43.055068" lon="-9.22852"><ele>198</ele></trkpt><trkpt lat="43.054441" lon="-9.227789"><ele>200</ele></trkpt><trkpt lat="43.053567" lon="-9.227979"><ele>197</ele></trkpt><trkpt lat="43.052853" lon="-9.228729"><ele>189</ele></trkpt><trkpt lat="43.052186" lon="-9.22955"><ele>188</ele></trkpt><trkpt lat="43.051387" lon="-9.22996"><ele>193</ele></trkpt><trkpt lat="43.050494" lon="-9.230086"><ele>186</ele></trkpt><trkpt lat="43.049604" lon="-9.230262"><ele>181</ele></trkpt><trkpt lat="43.048761" lon="-9.230669"><ele>173</ele></trkpt><trkpt lat="43.04793" lon="-9.23114"><ele>165</ele></trkpt><trkpt lat="43.047099" lon="-9.231611"><ele>165</ele></trkpt><trkpt lat="43.046297" lon="-9.232146"><ele>159</ele></trkpt><trkpt lat="43.045463" lon="-9.232538"><ele>156</ele></trkpt><trkpt lat="43.044774" lon="-9.233321"><ele>151</ele></trkpt><trkpt lat="43.043987" lon="-9.233905"><ele>151</ele></trkpt><trkpt lat="43.043159" lon="-9.234371"><ele>151</ele></trkpt><trkpt lat="43.042298" lon="-9.234725"><ele>149</ele></trkpt><trkpt lat="43.041415" lon="-9.234889"><ele>147</ele></trkpt><trkpt lat="43.040554" lon="-9.234563"><ele>143</ele></trkpt><trkpt lat="43.039685" lon="-9.234266"><ele>140</ele></trkpt><trkpt lat="43.038876" lon="-9.233738"><ele>146</ele></trkpt><trkpt lat="43.037994" lon="-9.233622"><ele>147</ele></trkpt><trkpt lat="43.037125" lon="-9.233881"><ele>147</ele></trkpt><trkpt lat="43.036242" lon="-9.233704"><ele>147</ele></trkpt><trkpt lat="43.035375" lon="-9.233383"><ele>138</ele></trkpt><trkpt lat="43.034563" lon="-9.233523"><ele>125</ele></trkpt><trkpt lat="43.033807" lon="-9.234081"><ele>115</ele></trkpt><trkpt lat="43.032953" lon="-9.234465"><ele>113</ele></trkpt><trkpt lat="43.03213" lon="-9.234941"><ele>112</ele></trkpt><trkpt lat="43.031429" lon="-9.234646"><ele>118</ele></trkpt><trkpt lat="43.030548" lon="-9.234771"><ele>123</ele></trkpt><trkpt lat="43.029872" lon="-9.235379"><ele>129</ele></trkpt><trkpt lat="43.029246" lon="-9.236236"><ele>131</ele></trkpt><trkpt lat="43.028397" lon="-9.236606"><ele>130</ele></trkpt><trkpt lat="43.027502" lon="-9.236535"><ele>133</ele></trkpt><trkpt lat="43.026603" lon="-9.236495"><ele>133</ele></trkpt><trkpt lat="43.025704" lon="-9.236465"><ele>130</ele></trkpt><trkpt lat="43.024805" lon="-9.23645"><ele>123</ele></trkpt><trkpt lat="43.02391" lon="-9.236336"><ele>116</ele></trkpt><trkpt lat="43.023021" lon="-9.236162"><ele>110</ele></trkpt><trkpt lat="43.022216" lon="-9.235705"><ele>109</ele></trkpt><trkpt lat="43.021355" lon="-9.235887"><ele>104</ele></trkpt><trkpt lat="43.020518" lon="-9.236314"><ele>103</ele></trkpt><trkpt lat="43.019648" lon="-9.236584"><ele>101</ele></trkpt><trkpt lat="43.018903" lon="-9.236797"><ele>99</ele></trkpt><trkpt lat="43.01807" lon="-9.236451"><ele>100</ele></trkpt><trkpt lat="43.017204" lon="-9.236608"><ele>95</ele></trkpt><trkpt lat="43.016359" lon="-9.236212"><ele>93</ele></trkpt><trkpt lat="43.015522" lon="-9.235843"><ele>97</ele></trkpt><trkpt lat="43.01466" lon="-9.235617"><ele>91</ele></trkpt><trkpt lat="43.013949" lon="-9.234888"><ele>88</ele></trkpt><trkpt lat="43.013195" lon="-9.234291"><ele>81</ele></trkpt><trkpt lat="43.012441" lon="-9.233706"><ele>68</ele></trkpt><trkpt lat="43.011871" lon="-9.233696"><ele>65</ele></trkpt><trkpt lat="43.011335" lon="-9.234683"><ele>65</ele></trkpt><trkpt lat="43.010796" lon="-9.235668"><ele>71</ele></trkpt><trkpt lat="43.010295" lon="-9.236685"><ele>81</ele></trkpt><trkpt lat="43.010153" lon="-9.23789"><ele>100</ele></trkpt><trkpt lat="43.009361" lon="-9.238359"><ele>88</ele></trkpt><trkpt lat="43.008474" lon="-9.238564"><ele>84</ele></trkpt><trkpt lat="43.007671" lon="-9.239094"><ele>81</ele></trkpt><trkpt lat="43.006914" lon="-9.239757"><ele>84</ele></trkpt><trkpt lat="43.006158" lon="-9.240423"><ele>73</ele></trkpt><trkpt lat="43.005549" lon="-9.241226"><ele>57</ele></trkpt><trkpt lat="43.005054" lon="-9.242161"><ele>42</ele></trkpt><trkpt lat="43.004319" lon="-9.24264"><ele>33</ele></trkpt><trkpt lat="43.003438" lon="-9.242413"><ele>31</ele></trkpt><trkpt lat="43.002609" lon="-9.242057"><ele>26</ele></trkpt><trkpt lat="43.002065" lon="-9.241191"><ele>25</ele></trkpt><trkpt lat="43.001687" lon="-9.242188"><ele>27</ele></trkpt><trkpt lat="43.000928" lon="-9.242614"><ele>38</ele></trkpt><trkpt lat="43.000198" lon="-9.243306"><ele>42</ele></trkpt><trkpt lat="42.999624" lon="-9.24414"><ele>29</ele></trkpt><trkpt lat="42.998789" lon="-9.243956"><ele>26</ele></trkpt><trkpt lat="42.997971" lon="-9.244395"><ele>23</ele></trkpt><trkpt lat="42.997551" lon="-9.245234"><ele>14</ele></trkpt><trkpt lat="42.997442" lon="-9.246423"><ele>6</ele></trkpt><trkpt lat="42.996885" lon="-9.246575"><ele>5</ele></trkpt><trkpt lat="42.996216" lon="-9.245753"><ele>8</ele></trkpt><trkpt lat="42.995606" lon="-9.245819"><ele>9</ele></trkpt><trkpt lat="42.994963" lon="-9.245862"><ele>13</ele></trkpt><trkpt lat="42.994316" lon="-9.245014"><ele>13</ele></trkpt><trkpt lat="42.99344" lon="-9.244856"><ele>13</ele></trkpt><trkpt lat="42.99279" lon="-9.244444"><ele>13</ele></trkpt><trkpt lat="42.992163" lon="-9.245204"><ele>19</ele></trkpt><trkpt lat="42.991358" lon="-9.245598"><ele>28</ele></trkpt><trkpt lat="42.990469" lon="-9.245774"><ele>29</ele></trkpt><trkpt lat="42.989609" lon="-9.246114"><ele>32</ele></trkpt><trkpt lat="42.988738" lon="-9.245951"><ele>29</ele></trkpt><trkpt lat="42.987857" lon="-9.245771"><ele>32</ele></trkpt><trkpt lat="42.987303" lon="-9.246519"><ele>41</ele></trkpt><trkpt lat="42.986974" lon="-9.247499"><ele>49</ele></trkpt><trkpt lat="42.986616" lon="-9.248348"><ele>63</ele></trkpt><trkpt lat="42.986817" lon="-9.249375"><ele>77</ele></trkpt><trkpt lat="42.987187" lon="-9.249645"><ele>78</ele></trkpt><trkpt lat="42.986988" lon="-9.250843"><ele>88</ele></trkpt><trkpt lat="42.986492" lon="-9.251838"><ele>102</ele></trkpt><trkpt lat="42.985721" lon="-9.252437"><ele>106</ele></trkpt><trkpt lat="42.985046" lon="-9.25318"><ele>109</ele></trkpt><trkpt lat="42.984354" lon="-9.253646"><ele>112</ele></trkpt><trkpt lat="42.983642" lon="-9.254041"><ele>114</ele></trkpt><trkpt lat="42.982753" lon="-9.25388"><ele>115</ele></trkpt><trkpt lat="42.981878" lon="-9.253596"><ele>116</ele></trkpt><trkpt lat="42.980988" lon="-9.253432"><ele>110</ele></trkpt><trkpt lat="42.980284" lon="-9.252739"><ele>115</ele></trkpt><trkpt lat="42.979395" lon="-9.252816"><ele>112</ele></trkpt><trkpt lat="42.978512" lon="-9.253052"><ele>104</ele></trkpt><trkpt lat="42.977622" lon="-9.253167"><ele>95</ele></trkpt><trkpt lat="42.976768" lon="-9.252789"><ele>94</ele></trkpt><trkpt lat="42.975911" lon="-9.252414"><ele>90</ele></trkpt><trkpt lat="42.975061" lon="-9.252016"><ele>88</ele></trkpt><trkpt lat="42.97421" lon="-9.251619"><ele>90</ele></trkpt><trkpt lat="42.973361" lon="-9.251212"><ele>86</ele></trkpt><trkpt lat="42.972496" lon="-9.251163"><ele>82</ele></trkpt><trkpt lat="42.972337" lon="-9.252109"><ele>72</ele></trkpt><trkpt lat="42.972462" lon="-9.253327"><ele>66</ele></trkpt><trkpt lat="42.971739" lon="-9.253735"><ele>55</ele></trkpt><trkpt lat="42.97086" lon="-9.253995"><ele>48</ele></trkpt><trkpt lat="42.969981" lon="-9.254251"><ele>50</ele></trkpt><trkpt lat="42.9691" lon="-9.254503"><ele>50</ele></trkpt><trkpt lat="42.96822" lon="-9.254755"><ele>46</ele></trkpt><trkpt lat="42.96734" lon="-9.255007"><ele>41</ele></trkpt><trkpt lat="42.96663" lon="-9.255415"><ele>42</ele></trkpt><trkpt lat="42.966553" lon="-9.256553"><ele>36</ele></trkpt><trkpt lat="42.965698" lon="-9.256783"><ele>31</ele></trkpt><trkpt lat="42.964811" lon="-9.256988"><ele>29</ele></trkpt><trkpt lat="42.963924" lon="-9.257186"><ele>33</ele></trkpt><trkpt lat="42.963036" lon="-9.257383"><ele>42</ele></trkpt><trkpt lat="42.962149" lon="-9.257579"><ele>53</ele></trkpt><trkpt lat="42.961299" lon="-9.257278"><ele>65</ele></trkpt><trkpt lat="42.960596" lon="-9.256787"><ele>80</ele></trkpt><trkpt lat="42.960198" lon="-9.257883"><ele>83</ele></trkpt><trkpt lat="42.959804" lon="-9.258915"><ele>91</ele></trkpt><trkpt lat="42.959714" lon="-9.260138"><ele>88</ele></trkpt><trkpt lat="42.959645" lon="-9.261361"><ele>78</ele></trkpt><trkpt lat="42.959416" lon="-9.262541"><ele>83</ele></trkpt><trkpt lat="42.958812" lon="-9.263417"><ele>95</ele></trkpt><trkpt lat="42.957971" lon="-9.263802"><ele>93</ele></trkpt><trkpt lat="42.957074" lon="-9.263889"><ele>90</ele></trkpt><trkpt lat="42.956745" lon="-9.263029"><ele>89</ele></trkpt><trkpt lat="42.956292" lon="-9.262146"><ele>89</ele></trkpt><trkpt lat="42.955923" lon="-9.261137"><ele>92</ele></trkpt><trkpt lat="42.955153" lon="-9.260575"><ele>99</ele></trkpt><trkpt lat="42.954269" lon="-9.260759"><ele>100</ele></trkpt><trkpt lat="42.953374" lon="-9.260855"><ele>109</ele></trkpt><trkpt lat="42.952588" lon="-9.261396"><ele>105</ele></trkpt><trkpt lat="42.951693" lon="-9.261388"><ele>101</ele></trkpt><trkpt lat="42.951129" lon="-9.260506"><ele>116</ele></trkpt><trkpt lat="42.950759" lon="-9.259462"><ele>131</ele></trkpt><trkpt lat="42.94994" lon="-9.259877"><ele>123</ele></trkpt><trkpt lat="42.949206" lon="-9.260575"><ele>124</ele></trkpt><trkpt lat="42.948475" lon="-9.261279"><ele>125</ele></trkpt><trkpt lat="42.947999" lon="-9.262306"><ele>123</ele></trkpt><trkpt lat="42.9476" lon="-9.2634"><ele>134</ele></trkpt><trkpt lat="42.94689" lon="-9.264091"><ele>139</ele></trkpt><trkpt lat="42.946031" lon="-9.264441"><ele>138</ele></trkpt><trkpt lat="42.945435" lon="-9.265338"><ele>127</ele></trkpt><trkpt lat="42.944559" lon="-9.265553"><ele>118</ele></trkpt><trkpt lat="42.94366" lon="-9.265521"><ele>108</ele></trkpt><trkpt lat="42.942832" lon="-9.26598"><ele>99</ele></trkpt><trkpt lat="42.941943" lon="-9.266112"><ele>89</ele></trkpt><trkpt lat="42.941157" lon="-9.266703"><ele>77</ele></trkpt><trkpt lat="42.940331" lon="-9.26701"><ele>65</ele></trkpt><trkpt lat="42.93967" lon="-9.267528"><ele>51</ele></trkpt><trkpt lat="42.939114" lon="-9.268291"><ele>45</ele></trkpt><trkpt lat="42.938271" lon="-9.268562"><ele>40</ele></trkpt><trkpt lat="42.937391" lon="-9.268566"><ele>37</ele></trkpt><trkpt lat="42.936628" lon="-9.269207"><ele>34</ele></trkpt><trkpt lat="42.935779" lon="-9.269072"><ele>31</ele></trkpt><trkpt lat="42.934899" lon="-9.26897"><ele>29</ele></trkpt><trkpt lat="42.934011" lon="-9.268911"><ele>27</ele></trkpt><trkpt lat="42.93317" lon="-9.269141"><ele>30</ele></trkpt><trkpt lat="42.932304" lon="-9.268812"><ele>34</ele></trkpt><trkpt lat="42.93159" lon="-9.268104"><ele>34</ele></trkpt><trkpt lat="42.930931" lon="-9.267268"><ele>27</ele></trkpt><trkpt lat="42.930271" lon="-9.266433"><ele>25</ele></trkpt><trkpt lat="42.929612" lon="-9.265598"><ele>23</ele></trkpt><trkpt lat="42.92896" lon="-9.264752"><ele>19</ele></trkpt><trkpt lat="42.928295" lon="-9.263925"><ele>16</ele></trkpt><trkpt lat="42.927612" lon="-9.263215"><ele>11</ele></trkpt><trkpt lat="42.926728" lon="-9.263403"><ele>11</ele></trkpt><trkpt lat="42.926369" lon="-9.264152"><ele>15</ele></trkpt><trkpt lat="42.9258" lon="-9.264818"><ele>19</ele></trkpt><trkpt lat="42.925008" lon="-9.265274"><ele>17</ele></trkpt><trkpt lat="42.925056" lon="-9.266494"><ele>30</ele></trkpt><trkpt lat="42.92479" lon="-9.267651"><ele>35</ele></trkpt><trkpt lat="42.924184" lon="-9.268522"><ele>37</ele></trkpt><trkpt lat="42.923691" lon="-9.269528"><ele>45</ele></trkpt><trkpt lat="42.923085" lon="-9.270413"><ele>53</ele></trkpt><trkpt lat="42.922484" lon="-9.271303"><ele>59</ele></trkpt><trkpt lat="42.921599" lon="-9.271203"><ele>54</ele></trkpt><trkpt lat="42.920762" lon="-9.270801"><ele>51</ele></trkpt><trkpt lat="42.919984" lon="-9.27024"><ele>44</ele></trkpt><trkpt lat="42.919133" lon="-9.269887"><ele>41</ele></trkpt><trkpt lat="42.918243" lon="-9.269984"><ele>42</ele></trkpt><trkpt lat="42.917349" lon="-9.270034"><ele>44</ele></trkpt><trkpt lat="42.916578" lon="-9.269486"><ele>32</ele></trkpt><trkpt lat="42.915935" lon="-9.268627"><ele>27</ele></trkpt><trkpt lat="42.915298" lon="-9.26776"><ele>21</ele></trkpt><trkpt lat="42.914487" lon="-9.267532"><ele>21</ele></trkpt><trkpt lat="42.913736" lon="-9.267055"><ele>21</ele></trkpt><trkpt lat="42.913506" lon="-9.265868"><ele>21</ele></trkpt><trkpt lat="42.913233" lon="-9.264701"><ele>18</ele></trkpt><trkpt lat="42.912508" lon="-9.264158"><ele>21</ele></trkpt><trkpt lat="42.911651" lon="-9.26379"><ele>20</ele></trkpt><trkpt lat="42.910793" lon="-9.263453"><ele>22</ele></trkpt><trkpt lat="42.910002" lon="-9.262875"><ele>24</ele></trkpt><trkpt lat="42.90916" lon="-9.262462"><ele>19</ele></trkpt><trkpt lat="42.908341" lon="-9.262935"><ele>21</ele></trkpt><trkpt lat="42.907584" lon="-9.263021"><ele>16</ele></trkpt><trkpt lat="42.906729" lon="-9.262899"><ele>14</ele></trkpt><trkpt lat="42.905851" lon="-9.262819"><ele>18</ele></trkpt></trkseg></trk></gpx>