<?xml version="1.0" encoding="UTF-8"?>
<gpx version="1.1" creator="Mi Diario del Camino de Santiago" xmlns="http://www.topografix.com/GPX/1/1">
<metadata><name>Etapa 30: Portomarín - Palas de Rei</name><copyright author="OpenStreetMap contributors"><license>https://opendatacommons.org/licenses/odbl/1-0/</license></copyright></metadata>
<trk><name>Etapa 30: Portomarín - Palas de Rei</name><trkseg><trkpt lat="42.806484" lon="-7.617044"><ele>383</ele></trkpt><trkpt lat="42.806209" lon="-7.618154"><ele>370</ele></trkpt><trkpt lat="42.806482" lon="-7.619284"><ele>364</ele></trkpt><trkpt lat="42.806462" lon="-7.6205"><ele>359</ele></trkpt><trkpt lat="42.80631" lon="-7.62036"><ele>347</ele></trkpt><trkpt lat="42.806061" lon="-7.61922"><ele>351</ele></trkpt><trkpt lat="42.80547" lon="-7.61967"><ele>320</ele></trkpt><trkpt lat="42.805378" lon="-7.620804"><ele>336</ele></trkpt><trkpt lat="42.805223" lon="-7.621977"><ele>348</ele></trkpt><trkpt lat="42.804873" lon="-7.623103"><ele>370</ele></trkpt><trkpt lat="42.804675" lon="-7.624264"><ele>384</ele></trkpt><trkpt lat="42.804802" lon="-7.625423"><ele>392</ele></trkpt><trkpt lat="42.805083" lon="-7.626564"><ele>401</ele></trkpt><trkpt lat="42.805337" lon="-7.627739"><ele>410</ele></trkpt><trkpt lat="42.805616" lon="-7.628894"><ele>414</ele></trkpt><trkpt lat="42.805955" lon="-7.630023"><ele>416</ele></trkpt><trkpt lat="42.80627" lon="-7.631145"><ele>425</ele></trkpt><trkpt lat="42.806882" lon="-7.632036"><ele>431</ele></trkpt><trkpt lat="42.807387" lon="-7.633039"><ele>433</ele></trkpt><trkpt lat="42.807535" lon="-7.634205"><ele>438</ele></trkpt><trkpt lat="42.807112" lon="-7.635287"><ele>443</ele></trkpt><trkpt lat="42.806754" lon="-7.636407"><ele>442</ele></trkpt><trkpt lat="42.806608" lon="-7.637582"><ele>443</ele></trkpt><trkpt lat="42.806866" lon="-7.638751"><ele>439</ele></trkpt><trkpt lat="42.80749" lon="-7.639526"><ele>441</ele></trkpt><trkpt lat="42.808199" lon="-7.640163"><ele>446</ele></trkpt><trkpt lat="42.807756" lon="-7.640893"><ele>449</ele></trkpt><trkpt lat="42.807334" lon="-7.641894"><ele>450</ele></trkpt><trkpt lat="42.807493" lon="-7.64289"><ele>449</ele></trkpt><trkpt lat="42.808333" lon="-7.643329"><ele>451</ele></trkpt><trkpt lat="42.809164" lon="-7.643797"><ele>452</ele></trkpt><trkpt lat="42.809998" lon="-7.644254"><ele>451</ele></trkpt><trkpt lat="42.810844" lon="-7.644619"><ele>449</ele></trkpt><trkpt lat="42.811405" lon="-7.645491"><ele>447</ele></trkpt><trkpt lat="42.811726" lon="-7.646615"><ele>452</ele></trkpt><trkpt lat="42.811767" lon="-7.647839"><ele>457</ele></trkpt><trkpt lat="42.811806" lon="-7.649064"><ele>460</ele></trkpt><trkpt lat="42.811845" lon="-7.650289"><ele>463</ele></trkpt><trkpt lat="42.811879" lon="-7.651513"><ele>465</ele></trkpt><trkpt lat="42.811917" lon="-7.652738"><ele>463</ele></trkpt><trkpt lat="42.811953" lon="-7.653963"><ele>463</ele></trkpt><trkpt lat="42.811994" lon="-7.655187"><ele>467</ele></trkpt><trkpt lat="42.812027" lon="-7.656412"><ele>473</ele></trkpt><trkpt lat="42.812076" lon="-7.657636"><ele>480</ele></trkpt><trkpt lat="42.812204" lon="-7.658849"><ele>481</ele></trkpt><trkpt lat="42.812262" lon="-7.659935"><ele>484</ele></trkpt><trkpt lat="42.81242" lon="-7.661133"><ele>483</ele></trkpt><trkpt lat="42.812594" lon="-7.662335"><ele>486</ele></trkpt><trkpt lat="42.812731" lon="-7.663523"><ele>494</ele></trkpt><trkpt lat="42.813248" lon="-7.664414"><ele>503</ele></trkpt><trkpt lat="42.813763" lon="-7.665413"><ele>511</ele></trkpt><trkpt lat="42.814189" lon="-7.666488"><ele>520</ele></trkpt><trkpt lat="42.814664" lon="-7.667527"><ele>527</ele></trkpt><trkpt lat="42.815013" lon="-7.668649"><ele>531</ele></trkpt><trkpt lat="42.815398" lon="-7.66975"><ele>530</ele></trkpt><trkpt lat="42.815787" lon="-7.670845"><ele>531</ele></trkpt><trkpt lat="42.816174" lon="-7.671951"><ele>531</ele></trkpt><trkpt lat="42.816264" lon="-7.673153"><ele>530</ele></trkpt><trkpt lat="42.816579" lon="-7.674279"><ele>533</ele></trkpt><trkpt lat="42.817268" lon="-7.675063"><ele>531</ele></trkpt><trkpt lat="42.818074" lon="-7.675595"><ele>530</ele></trkpt><trkpt lat="42.818851" lon="-7.67621"><ele>537</ele></trkpt><trkpt lat="42.819577" lon="-7.676548"><ele>541</ele></trkpt><trkpt lat="42.820121" lon="-7.677506"><ele>541</ele></trkpt><trkpt lat="42.820584" lon="-7.678497"><ele>545</ele></trkpt><trkpt lat="42.821067" lon="-7.679514"><ele>546</ele></trkpt><trkpt lat="42.821278" lon="-7.680705"><ele>542</ele></trkpt><trkpt lat="42.821502" lon="-7.681889"><ele>538</ele></trkpt><trkpt lat="42.821687" lon="-7.683088"><ele>537</ele></trkpt><trkpt lat="42.821871" lon="-7.684289"><ele>537</ele></trkpt><trkpt lat="42.822045" lon="-7.68549"><ele>535</ele></trkpt><trkpt lat="42.822377" lon="-7.68662"><ele>530</ele></trkpt><trkpt lat="42.822929" lon="-7.687587"><ele>529</ele></trkpt><trkpt lat="42.823456" lon="-7.688581"><ele>534</ele></trkpt><trkpt lat="42.82396" lon="-7.689585"><ele>533</ele></trkpt><trkpt lat="42.824552" lon="-7.690493"><ele>534</ele></trkpt><trkpt lat="42.824931" lon="-7.691604"><ele>539</ele></trkpt><trkpt lat="42.82528" lon="-7.692733"><ele>541</ele></trkpt><trkpt lat="42.825628" lon="-7.693864"><ele>550</ele></trkpt><trkpt lat="42.825976" lon="-7.694995"><ele>551</ele></trkpt><trkpt lat="42.826372" lon="-7.696093"><ele>552</ele></trkpt><trkpt lat="42.826893" lon="-7.697017"><ele>555</ele></trkpt><trkpt lat="42.826751" lon="-7.698142"><ele>559</ele></trkpt><trkpt lat="42.827253" lon="-7.699119"><ele>564</ele></trkpt><trkpt lat="42.827879" lon="-7.699989"><ele>567</ele></trkpt><trkpt lat="42.828467" lon="-7.700911"><ele>576</ele></trkpt><trkpt lat="42.829134" lon="-7.701727"><ele>585</ele></trkpt><trkpt lat="42.829649" lon="-7.702575"><ele>587</ele></trkpt><trkpt lat="42.829936" lon="-7.70371"><ele>590</ele></trkpt><trkpt lat="42.830378" lon="-7.704775"><ele>593</ele></trkpt><trkpt lat="42.830894" lon="-7.705746"><ele>599</ele></trkpt><trkpt lat="42.831197" lon="-7.706899"><ele>599</ele></trkpt><trkpt lat="42.831501" lon="-7.70805"><ele>600</ele></trkpt><trkpt lat="42.831755" lon="-7.709129"><ele>603</ele></trkpt><trkpt lat="42.832165" lon="-7.710188"><ele>609</ele></trkpt><trkpt lat="42.832735" lon="-7.711136"><ele>616</ele></trkpt><trkpt lat="42.833197" lon="-7.712141"><ele>624</ele></trkpt><trkpt lat="42.833605" lon="-7.713228"><ele>641</ele></trkpt><trkpt lat="42.833711" lon="-7.714375"><ele>651</ele></trkpt><trkpt lat="42.83351" lon="-7.715569"><ele>660</ele></trkpt><trkpt lat="42.833492" lon="-7.716794"><ele>671</ele></trkpt><trkpt lat="42.833888" lon="-7.717819"><ele>678</ele></trkpt><trkpt lat="42.834156" lon="-7.718977"><ele>691</ele></trkpt><trkpt lat="42.834226" lon="-7.720195"><ele>693</ele></trkpt><trkpt lat="42.834" lon="-7.721364"><ele>686</ele></trkpt><trkpt lat="42.834701" lon="-7.722125"><ele>680</ele></trkpt><trkpt lat="42.835307" lon="-7.723011"><ele>679</ele></trkpt><trkpt lat="42.835927" lon="-7.72387"><ele>679</ele></trkpt><trkpt lat="42.836388" lon="-7.72464"><ele>680</ele></trkpt><trkpt lat="42.836755" lon="-7.72576"><ele>681</ele></trkpt><trkpt lat="42.837122" lon="-7.72688"><ele>685</ele></trkpt><trkpt lat="42.837491" lon="-7.727999"><ele>688</ele></trkpt><trkpt lat="42.837866" lon="-7.729113"><ele>687</ele></trkpt><trkpt lat="42.838164" lon="-7.730213"><ele>689</ele></trkpt><trkpt lat="42.838723" lon="-7.731165"><ele>688</ele></trkpt><trkpt lat="42.839436" lon="-7.731909"><ele>684</ele></trkpt><trkpt lat="42.840025" lon="-7.73282"><ele>679</ele></trkpt><trkpt lat="42.840564" lon="-7.733768"><ele>679</ele></trkpt><trkpt lat="42.841227" lon="-7.734584"><ele>686</ele></trkpt><trkpt lat="42.841717" lon="-7.734041"><ele>691</ele></trkpt><trkpt lat="42.842286" lon="-7.734259"><ele>694</ele></trkpt><trkpt lat="42.841872" lon="-7.735245"><ele>692</ele></trkpt><trkpt lat="42.842119" lon="-7.736325"><ele>686</ele></trkpt><trkpt lat="42.842458" lon="-7.737455"><ele>692</ele></trkpt><trkpt lat="42.842589" lon="-7.738664"><ele>695</ele></trkpt><trkpt lat="42.842671" lon="-7.739885"><ele>701</ele></trkpt><trkpt lat="42.842817" lon="-7.741085"><ele>705</ele></trkpt><trkpt lat="42.843203" lon="-7.742187"><ele>705</ele></trkpt><trkpt lat="42.843301" lon="-7.743403"><ele>704</ele></trkpt><trkpt lat="42.843371" lon="-7.744626"><ele>706</ele></trkpt><trkpt lat="42.843511" lon="-7.745835"><ele>701</ele></trkpt><trkpt lat="42.843853" lon="-7.746965"><ele>704</ele></trkpt><trkpt lat="42.844002" lon="-7.748133"><ele>704</ele></trkpt><trkpt lat="42.844341" lon="-7.749257"><ele>706</ele></trkpt><trkpt lat="42.844729" lon="-7.75036"><ele>704</ele></trkpt><trkpt lat="42.845046" lon="-7.751506"><ele>715</ele></trkpt><trkpt lat="42.845371" lon="-7.752649"><ele>719</ele></trkpt><trkpt lat="42.845411" lon="-7.753869"><ele>718</ele></trkpt><trkpt lat="42.845624" lon="-7.755057"><ele>719</ele></trkpt><trkpt lat="42.846025" lon="-7.756135"><ele>724</ele></trkpt><trkpt lat="42.846689" lon="-7.756961"><ele>723</ele></trkpt><trkpt lat="42.847454" lon="-7.757602"><ele>725</ele></trkpt><trkpt lat="42.848163" lon="-7.758348"><ele>727</ele></trkpt><trkpt lat="42.848796" lon="-7.759219"><ele>722</ele></trkpt><trkpt lat="42.849441" lon="-7.760074"><ele>716</ele></trkpt><trkpt lat="42.849832" lon="-7.761157"><ele>710</ele></trkpt><trkpt lat="42.850208" lon="-7.76227"><ele>707</ele></trkpt><trkpt lat="42.850621" lon="-7.76336"><ele>703</ele></trkpt><trkpt lat="42.850949" lon="-7.764497"><ele>699</ele></trkpt><trkpt lat="42.851226" lon="-7.765664"><ele>694</ele></trkpt><trkpt lat="42.85154" lon="-7.766813"><ele>683</ele></trkpt><trkpt lat="42.851789" lon="-7.767987"><ele>675</ele></trkpt><trkpt lat="42.852176" lon="-7.769094"><ele>668</ele></trkpt><trkpt lat="42.852515" lon="-7.770218"><ele>662</ele></trkpt><trkpt lat="42.852492" lon="-7.771442"><ele>657</ele></trkpt><trkpt lat="42.852627" lon="-7.772623"><ele>650</ele></trkpt><trkpt lat="42.853273" lon="-7.773472"><ele>646</ele></trkpt><trkpt lat="42.853915" lon="-7.774317"><ele>644</ele></trkpt><trkpt lat="42.854459" lon="-7.775293"><ele>642</ele></trkpt><trkpt lat="42.8549" lon="-7.776356"><ele>640</ele></trkpt><trkpt lat="42.855331" lon="-7.777424"><ele>636</ele></trkpt><trkpt lat="42.856149" lon="-7.777864"><ele>631</ele></trkpt><trkpt lat="42.856942" lon="-7.778405"><ele>628</ele></trkpt><trkpt lat="42.857676" lon="-7.779088"><ele>627</ele></trkpt><trkpt lat="42.858509" lon="-7.779524"><ele>627</ele></trkpt><trkpt lat="42.859199" lon="-7.780291"><ele>626</ele></trkpt><trkpt lat="42.859814" lon="-7.781187"><ele>623</ele></trkpt><trkpt lat="42.86055" lon="-7.781743"><ele>617</ele></trkpt><trkpt lat="42.861268" lon="-7.78248"><ele>610</ele></trkpt><trkpt lat="42.861906" lon="-7.783246"><ele>605</ele></trkpt><trkpt lat="42.862415" lon="-7.784149"><ele>606</ele></trkpt><trkpt lat="42.862873" lon="-7.785141"><ele>612</ele></trkpt><trkpt lat="42.863698" lon="-7.785578"><ele>618</ele></trkpt><trkpt lat="42.864354" lon="-7.786371"><ele>625</ele></trkpt><trkpt lat="42.865083" lon="-7.787064"><ele>631</ele></trkpt><trkpt lat="42.865557" lon="-7.788026"><ele>631</ele></trkpt><trkpt lat="42.865603" lon="-7.78924"><ele>630</ele></trkpt><trkpt lat="42.86557" lon="-7.790455"><ele>627</ele></trkpt><trkpt lat="42.865972" lon="-7.791551"><ele>628</ele></trkpt><trkpt lat="42.86604" lon="-7.792769"><ele>629</ele></trkpt><trkpt lat="42.86635" lon="-7.793901"><ele>635</ele></trkpt><trkpt lat="42.866849" lon="-7.794922"><ele>637</ele></trkpt><trkpt lat="42.867353" lon="-7.795938"><ele>643</ele></trkpt><trkpt lat="42.867885" lon="-7.796927"><ele>645</ele></trkpt><trkpt lat="42.868415" lon="-7.797906"><ele>646</ele></trkpt><trkpt lat="42.869094" lon="-7.79871"><ele>644</ele></trkpt><trkpt lat="42.869757" lon="-7.799539"><ele>640</ele></trkpt><trkpt lat="42.870418" lon="-7.80037"><ele>637</ele></trkpt><trkpt lat="42.871066" lon="-7.80122"><ele>635</ele></trkpt><trkpt lat="42.871495" lon="-7.802298"><ele>623</ele></trkpt><trkpt lat="42.871909" lon="-7.803387"><ele>607</ele></trkpt><trkpt lat="42.872499" lon="-7.80429"><ele>598</ele></trkpt><trkpt lat="42.873179" lon="-7.805093"><ele>589</ele></trkpt><trkpt lat="42.873764" lon="-7.805976"><ele>580</ele></trkpt><trkpt lat="42.873534" lon="-7.807118"><ele>580</ele></trkpt><trkpt lat="42.873676" lon="-7.808274"><ele>581</ele></trkpt><trkpt lat="42.873503" lon="-7.809427"><ele>584</ele></trkpt><trkpt lat="42.873059" lon="-7.810493"><ele>585</ele></trkpt><trkpt lat="42.872505" lon="-7.811459"><ele>587</ele></trkpt><trkpt lat="42.872255" lon="-7.812613"><ele>588</ele></trkpt><trkpt lat="42.87215" lon="-7.813831"><ele>592</ele></trkpt><trkpt lat="42.872613" lon="-7.814752"><ele>599</ele></trkpt><trkpt lat="42.873129" lon="-7.815662"><ele>606</ele></trkpt><trkpt lat="42.873333" lon="-7.816841"><ele>614</ele></trkpt><trkpt lat="42.873854" lon="-7.817676"><ele>615</ele></trkpt><trkpt lat="42.873985" lon="-7.818637"><ele>620</ele></trkpt><trkpt lat="42.873723" lon="-7.81981"><ele>624</ele></trkpt><trkpt lat="42.87335" lon="-7.820921"><ele>627</ele></trkpt><trkpt lat="42.873119" lon="-7.82207"><ele>633</ele></trkpt><trkpt lat="42.872991" lon="-7.823244"><ele>634</ele></trkpt><trkpt lat="42.872907" lon="-7.824438"><ele>635</ele></trkpt><trkpt lat="42.873092" lon="-7.82563"><ele>629</ele></trkpt><trkpt lat="42.873552" lon="-7.82667"><ele>622</ele></trkpt><trkpt lat="42.874105" lon="-7.827635"><ele>617</ele></trkpt><trkpt lat="42.874571" lon="-7.828685"><ele>615</ele></trkpt><trkpt lat="42.875171" lon="-7.829571"><ele>613</ele></trkpt><trkpt lat="42.875498" lon="-7.830713"><ele>612</ele></trkpt><trkpt lat="42.875703" lon="-7.831908"><ele>615</ele></trkpt><trkpt lat="42.87588" lon="-7.83311"><ele>620</ele></trkpt><trkpt lat="42.875956" lon="-7.834333"><ele>622</ele></trkpt><trkpt lat="42.875926" lon="-7.835557"><ele>620</ele></trkpt><trkpt lat="42.875787" lon="-7.83675"><ele>623</ele></trkpt><trkpt lat="42.875413" lon="-7.837851"><ele>625</ele></trkpt><trkpt lat="42.874878" lon="-7.838837"><ele>628</ele></trkpt><trkpt lat="42.874446" lon="-7.839883"><ele>630</ele></trkpt><trkpt lat="42.874427" lon="-7.841107"><ele>632</ele></trkpt><trkpt lat="42.874305" lon="-7.842315"><ele>638</ele></trkpt><trkpt lat="42.874343" lon="-7.843541"><ele>643</ele></trkpt><trkpt lat="42.87435" lon="-7.844768"><ele>643</ele></trkpt><trkpt lat="42.874319" lon="-7.845993"><ele>639</ele></trkpt><trkpt lat="42.874314" lon="-7.847205"><ele>637</ele></trkpt><trkpt lat="42.874286" lon="-7.848432"><ele>634</ele></trkpt><trkpt lat="42.874477" lon="-7.849623"><ele>630</ele></trkpt><trkpt lat="42.874826" lon="-7.850754"><ele>627</ele></trkpt><trkpt lat="42.874677" lon="-7.851893"><ele>626</ele></trkpt><trkpt lat="42.874276" lon="-7.852929"><ele>627</ele></trkpt><trkpt lat="42.87415" lon="-7.854144"><ele>623</ele></trkpt><trkpt lat="42.87401" lon="-7.855349"><ele>617</ele></trkpt><trkpt lat="42.873935" lon="-7.856571"><ele>610</ele></trkpt><trkpt lat="42.873886" lon="-7.857792"><ele>606</ele></trkpt><trkpt lat="42.873726" lon="-7.858998"><ele>604</ele></trkpt><trkpt lat="42.873621" lon="-7.860217"><ele>601</ele></trkpt><trkpt lat="42.873549" lon="-7.861439"><ele>602</ele></trkpt><trkpt lat="42.873304" lon="-7.862618"><ele>601</ele></trkpt><trkpt lat="42.873405" lon="-7.863826"><ele>594</ele></trkpt><trkpt lat="42.872992" lon="-7.864896"><ele>588</ele></trkpt><trkpt lat="42.872757" lon="-7.866051"><ele>575</ele></trkpt><trkpt lat="42.872803" lon="-7.867185"><ele>568</ele></trkpt><trkpt lat="42.872509" lon="-7.868054"><ele>561</ele></trkpt></trkseg></trk></gpx>