<?xml version="1.0" encoding="UTF-8"?>
<gpx version="1.1" creator="Mi Diario del Camino de Santiago" xmlns="http://www.topografix.com/GPX/1/1">
<metadata><name>Etapa 21B: León - Villar de Mazarife</name><copyright author="OpenStreetMap contributors"><license>https://opendatacommons.org/licenses/odbl/1-0/</license></copyright></metadata>
<trk><name>Etapa 21B: León - Villar de Mazarife</name><trkseg><trkpt lat="42.599313" lon="-5.567576"><ele>845</ele></trkpt><trkpt lat="42.599205" lon="-5.568698"><ele>842</ele></trkpt><trkpt lat="42.599087" lon="-5.569833"><ele>839</ele></trkpt><trkpt lat="42.599761" lon="-5.570383"><ele>840</ele></trkpt><trkpt lat="42.60053" lon="-5.570609"><ele>843</ele></trkpt><trkpt lat="42.601325" lon="-5.570715"><ele>843</ele></trkpt><trkpt lat="42.601744" lon="-5.571627"><ele>842</ele></trkpt><trkpt lat="42.601864" lon="-5.572498"><ele>841</ele></trkpt><trkpt lat="42.601886" lon="-5.573719"><ele>842</ele></trkpt><trkpt lat="42.601969" lon="-5.574856"><ele>844</ele></trkpt><trkpt lat="42.601739" lon="-5.575626"><ele>843</ele></trkpt><trkpt lat="42.60174" lon="-5.576723"><ele>842</ele></trkpt><trkpt lat="42.601762" lon="-5.577944"><ele>842</ele></trkpt><trkpt lat="42.601846" lon="-5.579138"><ele>840</ele></trkpt><trkpt lat="42.601777" lon="-5.58021"><ele>835</ele></trkpt><trkpt lat="42.601635" lon="-5.581363"><ele>836</ele></trkpt><trkpt lat="42.601432" lon="-5.582552"><ele>832</ele></trkpt><trkpt lat="42.601021" lon="-5.583639"><ele>827</ele></trkpt><trkpt lat="42.60061" lon="-5.584726"><ele>830</ele></trkpt><trkpt lat="42.600094" lon="-5.585626"><ele>834</ele></trkpt><trkpt lat="42.59987" lon="-5.586462"><ele>834</ele></trkpt><trkpt lat="42.599532" lon="-5.587375"><ele>833</ele></trkpt><trkpt lat="42.599169" lon="-5.588349"><ele>829</ele></trkpt><trkpt lat="42.598801" lon="-5.589464"><ele>828</ele></trkpt><trkpt lat="42.598617" lon="-5.590647"><ele>831</ele></trkpt><trkpt lat="42.598553" lon="-5.591866"><ele>831</ele></trkpt><trkpt lat="42.598494" lon="-5.59289"><ele>832</ele></trkpt><trkpt lat="42.598449" lon="-5.594027"><ele>831</ele></trkpt><trkpt lat="42.598386" lon="-5.595128"><ele>830</ele></trkpt><trkpt lat="42.59833" lon="-5.596347"><ele>830</ele></trkpt><trkpt lat="42.598262" lon="-5.597463"><ele>829</ele></trkpt><trkpt lat="42.598194" lon="-5.598617"><ele>831</ele></trkpt><trkpt lat="42.598157" lon="-5.599709"><ele>829</ele></trkpt><trkpt lat="42.597955" lon="-5.600868"><ele>828</ele></trkpt><trkpt lat="42.597651" lon="-5.601941"><ele>828</ele></trkpt><trkpt lat="42.597343" lon="-5.602924"><ele>830</ele></trkpt><trkpt lat="42.596936" lon="-5.604013"><ele>831</ele></trkpt><trkpt lat="42.596533" lon="-5.605106"><ele>836</ele></trkpt><trkpt lat="42.596348" lon="-5.606186"><ele>839</ele></trkpt><trkpt lat="42.596261" lon="-5.607203"><ele>840</ele></trkpt><trkpt lat="42.596115" lon="-5.608341"><ele>840</ele></trkpt><trkpt lat="42.59578" lon="-5.609279"><ele>840</ele></trkpt><trkpt lat="42.595403" lon="-5.610357"><ele>840</ele></trkpt><trkpt lat="42.594997" lon="-5.611251"><ele>844</ele></trkpt><trkpt lat="42.59444" lon="-5.611921"><ele>854</ele></trkpt><trkpt lat="42.594352" lon="-5.612605"><ele>858</ele></trkpt><trkpt lat="42.594169" lon="-5.613705"><ele>864</ele></trkpt><trkpt lat="42.593654" lon="-5.614556"><ele>868</ele></trkpt><trkpt lat="42.593217" lon="-5.615624"><ele>869</ele></trkpt><trkpt lat="42.592781" lon="-5.616692"><ele>867</ele></trkpt><trkpt lat="42.592217" lon="-5.617318"><ele>865</ele></trkpt><trkpt lat="42.592152" lon="-5.618325"><ele>866</ele></trkpt><trkpt lat="42.591727" lon="-5.619402"><ele>868</ele></trkpt><trkpt lat="42.591288" lon="-5.620468"><ele>870</ele></trkpt><trkpt lat="42.590983" lon="-5.621346"><ele>871</ele></trkpt><trkpt lat="42.590424" lon="-5.622272"><ele>872</ele></trkpt><trkpt lat="42.589927" lon="-5.62329"><ele>872</ele></trkpt><trkpt lat="42.589429" lon="-5.624308"><ele>874</ele></trkpt><trkpt lat="42.588934" lon="-5.625327"><ele>875</ele></trkpt><trkpt lat="42.588376" lon="-5.626272"><ele>877</ele></trkpt><trkpt lat="42.587606" lon="-5.62688"><ele>882</ele></trkpt><trkpt lat="42.587002" lon="-5.627785"><ele>884</ele></trkpt><trkpt lat="42.586489" lon="-5.628781"><ele>887</ele></trkpt><trkpt lat="42.58587" lon="-5.629398"><ele>890</ele></trkpt><trkpt lat="42.585605" lon="-5.630184"><ele>893</ele></trkpt><trkpt lat="42.585211" lon="-5.631283"><ele>894</ele></trkpt><trkpt lat="42.584691" lon="-5.632209"><ele>895</ele></trkpt><trkpt lat="42.584294" lon="-5.633305"><ele>895</ele></trkpt><trkpt lat="42.583898" lon="-5.634402"><ele>899</ele></trkpt><trkpt lat="42.583495" lon="-5.635411"><ele>905</ele></trkpt><trkpt lat="42.582981" lon="-5.63641"><ele>907</ele></trkpt><trkpt lat="42.582399" lon="-5.637331"><ele>907</ele></trkpt><trkpt lat="42.581862" lon="-5.63828"><ele>907</ele></trkpt><trkpt lat="42.581276" lon="-5.639174"><ele>909</ele></trkpt><trkpt lat="42.580711" lon="-5.640101"><ele>909</ele></trkpt><trkpt lat="42.580132" lon="-5.640949"><ele>908</ele></trkpt><trkpt lat="42.579533" lon="-5.641557"><ele>906</ele></trkpt><trkpt lat="42.578874" lon="-5.642363"><ele>904</ele></trkpt><trkpt lat="42.578286" lon="-5.643247"><ele>894</ele></trkpt><trkpt lat="42.577877" lon="-5.64433"><ele>889</ele></trkpt><trkpt lat="42.577393" lon="-5.645075"><ele>888</ele></trkpt><trkpt lat="42.576646" lon="-5.645732"><ele>889</ele></trkpt><trkpt lat="42.575819" lon="-5.64621"><ele>889</ele></trkpt><trkpt lat="42.575008" lon="-5.646737"><ele>894</ele></trkpt><trkpt lat="42.574223" lon="-5.647331"><ele>898</ele></trkpt><trkpt lat="42.573477" lon="-5.648012"><ele>900</ele></trkpt><trkpt lat="42.572727" lon="-5.648683"><ele>899</ele></trkpt><trkpt lat="42.57197" lon="-5.649331"><ele>899</ele></trkpt><trkpt lat="42.571123" lon="-5.649737"><ele>900</ele></trkpt><trkpt lat="42.570346" lon="-5.650131"><ele>901</ele></trkpt><trkpt lat="42.569544" lon="-5.650402"><ele>901</ele></trkpt><trkpt lat="42.568658" lon="-5.650187"><ele>898</ele></trkpt><trkpt lat="42.567784" lon="-5.650435"><ele>894</ele></trkpt><trkpt lat="42.566978" lon="-5.650914"><ele>886</ele></trkpt><trkpt lat="42.566538" lon="-5.651977"><ele>877</ele></trkpt><trkpt lat="42.566054" lon="-5.652926"><ele>873</ele></trkpt><trkpt lat="42.565474" lon="-5.653806"><ele>875</ele></trkpt><trkpt lat="42.56486" lon="-5.654686"><ele>879</ele></trkpt><trkpt lat="42.564232" lon="-5.655559"><ele>883</ele></trkpt><trkpt lat="42.563452" lon="-5.656034"><ele>888</ele></trkpt><trkpt lat="42.562568" lon="-5.656255"><ele>894</ele></trkpt><trkpt lat="42.561758" lon="-5.656782"><ele>895</ele></trkpt><trkpt lat="42.560983" lon="-5.657399"><ele>894</ele></trkpt><trkpt lat="42.560243" lon="-5.658094"><ele>885</ele></trkpt><trkpt lat="42.559438" lon="-5.65862"><ele>877</ele></trkpt><trkpt lat="42.558546" lon="-5.658686"><ele>875</ele></trkpt><trkpt lat="42.557652" lon="-5.658578"><ele>877</ele></trkpt><trkpt lat="42.556765" lon="-5.658762"><ele>877</ele></trkpt><trkpt lat="42.555887" lon="-5.659025"><ele>872</ele></trkpt><trkpt lat="42.555007" lon="-5.659278"><ele>866</ele></trkpt><trkpt lat="42.554129" lon="-5.65954"><ele>864</ele></trkpt><trkpt lat="42.553245" lon="-5.659759"><ele>862</ele></trkpt><trkpt lat="42.552369" lon="-5.659988"><ele>865</ele></trkpt><trkpt lat="42.552243" lon="-5.661078"><ele>868</ele></trkpt><trkpt lat="42.551421" lon="-5.661567"><ele>873</ele></trkpt><trkpt lat="42.550579" lon="-5.661998"><ele>878</ele></trkpt><trkpt lat="42.549725" lon="-5.662375"><ele>885</ele></trkpt><trkpt lat="42.548883" lon="-5.662803"><ele>892</ele></trkpt><trkpt lat="42.547994" lon="-5.662891"><ele>897</ele></trkpt><trkpt lat="42.547104" lon="-5.662714"><ele>898</ele></trkpt><trkpt lat="42.546213" lon="-5.662547"><ele>898</ele></trkpt><trkpt lat="42.545322" lon="-5.662389"><ele>897</ele></trkpt><trkpt lat="42.544429" lon="-5.662242"><ele>897</ele></trkpt><trkpt lat="42.543533" lon="-5.662287"><ele>896</ele></trkpt><trkpt lat="42.542653" lon="-5.662539"><ele>895</ele></trkpt><trkpt lat="42.541776" lon="-5.662809"><ele>894</ele></trkpt><trkpt lat="42.540898" lon="-5.663071"><ele>892</ele></trkpt><trkpt lat="42.540055" lon="-5.663484"><ele>891</ele></trkpt><trkpt lat="42.539293" lon="-5.664131"><ele>891</ele></trkpt><trkpt lat="42.53852" lon="-5.664751"><ele>889</ele></trkpt><trkpt lat="42.537711" lon="-5.665286"><ele>889</ele></trkpt><trkpt lat="42.536907" lon="-5.665833"><ele>891</ele></trkpt><trkpt lat="42.536095" lon="-5.666357"><ele>892</ele></trkpt><trkpt lat="42.535282" lon="-5.666877"><ele>893</ele></trkpt><trkpt lat="42.534495" lon="-5.667469"><ele>894</ele></trkpt><trkpt lat="42.533725" lon="-5.668097"><ele>893</ele></trkpt><trkpt lat="42.532982" lon="-5.668784"><ele>889</ele></trkpt><trkpt lat="42.532205" lon="-5.669398"><ele>888</ele></trkpt><trkpt lat="42.531426" lon="-5.670007"><ele>891</ele></trkpt><trkpt lat="42.530648" lon="-5.67062"><ele>894</ele></trkpt><trkpt lat="42.52982" lon="-5.671094"><ele>893</ele></trkpt><trkpt lat="42.528996" lon="-5.671581"><ele>891</ele></trkpt><trkpt lat="42.528215" lon="-5.672174"><ele>890</ele></trkpt><trkpt lat="42.52751" lon="-5.672933"><ele>891</ele></trkpt><trkpt lat="42.526819" lon="-5.673713"><ele>894</ele></trkpt><trkpt lat="42.526134" lon="-5.674504"><ele>894</ele></trkpt><trkpt lat="42.525453" lon="-5.675301"><ele>892</ele></trkpt><trkpt lat="42.524774" lon="-5.676101"><ele>889</ele></trkpt><trkpt lat="42.524062" lon="-5.676844"><ele>887</ele></trkpt><trkpt lat="42.523335" lon="-5.677563"><ele>885</ele></trkpt><trkpt lat="42.522607" lon="-5.678279"><ele>886</ele></trkpt><trkpt lat="42.52192" lon="-5.679063"><ele>887</ele></trkpt><trkpt lat="42.521279" lon="-5.679919"><ele>890</ele></trkpt><trkpt lat="42.52064" lon="-5.680778"><ele>894</ele></trkpt><trkpt lat="42.520001" lon="-5.681636"><ele>893</ele></trkpt><trkpt lat="42.51933" lon="-5.682446"><ele>893</ele></trkpt><trkpt lat="42.518733" lon="-5.683358"><ele>892</ele></trkpt><trkpt lat="42.518083" lon="-5.684189"><ele>891</ele></trkpt><trkpt lat="42.517308" lon="-5.684808"><ele>892</ele></trkpt><trkpt lat="42.516535" lon="-5.685432"><ele>893</ele></trkpt><trkpt lat="42.515764" lon="-5.686059"><ele>894</ele></trkpt><trkpt lat="42.514958" lon="-5.686585"><ele>893</ele></trkpt><trkpt lat="42.514062" lon="-5.686689"><ele>890</ele></trkpt><trkpt lat="42.513165" lon="-5.686782"><ele>888</ele></trkpt><trkpt lat="42.512269" lon="-5.686876"><ele>886</ele></trkpt><trkpt lat="42.511446" lon="-5.687326"><ele>885</ele></trkpt><trkpt lat="42.510631" lon="-5.687819"><ele>884</ele></trkpt><trkpt lat="42.509766" lon="-5.688149"><ele>882</ele></trkpt><trkpt lat="42.508894" lon="-5.688388"><ele>882</ele></trkpt><trkpt lat="42.50808" lon="-5.688828"><ele>882</ele></trkpt><trkpt lat="42.507329" lon="-5.689196"><ele>879</ele></trkpt><trkpt lat="42.506848" lon="-5.690209"><ele>878</ele></trkpt><trkpt lat="42.506269" lon="-5.691137"><ele>878</ele></trkpt><trkpt lat="42.505832" lon="-5.692202"><ele>878</ele></trkpt><trkpt lat="42.505325" lon="-5.693209"><ele>878</ele></trkpt><trkpt lat="42.504796" lon="-5.694195"><ele>877</ele></trkpt><trkpt lat="42.504265" lon="-5.69518"><ele>880</ele></trkpt><trkpt lat="42.503734" lon="-5.696165"><ele>879</ele></trkpt><trkpt lat="42.503203" lon="-5.69715"><ele>881</ele></trkpt><trkpt lat="42.502673" lon="-5.698135"><ele>882</ele></trkpt><trkpt lat="42.502144" lon="-5.699121"><ele>880</ele></trkpt><trkpt lat="42.501615" lon="-5.700108"><ele>881</ele></trkpt><trkpt lat="42.50108" lon="-5.701088"><ele>880</ele></trkpt><trkpt lat="42.500471" lon="-5.701985"><ele>881</ele></trkpt><trkpt lat="42.499846" lon="-5.702862"><ele>881</ele></trkpt><trkpt lat="42.499222" lon="-5.70374"><ele>880</ele></trkpt><trkpt lat="42.498579" lon="-5.704591"><ele>879</ele></trkpt><trkpt lat="42.497849" lon="-5.705304"><ele>879</ele></trkpt><trkpt lat="42.49712" lon="-5.706017"><ele>880</ele></trkpt><trkpt lat="42.496397" lon="-5.706743"><ele>880</ele></trkpt><trkpt lat="42.495667" lon="-5.707455"><ele>879</ele></trkpt><trkpt lat="42.494898" lon="-5.708085"><ele>878</ele></trkpt><trkpt lat="42.49413" lon="-5.708721"><ele>877</ele></trkpt><trkpt lat="42.493401" lon="-5.709428"><ele>877</ele></trkpt><trkpt lat="42.49274" lon="-5.710255"><ele>877</ele></trkpt><trkpt lat="42.492043" lon="-5.711025"><ele>876</ele></trkpt><trkpt lat="42.491427" lon="-5.711912"><ele>875</ele></trkpt><trkpt lat="42.490807" lon="-5.712795"><ele>873</ele></trkpt><trkpt lat="42.490177" lon="-5.713665"><ele>874</ele></trkpt><trkpt lat="42.489615" lon="-5.714617"><ele>873</ele></trkpt><trkpt lat="42.489073" lon="-5.71559"><ele>874</ele></trkpt><trkpt lat="42.48853" lon="-5.716562"><ele>875</ele></trkpt><trkpt lat="42.488007" lon="-5.717554"><ele>876</ele></trkpt><trkpt lat="42.487531" lon="-5.718585"><ele>877</ele></trkpt><trkpt lat="42.487142" lon="-5.719684"><ele>877</ele></trkpt><trkpt lat="42.486754" lon="-5.720784"><ele>877</ele></trkpt><trkpt lat="42.486365" lon="-5.721884"><ele>878</ele></trkpt><trkpt lat="42.485907" lon="-5.722928"><ele>878</ele></trkpt><trkpt lat="42.485378" lon="-5.723915"><ele>879</ele></trkpt><trkpt lat="42.484853" lon="-5.724904"><ele>877</ele></trkpt><trkpt lat="42.484382" lon="-5.725943"><ele>875</ele></trkpt><trkpt lat="42.483914" lon="-5.726984"><ele>874</ele></trkpt><trkpt lat="42.483394" lon="-5.727912"><ele>871</ele></trkpt></trkseg></trk></gpx>