<?xml version="1.0" encoding="UTF-8"?>
<gpx version="1.1" creator="Mi Diario del Camino de Santiago" xmlns="http://www.topografix.com/GPX/1/1">
<metadata><name>Etapa 6: Estella - Los Arcos</name><copyright author="OpenStreetMap contributors"><license>https://opendatacommons.org/licenses/odbl/1-0/</license></copyright></metadata>
<trk><name>Etapa 6: Estella - Los Arcos</name><trkseg><trkpt lat="42.669156" lon="-2.029632"><ele>428</ele></trkpt><trkpt lat="42.668454" lon="-2.030395"><ele>429</ele></trkpt><trkpt lat="42.667694" lon="-2.031031"><ele>429</ele></trkpt><trkpt lat="42.666917" lon="-2.031643"><ele>432</ele></trkpt><trkpt lat="42.666136" lon="-2.031882"><ele>436</ele></trkpt><trkpt lat="42.665241" lon="-2.031971"><ele>439</ele></trkpt><trkpt lat="42.664425" lon="-2.032251"><ele>441</ele></trkpt><trkpt lat="42.663964" lon="-2.033049"><ele>445</ele></trkpt><trkpt lat="42.663282" lon="-2.033592"><ele>445</ele></trkpt><trkpt lat="42.662654" lon="-2.034464"><ele>450</ele></trkpt><trkpt lat="42.661913" lon="-2.035152"><ele>461</ele></trkpt><trkpt lat="42.661053" lon="-2.035479"><ele>471</ele></trkpt><trkpt lat="42.660559" lon="-2.036491"><ele>479</ele></trkpt><trkpt lat="42.65981" lon="-2.037068"><ele>481</ele></trkpt><trkpt lat="42.659036" lon="-2.037675"><ele>486</ele></trkpt><trkpt lat="42.658233" lon="-2.03819"><ele>489</ele></trkpt><trkpt lat="42.657604" lon="-2.039059"><ele>498</ele></trkpt><trkpt lat="42.656988" lon="-2.039933"><ele>509</ele></trkpt><trkpt lat="42.656226" lon="-2.040577"><ele>513</ele></trkpt><trkpt lat="42.655493" lon="-2.04099"><ele>506</ele></trkpt><trkpt lat="42.65476" lon="-2.041119"><ele>497</ele></trkpt><trkpt lat="42.654008" lon="-2.04139"><ele>488</ele></trkpt><trkpt lat="42.653182" lon="-2.041702"><ele>491</ele></trkpt><trkpt lat="42.652365" lon="-2.042203"><ele>497</ele></trkpt><trkpt lat="42.651594" lon="-2.042814"><ele>510</ele></trkpt><trkpt lat="42.650885" lon="-2.043557"><ele>512</ele></trkpt><trkpt lat="42.650173" lon="-2.044295"><ele>515</ele></trkpt><trkpt lat="42.649558" lon="-2.045186"><ele>522</ele></trkpt><trkpt lat="42.648994" lon="-2.046138"><ele>527</ele></trkpt><trkpt lat="42.648412" lon="-2.04707"><ele>528</ele></trkpt><trkpt lat="42.647622" lon="-2.047628"><ele>535</ele></trkpt><trkpt lat="42.64674" lon="-2.04779"><ele>550</ele></trkpt><trkpt lat="42.64643" lon="-2.048514"><ele>550</ele></trkpt><trkpt lat="42.646587" lon="-2.049714"><ele>551</ele></trkpt><trkpt lat="42.646767" lon="-2.050911"><ele>554</ele></trkpt><trkpt lat="42.646991" lon="-2.052095"><ele>556</ele></trkpt><trkpt lat="42.647196" lon="-2.052966"><ele>556</ele></trkpt><trkpt lat="42.647149" lon="-2.054019"><ele>558</ele></trkpt><trkpt lat="42.647013" lon="-2.055227"><ele>563</ele></trkpt><trkpt lat="42.646679" lon="-2.056349"><ele>564</ele></trkpt><trkpt lat="42.646193" lon="-2.057377"><ele>566</ele></trkpt><trkpt lat="42.645888" lon="-2.058512"><ele>567</ele></trkpt><trkpt lat="42.645614" lon="-2.059676"><ele>567</ele></trkpt><trkpt lat="42.645286" lon="-2.060812"><ele>572</ele></trkpt><trkpt lat="42.645021" lon="-2.061975"><ele>572</ele></trkpt><trkpt lat="42.644593" lon="-2.063045"><ele>573</ele></trkpt><trkpt lat="42.644144" lon="-2.064103"><ele>575</ele></trkpt><trkpt lat="42.643609" lon="-2.06508"><ele>580</ele></trkpt><trkpt lat="42.64305" lon="-2.066027"><ele>581</ele></trkpt><trkpt lat="42.642593" lon="-2.067078"><ele>581</ele></trkpt><trkpt lat="42.642134" lon="-2.068124"><ele>585</ele></trkpt><trkpt lat="42.641923" lon="-2.069281"><ele>590</ele></trkpt><trkpt lat="42.641871" lon="-2.070487"><ele>579</ele></trkpt><trkpt lat="42.641452" lon="-2.071565"><ele>580</ele></trkpt><trkpt lat="42.640927" lon="-2.072554"><ele>579</ele></trkpt><trkpt lat="42.640509" lon="-2.07298"><ele>582</ele></trkpt><trkpt lat="42.639678" lon="-2.072731"><ele>593</ele></trkpt><trkpt lat="42.639115" lon="-2.073173"><ele>597</ele></trkpt><trkpt lat="42.638981" lon="-2.074378"><ele>593</ele></trkpt><trkpt lat="42.638605" lon="-2.075439"><ele>592</ele></trkpt><trkpt lat="42.638305" lon="-2.076577"><ele>591</ele></trkpt><trkpt lat="42.63803" lon="-2.07774"><ele>586</ele></trkpt><trkpt lat="42.638049" lon="-2.078927"><ele>580</ele></trkpt><trkpt lat="42.637844" lon="-2.080083"><ele>574</ele></trkpt><trkpt lat="42.637755" lon="-2.080923"><ele>565</ele></trkpt><trkpt lat="42.638444" lon="-2.081653"><ele>557</ele></trkpt><trkpt lat="42.63884" lon="-2.08271"><ele>550</ele></trkpt><trkpt lat="42.638601" lon="-2.083746"><ele>544</ele></trkpt><trkpt lat="42.637847" lon="-2.08309"><ele>552</ele></trkpt><trkpt lat="42.637059" lon="-2.083485"><ele>564</ele></trkpt><trkpt lat="42.636563" lon="-2.0845"><ele>564</ele></trkpt><trkpt lat="42.636198" lon="-2.085601"><ele>567</ele></trkpt><trkpt lat="42.635763" lon="-2.086599"><ele>575</ele></trkpt><trkpt lat="42.635147" lon="-2.087145"><ele>574</ele></trkpt><trkpt lat="42.634353" lon="-2.087605"><ele>574</ele></trkpt><trkpt lat="42.634" lon="-2.088594"><ele>568</ele></trkpt><trkpt lat="42.634244" lon="-2.089392"><ele>566</ele></trkpt><trkpt lat="42.633497" lon="-2.090025"><ele>575</ele></trkpt><trkpt lat="42.633153" lon="-2.091088"><ele>586</ele></trkpt><trkpt lat="42.633043" lon="-2.092274"><ele>593</ele></trkpt><trkpt lat="42.632552" lon="-2.093287"><ele>607</ele></trkpt><trkpt lat="42.632119" lon="-2.094332"><ele>615</ele></trkpt><trkpt lat="42.631802" lon="-2.09542"><ele>624</ele></trkpt><trkpt lat="42.632121" lon="-2.096533"><ele>631</ele></trkpt><trkpt lat="42.632083" lon="-2.097718"><ele>642</ele></trkpt><trkpt lat="42.631524" lon="-2.098631"><ele>656</ele></trkpt><trkpt lat="42.630857" lon="-2.09932"><ele>661</ele></trkpt><trkpt lat="42.630441" lon="-2.100352"><ele>668</ele></trkpt><trkpt lat="42.629751" lon="-2.101115"><ele>667</ele></trkpt><trkpt lat="42.629452" lon="-2.10225"><ele>669</ele></trkpt><trkpt lat="42.629172" lon="-2.103338"><ele>677</ele></trkpt><trkpt lat="42.628701" lon="-2.10422"><ele>674</ele></trkpt><trkpt lat="42.627899" lon="-2.103968"><ele>662</ele></trkpt><trkpt lat="42.627028" lon="-2.103722"><ele>650</ele></trkpt><trkpt lat="42.62614" lon="-2.103657"><ele>639</ele></trkpt><trkpt lat="42.625313" lon="-2.103287"><ele>629</ele></trkpt><trkpt lat="42.624523" lon="-2.102741"><ele>618</ele></trkpt><trkpt lat="42.623664" lon="-2.102468"><ele>609</ele></trkpt><trkpt lat="42.622791" lon="-2.102174"><ele>601</ele></trkpt><trkpt lat="42.621899" lon="-2.102103"><ele>595</ele></trkpt><trkpt lat="42.621021" lon="-2.102303"><ele>590</ele></trkpt><trkpt lat="42.620382" lon="-2.10316"><ele>586</ele></trkpt><trkpt lat="42.619771" lon="-2.104057"><ele>584</ele></trkpt><trkpt lat="42.619282" lon="-2.105073"><ele>584</ele></trkpt><trkpt lat="42.618919" lon="-2.106189"><ele>581</ele></trkpt><trkpt lat="42.618604" lon="-2.107334"><ele>576</ele></trkpt><trkpt lat="42.618053" lon="-2.108294"><ele>570</ele></trkpt><trkpt lat="42.617493" lon="-2.109249"><ele>570</ele></trkpt><trkpt lat="42.616972" lon="-2.110245"><ele>564</ele></trkpt><trkpt lat="42.616353" lon="-2.111129"><ele>560</ele></trkpt><trkpt lat="42.615704" lon="-2.111974"><ele>559</ele></trkpt><trkpt lat="42.615023" lon="-2.112772"><ele>558</ele></trkpt><trkpt lat="42.614312" lon="-2.113514"><ele>555</ele></trkpt><trkpt lat="42.613466" lon="-2.113586"><ele>555</ele></trkpt><trkpt lat="42.612599" lon="-2.113309"><ele>550</ele></trkpt><trkpt lat="42.611739" lon="-2.113662"><ele>549</ele></trkpt><trkpt lat="42.610883" lon="-2.114031"><ele>549</ele></trkpt><trkpt lat="42.609996" lon="-2.114221"><ele>546</ele></trkpt><trkpt lat="42.609131" lon="-2.114537"><ele>551</ele></trkpt><trkpt lat="42.608475" lon="-2.115348"><ele>554</ele></trkpt><trkpt lat="42.607713" lon="-2.115842"><ele>555</ele></trkpt><trkpt lat="42.606816" lon="-2.11592"><ele>553</ele></trkpt><trkpt lat="42.605931" lon="-2.116136"><ele>549</ele></trkpt><trkpt lat="42.605035" lon="-2.116243"><ele>539</ele></trkpt><trkpt lat="42.604594" lon="-2.117159"><ele>537</ele></trkpt><trkpt lat="42.604404" lon="-2.11835"><ele>537</ele></trkpt><trkpt lat="42.603796" lon="-2.119239"><ele>540</ele></trkpt><trkpt lat="42.60364" lon="-2.120416"><ele>544</ele></trkpt><trkpt lat="42.603586" lon="-2.121636"><ele>546</ele></trkpt><trkpt lat="42.603529" lon="-2.122855"><ele>544</ele></trkpt><trkpt lat="42.603289" lon="-2.124011"><ele>544</ele></trkpt><trkpt lat="42.602597" lon="-2.124631"><ele>544</ele></trkpt><trkpt lat="42.601835" lon="-2.125273"><ele>542</ele></trkpt><trkpt lat="42.601108" lon="-2.125991"><ele>536</ele></trkpt><trkpt lat="42.600475" lon="-2.12682"><ele>530</ele></trkpt><trkpt lat="42.600383" lon="-2.128034"><ele>530</ele></trkpt><trkpt lat="42.600306" lon="-2.129252"><ele>529</ele></trkpt><trkpt lat="42.600234" lon="-2.130469"><ele>525</ele></trkpt><trkpt lat="42.600157" lon="-2.131687"><ele>524</ele></trkpt><trkpt lat="42.600084" lon="-2.132904"><ele>530</ele></trkpt><trkpt lat="42.599968" lon="-2.134116"><ele>527</ele></trkpt><trkpt lat="42.599844" lon="-2.135326"><ele>519</ele></trkpt><trkpt lat="42.599698" lon="-2.136531"><ele>514</ele></trkpt><trkpt lat="42.599577" lon="-2.137742"><ele>514</ele></trkpt><trkpt lat="42.599446" lon="-2.138951"><ele>517</ele></trkpt><trkpt lat="42.599228" lon="-2.140125"><ele>517</ele></trkpt><trkpt lat="42.598813" lon="-2.14121"><ele>515</ele></trkpt><trkpt lat="42.598399" lon="-2.142294"><ele>513</ele></trkpt><trkpt lat="42.598065" lon="-2.143423"><ele>513</ele></trkpt><trkpt lat="42.597766" lon="-2.144555"><ele>513</ele></trkpt><trkpt lat="42.596986" lon="-2.145163"><ele>512</ele></trkpt><trkpt lat="42.59651" lon="-2.145993"><ele>511</ele></trkpt><trkpt lat="42.596804" lon="-2.147131"><ele>512</ele></trkpt><trkpt lat="42.596829" lon="-2.148347"><ele>509</ele></trkpt><trkpt lat="42.596618" lon="-2.14952"><ele>513</ele></trkpt><trkpt lat="42.596707" lon="-2.150722"><ele>521</ele></trkpt><trkpt lat="42.596374" lon="-2.151805"><ele>519</ele></trkpt><trkpt lat="42.596216" lon="-2.153007"><ele>525</ele></trkpt><trkpt lat="42.596184" lon="-2.154224"><ele>531</ele></trkpt><trkpt lat="42.596215" lon="-2.155445"><ele>534</ele></trkpt><trkpt lat="42.596034" lon="-2.156397"><ele>532</ele></trkpt><trkpt lat="42.595137" lon="-2.156488"><ele>533</ele></trkpt><trkpt lat="42.594241" lon="-2.156579"><ele>533</ele></trkpt><trkpt lat="42.593344" lon="-2.15667"><ele>531</ele></trkpt><trkpt lat="42.593015" lon="-2.15758"><ele>531</ele></trkpt><trkpt lat="42.592898" lon="-2.15879"><ele>530</ele></trkpt><trkpt lat="42.592905" lon="-2.160012"><ele>525</ele></trkpt><trkpt lat="42.592924" lon="-2.161233"><ele>524</ele></trkpt><trkpt lat="42.592939" lon="-2.162454"><ele>517</ele></trkpt><trkpt lat="42.592951" lon="-2.163676"><ele>517</ele></trkpt><trkpt lat="42.592964" lon="-2.164897"><ele>516</ele></trkpt><trkpt lat="42.592978" lon="-2.166119"><ele>515</ele></trkpt><trkpt lat="42.592991" lon="-2.16734"><ele>512</ele></trkpt><trkpt lat="42.593004" lon="-2.168562"><ele>510</ele></trkpt><trkpt lat="42.593145" lon="-2.169732"><ele>507</ele></trkpt><trkpt lat="42.593743" lon="-2.170391"><ele>507</ele></trkpt><trkpt lat="42.593733" lon="-2.171612"><ele>505</ele></trkpt><trkpt lat="42.593708" lon="-2.172833"><ele>503</ele></trkpt><trkpt lat="42.593661" lon="-2.174053"><ele>504</ele></trkpt><trkpt lat="42.593354" lon="-2.175199"><ele>499</ele></trkpt><trkpt lat="42.593021" lon="-2.176333"><ele>497</ele></trkpt><trkpt lat="42.5925" lon="-2.177283"><ele>496</ele></trkpt><trkpt lat="42.591678" lon="-2.177623"><ele>493</ele></trkpt><trkpt lat="42.59116" lon="-2.178514"><ele>490</ele></trkpt><trkpt lat="42.59056" lon="-2.179388"><ele>489</ele></trkpt><trkpt lat="42.589857" lon="-2.180109"><ele>492</ele></trkpt><trkpt lat="42.589186" lon="-2.180798"><ele>490</ele></trkpt><trkpt lat="42.58831" lon="-2.181066"><ele>490</ele></trkpt><trkpt lat="42.587495" lon="-2.181487"><ele>490</ele></trkpt><trkpt lat="42.586653" lon="-2.181913"><ele>493</ele></trkpt><trkpt lat="42.585776" lon="-2.182165"><ele>498</ele></trkpt><trkpt lat="42.584891" lon="-2.18235"><ele>492</ele></trkpt><trkpt lat="42.58427" lon="-2.183184"><ele>488</ele></trkpt><trkpt lat="42.583553" lon="-2.183891"><ele>482</ele></trkpt><trkpt lat="42.582965" lon="-2.184816"><ele>481</ele></trkpt><trkpt lat="42.582384" lon="-2.185748"><ele>488</ele></trkpt><trkpt lat="42.581803" lon="-2.18668"><ele>495</ele></trkpt><trkpt lat="42.581117" lon="-2.187421"><ele>496</ele></trkpt><trkpt lat="42.580345" lon="-2.188035"><ele>494</ele></trkpt><trkpt lat="42.579546" lon="-2.188535"><ele>488</ele></trkpt><trkpt lat="42.578708" lon="-2.188928"><ele>474</ele></trkpt><trkpt lat="42.577889" lon="-2.189431"><ele>465</ele></trkpt><trkpt lat="42.577056" lon="-2.189891"><ele>461</ele></trkpt><trkpt lat="42.576244" lon="-2.190408"><ele>456</ele></trkpt><trkpt lat="42.575547" lon="-2.191179"><ele>455</ele></trkpt><trkpt lat="42.574863" lon="-2.191973"><ele>455</ele></trkpt><trkpt lat="42.574209" lon="-2.192808"><ele>455</ele></trkpt><trkpt lat="42.573438" lon="-2.193391"><ele>454</ele></trkpt><trkpt lat="42.572543" lon="-2.193327"><ele>456</ele></trkpt><trkpt lat="42.571681" lon="-2.192992"><ele>457</ele></trkpt><trkpt lat="42.570853" lon="-2.192517"><ele>457</ele></trkpt><trkpt lat="42.570018" lon="-2.192075"><ele>456</ele></trkpt><trkpt lat="42.569344" lon="-2.192197"><ele>453</ele></trkpt></trkseg></trk></gpx>