<?xml version="1.0" encoding="UTF-8"?>
<gpx version="1.1" creator="Mi Diario del Camino de Santiago" xmlns="http://www.topografix.com/GPX/1/1">
<metadata><name>Etapa F3: Olveiroa - Fisterra</name><copyright author="OpenStreetMap contributors"><license>https://opendatacommons.org/licenses/odbl/1-0/</license></copyright></metadata>
<trk><name>Etapa F3: Olveiroa - Fisterra</name><trkseg><trkpt lat="42.966671" lon="-9.039602"><ele>275</ele></trkpt><trkpt lat="42.966617" lon="-9.040741"><ele>270</ele></trkpt><trkpt lat="42.967044" lon="-9.041819"><ele>266</ele></trkpt><trkpt lat="42.966607" lon="-9.042292"><ele>264</ele></trkpt><trkpt lat="42.965839" lon="-9.042885"><ele>267</ele></trkpt><trkpt lat="42.965084" lon="-9.043321"><ele>270</ele></trkpt><trkpt lat="42.964238" lon="-9.043733"><ele>278</ele></trkpt><trkpt lat="42.963356" lon="-9.043922"><ele>284</ele></trkpt><trkpt lat="42.96307" lon="-9.04441"><ele>283</ele></trkpt><trkpt lat="42.963732" lon="-9.045225"><ele>287</ele></trkpt><trkpt lat="42.964356" lon="-9.046109"><ele>292</ele></trkpt><trkpt lat="42.96498" lon="-9.046994"><ele>303</ele></trkpt><trkpt lat="42.965138" lon="-9.048156"><ele>299</ele></trkpt><trkpt lat="42.965534" lon="-9.049242"><ele>309</ele></trkpt><trkpt lat="42.965803" lon="-9.050365"><ele>316</ele></trkpt><trkpt lat="42.965675" lon="-9.051577"><ele>316</ele></trkpt><trkpt lat="42.965408" lon="-9.052741"><ele>312</ele></trkpt><trkpt lat="42.965662" lon="-9.053879"><ele>313</ele></trkpt><trkpt lat="42.966338" lon="-9.054688"><ele>310</ele></trkpt><trkpt lat="42.966902" lon="-9.055633"><ele>303</ele></trkpt><trkpt lat="42.967323" lon="-9.056719"><ele>294</ele></trkpt><trkpt lat="42.967706" lon="-9.057828"><ele>292</ele></trkpt><trkpt lat="42.967853" lon="-9.059013"><ele>284</ele></trkpt><trkpt lat="42.96828" lon="-9.059997"><ele>281</ele></trkpt><trkpt lat="42.968857" lon="-9.060912"><ele>282</ele></trkpt><trkpt lat="42.969048" lon="-9.062021"><ele>276</ele></trkpt><trkpt lat="42.968913" lon="-9.063217"><ele>270</ele></trkpt><trkpt lat="42.968135" lon="-9.063552"><ele>274</ele></trkpt><trkpt lat="42.967593" lon="-9.064502"><ele>289</ele></trkpt><trkpt lat="42.968211" lon="-9.064713"><ele>290</ele></trkpt><trkpt lat="42.969051" lon="-9.064539"><ele>285</ele></trkpt><trkpt lat="42.969858" lon="-9.065069"><ele>291</ele></trkpt><trkpt lat="42.970713" lon="-9.065421"><ele>295</ele></trkpt><trkpt lat="42.971581" lon="-9.065711"><ele>292</ele></trkpt><trkpt lat="42.972311" lon="-9.066429"><ele>296</ele></trkpt><trkpt lat="42.973033" lon="-9.067159"><ele>299</ele></trkpt><trkpt lat="42.97384" lon="-9.06754"><ele>295</ele></trkpt><trkpt lat="42.974524" lon="-9.068284"><ele>298</ele></trkpt><trkpt lat="42.975304" lon="-9.068888"><ele>305</ele></trkpt><trkpt lat="42.976127" lon="-9.069352"><ele>311</ele></trkpt><trkpt lat="42.97692" lon="-9.0699"><ele>319</ele></trkpt><trkpt lat="42.977706" lon="-9.070285"><ele>323</ele></trkpt><trkpt lat="42.978525" lon="-9.07073"><ele>323</ele></trkpt><trkpt lat="42.979251" lon="-9.071442"><ele>325</ele></trkpt><trkpt lat="42.979657" lon="-9.072526"><ele>330</ele></trkpt><trkpt lat="42.980027" lon="-9.073632"><ele>331</ele></trkpt><trkpt lat="42.980561" lon="-9.074621"><ele>329</ele></trkpt><trkpt lat="42.98098" lon="-9.075698"><ele>335</ele></trkpt><trkpt lat="42.98156" lon="-9.076637"><ele>340</ele></trkpt><trkpt lat="42.982166" lon="-9.077537"><ele>340</ele></trkpt><trkpt lat="42.982834" lon="-9.078097"><ele>343</ele></trkpt><trkpt lat="42.982384" lon="-9.079106"><ele>348</ele></trkpt><trkpt lat="42.982528" lon="-9.080242"><ele>350</ele></trkpt><trkpt lat="42.983044" lon="-9.081248"><ele>354</ele></trkpt><trkpt lat="42.983619" lon="-9.08213"><ele>355</ele></trkpt><trkpt lat="42.984511" lon="-9.082147"><ele>363</ele></trkpt><trkpt lat="42.985366" lon="-9.082467"><ele>369</ele></trkpt><trkpt lat="42.985228" lon="-9.083296"><ele>369</ele></trkpt><trkpt lat="42.985411" lon="-9.084305"><ele>369</ele></trkpt><trkpt lat="42.986013" lon="-9.085211"><ele>370</ele></trkpt><trkpt lat="42.985927" lon="-9.086384"><ele>365</ele></trkpt><trkpt lat="42.985479" lon="-9.08745"><ele>369</ele></trkpt><trkpt lat="42.98502" lon="-9.088507"><ele>374</ele></trkpt><trkpt lat="42.984561" lon="-9.089564"><ele>375</ele></trkpt><trkpt lat="42.984103" lon="-9.090622"><ele>371</ele></trkpt><trkpt lat="42.983677" lon="-9.091676"><ele>364</ele></trkpt><trkpt lat="42.98377" lon="-9.092883"><ele>358</ele></trkpt><trkpt lat="42.983675" lon="-9.094084"><ele>352</ele></trkpt><trkpt lat="42.983975" lon="-9.095226"><ele>351</ele></trkpt><trkpt lat="42.984184" lon="-9.096379"><ele>350</ele></trkpt><trkpt lat="42.984263" lon="-9.097598"><ele>349</ele></trkpt><trkpt lat="42.984393" lon="-9.098811"><ele>351</ele></trkpt><trkpt lat="42.984502" lon="-9.100028"><ele>348</ele></trkpt><trkpt lat="42.984716" lon="-9.101189"><ele>343</ele></trkpt><trkpt lat="42.984997" lon="-9.102357"><ele>337</ele></trkpt><trkpt lat="42.985259" lon="-9.103518"><ele>332</ele></trkpt><trkpt lat="42.985515" lon="-9.104696"><ele>330</ele></trkpt><trkpt lat="42.985774" lon="-9.105873"><ele>326</ele></trkpt><trkpt lat="42.986033" lon="-9.107051"><ele>320</ele></trkpt><trkpt lat="42.986256" lon="-9.108228"><ele>315</ele></trkpt><trkpt lat="42.985937" lon="-9.109376"><ele>313</ele></trkpt><trkpt lat="42.985588" lon="-9.110509"><ele>313</ele></trkpt><trkpt lat="42.985509" lon="-9.111723"><ele>307</ele></trkpt><trkpt lat="42.985577" lon="-9.112949"><ele>297</ele></trkpt><trkpt lat="42.985442" lon="-9.11411"><ele>298</ele></trkpt><trkpt lat="42.985113" lon="-9.115254"><ele>303</ele></trkpt><trkpt lat="42.984783" lon="-9.116398"><ele>306</ele></trkpt><trkpt lat="42.984461" lon="-9.117545"><ele>306</ele></trkpt><trkpt lat="42.984199" lon="-9.11872"><ele>310</ele></trkpt><trkpt lat="42.983634" lon="-9.11949"><ele>308</ele></trkpt><trkpt lat="42.982794" lon="-9.11993"><ele>306</ele></trkpt><trkpt lat="42.98196" lon="-9.120388"><ele>305</ele></trkpt><trkpt lat="42.981125" lon="-9.120846"><ele>302</ele></trkpt><trkpt lat="42.98029" lon="-9.121301"><ele>302</ele></trkpt><trkpt lat="42.979455" lon="-9.121752"><ele>304</ele></trkpt><trkpt lat="42.978584" lon="-9.121944"><ele>296</ele></trkpt><trkpt lat="42.977792" lon="-9.122383"><ele>287</ele></trkpt><trkpt lat="42.977317" lon="-9.123419"><ele>286</ele></trkpt><trkpt lat="42.97694" lon="-9.124535"><ele>279</ele></trkpt><trkpt lat="42.977597" lon="-9.125316"><ele>281</ele></trkpt><trkpt lat="42.978347" lon="-9.125989"><ele>280</ele></trkpt><trkpt lat="42.979203" lon="-9.126156"><ele>275</ele></trkpt><trkpt lat="42.980056" lon="-9.125777"><ele>272</ele></trkpt><trkpt lat="42.980079" lon="-9.126665"><ele>266</ele></trkpt><trkpt lat="42.980553" lon="-9.127281"><ele>266</ele></trkpt><trkpt lat="42.980018" lon="-9.128268"><ele>267</ele></trkpt><trkpt lat="42.979883" lon="-9.12934"><ele>273</ele></trkpt><trkpt lat="42.980456" lon="-9.130228"><ele>279</ele></trkpt><trkpt lat="42.980847" lon="-9.131329"><ele>278</ele></trkpt><trkpt lat="42.981299" lon="-9.132392"><ele>275</ele></trkpt><trkpt lat="42.981766" lon="-9.133442"><ele>271</ele></trkpt><trkpt lat="42.982239" lon="-9.134487"><ele>275</ele></trkpt><trkpt lat="42.98272" lon="-9.135526"><ele>284</ele></trkpt><trkpt lat="42.982783" lon="-9.136741"><ele>289</ele></trkpt><trkpt lat="42.982768" lon="-9.137965"><ele>295</ele></trkpt><trkpt lat="42.982701" lon="-9.13919"><ele>297</ele></trkpt><trkpt lat="42.982725" lon="-9.140418"><ele>297</ele></trkpt><trkpt lat="42.982893" lon="-9.141626"><ele>297</ele></trkpt><trkpt lat="42.982993" lon="-9.142843"><ele>298</ele></trkpt><trkpt lat="42.982912" lon="-9.144064"><ele>297</ele></trkpt><trkpt lat="42.982744" lon="-9.145272"><ele>299</ele></trkpt><trkpt lat="42.982579" lon="-9.14648"><ele>306</ele></trkpt><trkpt lat="42.982427" lon="-9.147692"><ele>311</ele></trkpt><trkpt lat="42.982288" lon="-9.148906"><ele>314</ele></trkpt><trkpt lat="42.982505" lon="-9.150094"><ele>315</ele></trkpt><trkpt lat="42.982915" lon="-9.151182"><ele>313</ele></trkpt><trkpt lat="42.983424" lon="-9.152195"><ele>307</ele></trkpt><trkpt lat="42.983938" lon="-9.153204"><ele>300</ele></trkpt><trkpt lat="42.984269" lon="-9.154342"><ele>292</ele></trkpt><trkpt lat="42.984442" lon="-9.155488"><ele>292</ele></trkpt><trkpt lat="42.983858" lon="-9.156423"><ele>294</ele></trkpt><trkpt lat="42.983346" lon="-9.157433"><ele>299</ele></trkpt><trkpt lat="42.982729" lon="-9.158302"><ele>303</ele></trkpt><trkpt lat="42.982218" lon="-9.159296"><ele>305</ele></trkpt><trkpt lat="42.98199" lon="-9.160475"><ele>306</ele></trkpt><trkpt lat="42.981644" lon="-9.161609"><ele>304</ele></trkpt><trkpt lat="42.981238" lon="-9.162675"><ele>303</ele></trkpt><trkpt lat="42.980555" lon="-9.163377"><ele>298</ele></trkpt><trkpt lat="42.979787" lon="-9.16401"><ele>296</ele></trkpt><trkpt lat="42.978956" lon="-9.164464"><ele>294</ele></trkpt><trkpt lat="42.978063" lon="-9.164618"><ele>293</ele></trkpt><trkpt lat="42.977218" lon="-9.164996"><ele>292</ele></trkpt><trkpt lat="42.976379" lon="-9.165434"><ele>291</ele></trkpt><trkpt lat="42.975508" lon="-9.16572"><ele>291</ele></trkpt><trkpt lat="42.974621" lon="-9.165928"><ele>290</ele></trkpt><trkpt lat="42.973736" lon="-9.166141"><ele>288</ele></trkpt><trkpt lat="42.972878" lon="-9.166505"><ele>285</ele></trkpt><trkpt lat="42.972086" lon="-9.167086"><ele>283</ele></trkpt><trkpt lat="42.971294" lon="-9.167669"><ele>281</ele></trkpt><trkpt lat="42.970471" lon="-9.168149"><ele>279</ele></trkpt><trkpt lat="42.969605" lon="-9.16848"><ele>277</ele></trkpt><trkpt lat="42.96884" lon="-9.169118"><ele>276</ele></trkpt><trkpt lat="42.968054" lon="-9.169715"><ele>277</ele></trkpt><trkpt lat="42.967358" lon="-9.17048"><ele>276</ele></trkpt><trkpt lat="42.966703" lon="-9.171323"><ele>275</ele></trkpt><trkpt lat="42.966061" lon="-9.172182"><ele>278</ele></trkpt><trkpt lat="42.965471" lon="-9.173109"><ele>279</ele></trkpt><trkpt lat="42.964864" lon="-9.173998"><ele>278</ele></trkpt><trkpt lat="42.964102" lon="-9.174584"><ele>270</ele></trkpt><trkpt lat="42.963323" lon="-9.175197"><ele>259</ele></trkpt><trkpt lat="42.962527" lon="-9.175769"><ele>252</ele></trkpt><trkpt lat="42.961659" lon="-9.175896"><ele>252</ele></trkpt><trkpt lat="42.96076" lon="-9.175871"><ele>248</ele></trkpt><trkpt lat="42.959865" lon="-9.175773"><ele>235</ele></trkpt><trkpt lat="42.958979" lon="-9.175985"><ele>227</ele></trkpt><trkpt lat="42.958105" lon="-9.176151"><ele>217</ele></trkpt><trkpt lat="42.957243" lon="-9.175803"><ele>198</ele></trkpt><trkpt lat="42.956452" lon="-9.176052"><ele>184</ele></trkpt><trkpt lat="42.956177" lon="-9.177199"><ele>176</ele></trkpt><trkpt lat="42.956106" lon="-9.178424"><ele>164</ele></trkpt><trkpt lat="42.955994" lon="-9.17964"><ele>153</ele></trkpt><trkpt lat="42.955754" lon="-9.180742"><ele>140</ele></trkpt><trkpt lat="42.954929" lon="-9.181063"><ele>123</ele></trkpt><trkpt lat="42.954067" lon="-9.181327"><ele>113</ele></trkpt><trkpt lat="42.953265" lon="-9.18182"><ele>101</ele></trkpt><trkpt lat="42.952417" lon="-9.181465"><ele>94</ele></trkpt><trkpt lat="42.951616" lon="-9.180911"><ele>88</ele></trkpt><trkpt lat="42.950757" lon="-9.180635"><ele>70</ele></trkpt><trkpt lat="42.950105" lon="-9.179998"><ele>51</ele></trkpt><trkpt lat="42.949646" lon="-9.179751"><ele>45</ele></trkpt><trkpt lat="42.948748" lon="-9.179726"><ele>39</ele></trkpt><trkpt lat="42.94803" lon="-9.179938"><ele>28</ele></trkpt><trkpt lat="42.948138" lon="-9.181064"><ele>29</ele></trkpt><trkpt lat="42.948629" lon="-9.182087"><ele>31</ele></trkpt><trkpt lat="42.949215" lon="-9.18302"><ele>29</ele></trkpt><trkpt lat="42.949803" lon="-9.183949"><ele>25</ele></trkpt><trkpt lat="42.950527" lon="-9.184609"><ele>24</ele></trkpt><trkpt lat="42.95141" lon="-9.184843"><ele>25</ele></trkpt><trkpt lat="42.952177" lon="-9.18541"><ele>27</ele></trkpt><trkpt lat="42.952573" lon="-9.186505"><ele>18</ele></trkpt><trkpt lat="42.95338" lon="-9.187044"><ele>17</ele></trkpt><trkpt lat="42.954085" lon="-9.187777"><ele>14</ele></trkpt><trkpt lat="42.954925" lon="-9.188155"><ele>15</ele></trkpt><trkpt lat="42.955209" lon="-9.188762"><ele>13</ele></trkpt><trkpt lat="42.955625" lon="-9.189494"><ele>9</ele></trkpt><trkpt lat="42.956179" lon="-9.19001"><ele>6</ele></trkpt><trkpt lat="42.956619" lon="-9.190834"><ele>4</ele></trkpt><trkpt lat="42.957504" lon="-9.191054"><ele>6</ele></trkpt><trkpt lat="42.95759" lon="-9.192158"><ele>7</ele></trkpt><trkpt lat="42.957582" lon="-9.193376"><ele>9</ele></trkpt><trkpt lat="42.956708" lon="-9.193086"><ele>10</ele></trkpt><trkpt lat="42.955833" lon="-9.192803"><ele>10</ele></trkpt><trkpt lat="42.954956" lon="-9.192529"><ele>11</ele></trkpt><trkpt lat="42.954066" lon="-9.192357"><ele>11</ele></trkpt><trkpt lat="42.953195" lon="-9.192658"><ele>14</ele></trkpt><trkpt lat="42.95233" lon="-9.192456"><ele>15</ele></trkpt><trkpt lat="42.9515" lon="-9.191982"><ele>15</ele></trkpt><trkpt lat="42.950638" lon="-9.191644"><ele>15</ele></trkpt><trkpt lat="42.949864" lon="-9.192058"><ele>17</ele></trkpt><trkpt lat="42.949083" lon="-9.192656"><ele>20</ele></trkpt><trkpt lat="42.948274" lon="-9.193127"><ele>24</ele></trkpt><trkpt lat="42.947425" lon="-9.193518"><ele>21</ele></trkpt><trkpt lat="42.946531" lon="-9.193555"><ele>11</ele></trkpt><trkpt lat="42.945672" lon="-9.193899"><ele>11</ele></trkpt><trkpt lat="42.944823" lon="-9.193529"><ele>8</ele></trkpt><trkpt lat="42.94424" lon="-9.19265"><ele>10</ele></trkpt><trkpt lat="42.94412" lon="-9.191746"><ele>9</ele></trkpt><trkpt lat="42.943501" lon="-9.192507"><ele>14</ele></trkpt><trkpt lat="42.942893" lon="-9.193272"><ele>18</ele></trkpt><trkpt lat="42.942553" lon="-9.194111"><ele>32</ele></trkpt><trkpt lat="42.942166" lon="-9.195203"><ele>52</ele></trkpt><trkpt lat="42.942008" lon="-9.196225"><ele>68</ele></trkpt><trkpt lat="42.941304" lon="-9.196967"><ele>80</ele></trkpt><trkpt lat="42.940562" lon="-9.197266"><ele>91</ele></trkpt><trkpt lat="42.939745" lon="-9.197118"><ele>95</ele></trkpt><trkpt lat="42.939551" lon="-9.197894"><ele>102</ele></trkpt><trkpt lat="42.939465" lon="-9.199078"><ele>109</ele></trkpt><trkpt lat="42.93885" lon="-9.199956"><ele>113</ele></trkpt><trkpt lat="42.938159" lon="-9.200742"><ele>117</ele></trkpt><trkpt lat="42.937546" lon="-9.201482"><ele>119</ele></trkpt><trkpt lat="42.936851" lon="-9.202241"><ele>114</ele></trkpt><trkpt lat="42.936566" lon="-9.203074"><ele>109</ele></trkpt><trkpt lat="42.936015" lon="-9.204037"><ele>101</ele></trkpt><trkpt lat="42.935462" lon="-9.204973"><ele>94</ele></trkpt><trkpt lat="42.935391" lon="-9.206188"><ele>93</ele></trkpt><trkpt lat="42.935676" lon="-9.207307"><ele>92</ele></trkpt><trkpt lat="42.936195" lon="-9.20829"><ele>94</ele></trkpt><trkpt lat="42.936573" lon="-9.209384"><ele>88</ele></trkpt><trkpt lat="42.937" lon="-9.210451"><ele>79</ele></trkpt><trkpt lat="42.937567" lon="-9.211405"><ele>80</ele></trkpt><trkpt lat="42.9381" lon="-9.212381"><ele>73</ele></trkpt><trkpt lat="42.938193" lon="-9.213465"><ele>64</ele></trkpt><trkpt lat="42.938493" lon="-9.214591"><ele>53</ele></trkpt><trkpt lat="42.939031" lon="-9.215414"><ele>33</ele></trkpt><trkpt lat="42.939905" lon="-9.215132"><ele>26</ele></trkpt><trkpt lat="42.940788" lon="-9.215004"><ele>25</ele></trkpt><trkpt lat="42.941585" lon="-9.215533"><ele>20</ele></trkpt><trkpt lat="42.942266" lon="-9.216333"><ele>15</ele></trkpt><trkpt lat="42.943151" lon="-9.216413"><ele>12</ele></trkpt><trkpt lat="42.943715" lon="-9.217323"><ele>8</ele></trkpt><trkpt lat="42.944109" lon="-9.218428"><ele>9</ele></trkpt><trkpt lat="42.944289" lon="-9.21961"><ele>13</ele></trkpt><trkpt lat="42.944194" lon="-9.220829"><ele>17</ele></trkpt><trkpt lat="42.944426" lon="-9.222013"><ele>20</ele></trkpt><trkpt lat="42.944302" lon="-9.223182"><ele>24</ele></trkpt><trkpt lat="42.943809" lon="-9.224197"><ele>30</ele></trkpt><trkpt lat="42.943326" lon="-9.225146"><ele>33</ele></trkpt><trkpt lat="42.943153" lon="-9.226326"><ele>29</ele></trkpt><trkpt lat="42.943408" lon="-9.22691"><ele>30</ele></trkpt><trkpt lat="42.943176" lon="-9.228072"><ele>21</ele></trkpt><trkpt lat="42.943044" lon="-9.229281"><ele>13</ele></trkpt><trkpt lat="42.943174" lon="-9.230477"><ele>10</ele></trkpt><trkpt lat="42.943163" lon="-9.231653"><ele>6</ele></trkpt><trkpt lat="42.942929" lon="-9.232828"><ele>8</ele></trkpt><trkpt lat="42.942597" lon="-9.233868"><ele>13</ele></trkpt><trkpt lat="42.941936" lon="-9.23468"><ele>17</ele></trkpt><trkpt lat="42.94162" lon="-9.235714"><ele>26</ele></trkpt><trkpt lat="42.941144" lon="-9.236715"><ele>35</ele></trkpt><trkpt lat="42.940455" lon="-9.237384"><ele>47</ele></trkpt><trkpt lat="42.939567" lon="-9.237481"><ele>45</ele></trkpt><trkpt lat="42.938999" lon="-9.238352"><ele>55</ele></trkpt><trkpt lat="42.938157" lon="-9.238296"><ele>52</ele></trkpt><trkpt lat="42.937278" lon="-9.238368"><ele>59</ele></trkpt><trkpt lat="42.936422" lon="-9.238369"><ele>66</ele></trkpt><trkpt lat="42.935579" lon="-9.237946"><ele>67</ele></trkpt><trkpt lat="42.934798" lon="-9.237481"><ele>71</ele></trkpt><trkpt lat="42.933949" lon="-9.237106"><ele>73</ele></trkpt><trkpt lat="42.933089" lon="-9.23676"><ele>72</ele></trkpt><trkpt lat="42.932209" lon="-9.236851"><ele>78</ele></trkpt><trkpt lat="42.931358" lon="-9.237246"><ele>82</ele></trkpt><trkpt lat="42.930584" lon="-9.237809"><ele>79</ele></trkpt><trkpt lat="42.929714" lon="-9.238123"><ele>79</ele></trkpt><trkpt lat="42.928849" lon="-9.23844"><ele>65</ele></trkpt><trkpt lat="42.928716" lon="-9.239418"><ele>49</ele></trkpt><trkpt lat="42.928948" lon="-9.240392"><ele>41</ele></trkpt><trkpt lat="42.929106" lon="-9.241526"><ele>41</ele></trkpt><trkpt lat="42.928925" lon="-9.242631"><ele>37</ele></trkpt><trkpt lat="42.928429" lon="-9.24358"><ele>34</ele></trkpt><trkpt lat="42.927847" lon="-9.244517"><ele>36</ele></trkpt><trkpt lat="42.927349" lon="-9.245527"><ele>31</ele></trkpt><trkpt lat="42.926927" lon="-9.246507"><ele>25</ele></trkpt><trkpt lat="42.926775" lon="-9.247716"><ele>22</ele></trkpt><trkpt lat="42.926629" lon="-9.248928"><ele>16</ele></trkpt><trkpt lat="42.926487" lon="-9.250135"><ele>14</ele></trkpt><trkpt lat="42.926342" lon="-9.251335"><ele>12</ele></trkpt><trkpt lat="42.926169" lon="-9.252538"><ele>9</ele></trkpt><trkpt lat="42.926051" lon="-9.253703"><ele>12</ele></trkpt><trkpt lat="42.925827" lon="-9.254864"><ele>7</ele></trkpt><trkpt lat="42.925952" lon="-9.25607"><ele>7</ele></trkpt><trkpt lat="42.925509" lon="-9.257099"><ele>6</ele></trkpt><trkpt lat="42.924834" lon="-9.257878"><ele>4</ele></trkpt><trkpt lat="42.924405" lon="-9.258957"><ele>2</ele></trkpt><trkpt lat="42.923968" lon="-9.26003"><ele>2</ele></trkpt><trkpt lat="42.923523" lon="-9.261098"><ele>4</ele></trkpt><trkpt lat="42.922873" lon="-9.261933"><ele>5</ele></trkpt><trkpt lat="42.922143" lon="-9.262637"><ele>5</ele></trkpt><trkpt lat="42.921293" lon="-9.263031"><ele>5</ele></trkpt><trkpt lat="42.920516" lon="-9.26362"><ele>7</ele></trkpt><trkpt lat="42.919777" lon="-9.264302"><ele>8</ele></trkpt><trkpt lat="42.918908" lon="-9.264609"><ele>9</ele></trkpt><trkpt lat="42.918046" lon="-9.264926"><ele>10</ele></trkpt><trkpt lat="42.917217" lon="-9.265355"><ele>10</ele></trkpt><trkpt lat="42.916351" lon="-9.265667"><ele>10</ele></trkpt><trkpt lat="42.915502" lon="-9.265952"><ele>10</ele></trkpt><trkpt lat="42.914738" lon="-9.265319"><ele>8</ele></trkpt><trkpt lat="42.913944" lon="-9.265008"><ele>8</ele></trkpt><trkpt lat="42.913217" lon="-9.264333"><ele>15</ele></trkpt><trkpt lat="42.912355" lon="-9.264107"><ele>22</ele></trkpt><trkpt lat="42.911499" lon="-9.263731"><ele>20</ele></trkpt><trkpt lat="42.91066" lon="-9.263336"><ele>22</ele></trkpt><trkpt lat="42.909856" lon="-9.262791"><ele>24</ele></trkpt><trkpt lat="42.909003" lon="-9.262485"><ele>19</ele></trkpt><trkpt lat="42.908209" lon="-9.263052"><ele>20</ele></trkpt><trkpt lat="42.907427" lon="-9.262993"><ele>15</ele></trkpt><trkpt lat="42.90658" lon="-9.262969"><ele>15</ele></trkpt><trkpt lat="42.905721" lon="-9.262796"><ele>19</ele></trkpt></trkseg></trk></gpx>