<?xml version="1.0" encoding="UTF-8"?>
<gpx version="1.1" creator="Mi Diario del Camino de Santiago" xmlns="http://www.topografix.com/GPX/1/1">
<metadata><name>Etapa 20: Mansilla de las Mulas - León</name><copyright author="OpenStreetMap contributors"><license>https://opendatacommons.org/licenses/odbl/1-0/</license></copyright></metadata>
<trk><name>Etapa 20: Mansilla de las Mulas - León</name><trkseg><trkpt lat="42.499129" lon="-5.417022"><ele>801</ele></trkpt><trkpt lat="42.49936" lon="-5.4179"><ele>800</ele></trkpt><trkpt lat="42.50003" lon="-5.418712"><ele>797</ele></trkpt><trkpt lat="42.50054" lon="-5.419418"><ele>795</ele></trkpt><trkpt lat="42.501356" lon="-5.419929"><ele>792</ele></trkpt><trkpt lat="42.5021" lon="-5.420575"><ele>791</ele></trkpt><trkpt lat="42.502888" lon="-5.421164"><ele>792</ele></trkpt><trkpt lat="42.503681" lon="-5.421739"><ele>792</ele></trkpt><trkpt lat="42.504471" lon="-5.422321"><ele>792</ele></trkpt><trkpt lat="42.505262" lon="-5.422902"><ele>792</ele></trkpt><trkpt lat="42.506056" lon="-5.423474"><ele>791</ele></trkpt><trkpt lat="42.506845" lon="-5.424059"><ele>791</ele></trkpt><trkpt lat="42.507633" lon="-5.424646"><ele>792</ele></trkpt><trkpt lat="42.508427" lon="-5.425222"><ele>792</ele></trkpt><trkpt lat="42.509062" lon="-5.426041"><ele>792</ele></trkpt><trkpt lat="42.509924" lon="-5.42639"><ele>791</ele></trkpt><trkpt lat="42.510742" lon="-5.426887"><ele>793</ele></trkpt><trkpt lat="42.511532" lon="-5.427468"><ele>792</ele></trkpt><trkpt lat="42.512323" lon="-5.42805"><ele>792</ele></trkpt><trkpt lat="42.513114" lon="-5.428631"><ele>793</ele></trkpt><trkpt lat="42.513906" lon="-5.429208"><ele>792</ele></trkpt><trkpt lat="42.514698" lon="-5.429785"><ele>792</ele></trkpt><trkpt lat="42.515488" lon="-5.430368"><ele>792</ele></trkpt><trkpt lat="42.516278" lon="-5.430951"><ele>792</ele></trkpt><trkpt lat="42.51707" lon="-5.431528"><ele>793</ele></trkpt><trkpt lat="42.517862" lon="-5.432107"><ele>792</ele></trkpt><trkpt lat="42.518653" lon="-5.432688"><ele>793</ele></trkpt><trkpt lat="42.519444" lon="-5.433269"><ele>794</ele></trkpt><trkpt lat="42.520236" lon="-5.433847"><ele>795</ele></trkpt><trkpt lat="42.520766" lon="-5.434702"><ele>794</ele></trkpt><trkpt lat="42.521625" lon="-5.434867"><ele>794</ele></trkpt><trkpt lat="42.522415" lon="-5.435449"><ele>796</ele></trkpt><trkpt lat="42.523209" lon="-5.436022"><ele>796</ele></trkpt><trkpt lat="42.524003" lon="-5.436595"><ele>796</ele></trkpt><trkpt lat="42.524791" lon="-5.437181"><ele>796</ele></trkpt><trkpt lat="42.525584" lon="-5.437757"><ele>797</ele></trkpt><trkpt lat="42.526374" lon="-5.438341"><ele>797</ele></trkpt><trkpt lat="42.527163" lon="-5.438925"><ele>795</ele></trkpt><trkpt lat="42.527954" lon="-5.439507"><ele>794</ele></trkpt><trkpt lat="42.528744" lon="-5.440089"><ele>793</ele></trkpt><trkpt lat="42.529535" lon="-5.440671"><ele>794</ele></trkpt><trkpt lat="42.530327" lon="-5.441248"><ele>795</ele></trkpt><trkpt lat="42.531119" lon="-5.441825"><ele>797</ele></trkpt><trkpt lat="42.531887" lon="-5.442313"><ele>798</ele></trkpt><trkpt lat="42.532496" lon="-5.443052"><ele>798</ele></trkpt><trkpt lat="42.532848" lon="-5.444159"><ele>797</ele></trkpt><trkpt lat="42.533581" lon="-5.44478"><ele>797</ele></trkpt><trkpt lat="42.53435" lon="-5.44535"><ele>798</ele></trkpt><trkpt lat="42.534977" lon="-5.445184"><ele>799</ele></trkpt><trkpt lat="42.535703" lon="-5.445106"><ele>799</ele></trkpt><trkpt lat="42.536493" lon="-5.44569"><ele>801</ele></trkpt><trkpt lat="42.537282" lon="-5.446273"><ele>800</ele></trkpt><trkpt lat="42.538027" lon="-5.446918"><ele>798</ele></trkpt><trkpt lat="42.538819" lon="-5.447496"><ele>797</ele></trkpt><trkpt lat="42.539611" lon="-5.448074"><ele>797</ele></trkpt><trkpt lat="42.540399" lon="-5.448662"><ele>797</ele></trkpt><trkpt lat="42.541211" lon="-5.449095"><ele>798</ele></trkpt><trkpt lat="42.541882" lon="-5.449732"><ele>799</ele></trkpt><trkpt lat="42.542608" lon="-5.450401"><ele>799</ele></trkpt><trkpt lat="42.542793" lon="-5.451369"><ele>798</ele></trkpt><trkpt lat="42.54335" lon="-5.452299"><ele>801</ele></trkpt><trkpt lat="42.543614" lon="-5.453464"><ele>802</ele></trkpt><trkpt lat="42.543942" lon="-5.454583"><ele>803</ele></trkpt><trkpt lat="42.544234" lon="-5.455719"><ele>804</ele></trkpt><trkpt lat="42.544412" lon="-5.456915"><ele>805</ele></trkpt><trkpt lat="42.544732" lon="-5.458045"><ele>808</ele></trkpt><trkpt lat="42.545342" lon="-5.45894"><ele>807</ele></trkpt><trkpt lat="42.545937" lon="-5.459854"><ele>807</ele></trkpt><trkpt lat="42.546562" lon="-5.460732"><ele>808</ele></trkpt><trkpt lat="42.547207" lon="-5.461582"><ele>807</ele></trkpt><trkpt lat="42.547848" lon="-5.462434"><ele>807</ele></trkpt><trkpt lat="42.548472" lon="-5.463314"><ele>807</ele></trkpt><trkpt lat="42.549104" lon="-5.464183"><ele>808</ele></trkpt><trkpt lat="42.549731" lon="-5.465057"><ele>808</ele></trkpt><trkpt lat="42.550354" lon="-5.465938"><ele>808</ele></trkpt><trkpt lat="42.551015" lon="-5.46643"><ele>807</ele></trkpt><trkpt lat="42.551769" lon="-5.467029"><ele>807</ele></trkpt><trkpt lat="42.552473" lon="-5.467789"><ele>808</ele></trkpt><trkpt lat="42.553204" lon="-5.468501"><ele>812</ele></trkpt><trkpt lat="42.553892" lon="-5.46928"><ele>814</ele></trkpt><trkpt lat="42.554539" lon="-5.470121"><ele>816</ele></trkpt><trkpt lat="42.555135" lon="-5.471003"><ele>816</ele></trkpt><trkpt lat="42.555679" lon="-5.471974"><ele>818</ele></trkpt><trkpt lat="42.556171" lon="-5.472991"><ele>818</ele></trkpt><trkpt lat="42.556534" lon="-5.474102"><ele>819</ele></trkpt><trkpt lat="42.556948" lon="-5.475187"><ele>819</ele></trkpt><trkpt lat="42.557523" lon="-5.476117"><ele>821</ele></trkpt><trkpt lat="42.558122" lon="-5.477028"><ele>822</ele></trkpt><trkpt lat="42.558671" lon="-5.477995"><ele>822</ele></trkpt><trkpt lat="42.55916" lon="-5.479019"><ele>824</ele></trkpt><trkpt lat="42.559802" lon="-5.479861"><ele>826</ele></trkpt><trkpt lat="42.560526" lon="-5.480585"><ele>828</ele></trkpt><trkpt lat="42.561183" lon="-5.481412"><ele>828</ele></trkpt><trkpt lat="42.561811" lon="-5.482284"><ele>827</ele></trkpt><trkpt lat="42.562461" lon="-5.483128"><ele>826</ele></trkpt><trkpt lat="42.562918" lon="-5.484149"><ele>828</ele></trkpt><trkpt lat="42.563309" lon="-5.485248"><ele>828</ele></trkpt><trkpt lat="42.563977" lon="-5.486013"><ele>828</ele></trkpt><trkpt lat="42.564417" lon="-5.486928"><ele>828</ele></trkpt><trkpt lat="42.564387" lon="-5.488149"><ele>829</ele></trkpt><trkpt lat="42.564753" lon="-5.489258"><ele>829</ele></trkpt><trkpt lat="42.565143" lon="-5.490358"><ele>831</ele></trkpt><trkpt lat="42.565481" lon="-5.491489"><ele>835</ele></trkpt><trkpt lat="42.565834" lon="-5.492611"><ele>836</ele></trkpt><trkpt lat="42.566334" lon="-5.493624"><ele>838</ele></trkpt><trkpt lat="42.566723" lon="-5.494716"><ele>850</ele></trkpt><trkpt lat="42.56707" lon="-5.49581"><ele>853</ele></trkpt><trkpt lat="42.567545" lon="-5.496712"><ele>853</ele></trkpt><trkpt lat="42.567695" lon="-5.497906"><ele>852</ele></trkpt><trkpt lat="42.567824" lon="-5.499115"><ele>849</ele></trkpt><trkpt lat="42.567965" lon="-5.500321"><ele>846</ele></trkpt><trkpt lat="42.568131" lon="-5.501521"><ele>846</ele></trkpt><trkpt lat="42.568318" lon="-5.502715"><ele>847</ele></trkpt><trkpt lat="42.568561" lon="-5.503888"><ele>847</ele></trkpt><trkpt lat="42.568903" lon="-5.505017"><ele>848</ele></trkpt><trkpt lat="42.569323" lon="-5.506097"><ele>848</ele></trkpt><trkpt lat="42.569626" lon="-5.507244"><ele>849</ele></trkpt><trkpt lat="42.569883" lon="-5.508414"><ele>851</ele></trkpt><trkpt lat="42.570139" lon="-5.509585"><ele>856</ele></trkpt><trkpt lat="42.570383" lon="-5.51076"><ele>861</ele></trkpt><trkpt lat="42.570623" lon="-5.511937"><ele>864</ele></trkpt><trkpt lat="42.570885" lon="-5.513105"><ele>866</ele></trkpt><trkpt lat="42.571148" lon="-5.514273"><ele>872</ele></trkpt><trkpt lat="42.571405" lon="-5.515443"><ele>881</ele></trkpt><trkpt lat="42.571671" lon="-5.516609"><ele>885</ele></trkpt><trkpt lat="42.57193" lon="-5.517779"><ele>888</ele></trkpt><trkpt lat="42.572204" lon="-5.518941"><ele>886</ele></trkpt><trkpt lat="42.572478" lon="-5.520105"><ele>883</ele></trkpt><trkpt lat="42.572658" lon="-5.52126"><ele>881</ele></trkpt><trkpt lat="42.572966" lon="-5.522397"><ele>880</ele></trkpt><trkpt lat="42.573217" lon="-5.52357"><ele>884</ele></trkpt><trkpt lat="42.572962" lon="-5.524511"><ele>887</ele></trkpt><trkpt lat="42.572305" lon="-5.525313"><ele>888</ele></trkpt><trkpt lat="42.572116" lon="-5.526284"><ele>890</ele></trkpt><trkpt lat="42.572548" lon="-5.527314"><ele>894</ele></trkpt><trkpt lat="42.573223" lon="-5.527896"><ele>899</ele></trkpt><trkpt lat="42.573378" lon="-5.529093"><ele>898</ele></trkpt><trkpt lat="42.573872" lon="-5.530108"><ele>898</ele></trkpt><trkpt lat="42.573979" lon="-5.530796"><ele>899</ele></trkpt><trkpt lat="42.574024" lon="-5.531721"><ele>900</ele></trkpt><trkpt lat="42.574328" lon="-5.532869"><ele>900</ele></trkpt><trkpt lat="42.574477" lon="-5.534054"><ele>889</ele></trkpt><trkpt lat="42.574659" lon="-5.535248"><ele>881</ele></trkpt><trkpt lat="42.5748" lon="-5.536439"><ele>875</ele></trkpt><trkpt lat="42.574949" lon="-5.537643"><ele>872</ele></trkpt><trkpt lat="42.575009" lon="-5.538788"><ele>866</ele></trkpt><trkpt lat="42.575365" lon="-5.53988"><ele>863</ele></trkpt><trkpt lat="42.575638" lon="-5.54104"><ele>857</ele></trkpt><trkpt lat="42.576065" lon="-5.542114"><ele>853</ele></trkpt><trkpt lat="42.576444" lon="-5.543184"><ele>850</ele></trkpt><trkpt lat="42.576874" lon="-5.544073"><ele>847</ele></trkpt><trkpt lat="42.577377" lon="-5.544976"><ele>842</ele></trkpt><trkpt lat="42.577855" lon="-5.54601"><ele>838</ele></trkpt><trkpt lat="42.578339" lon="-5.54704"><ele>834</ele></trkpt><trkpt lat="42.578817" lon="-5.548074"><ele>833</ele></trkpt><trkpt lat="42.579248" lon="-5.548967"><ele>832</ele></trkpt><trkpt lat="42.579728" lon="-5.549999"><ele>828</ele></trkpt><trkpt lat="42.580209" lon="-5.551032"><ele>827</ele></trkpt><trkpt lat="42.580706" lon="-5.552049"><ele>824</ele></trkpt><trkpt lat="42.580942" lon="-5.553188"><ele>821</ele></trkpt><trkpt lat="42.581195" lon="-5.554327"><ele>818</ele></trkpt><trkpt lat="42.581244" lon="-5.555335"><ele>816</ele></trkpt><trkpt lat="42.581808" lon="-5.555992"><ele>815</ele></trkpt><trkpt lat="42.582456" lon="-5.556718"><ele>818</ele></trkpt><trkpt lat="42.58311" lon="-5.556688"><ele>820</ele></trkpt><trkpt lat="42.583836" lon="-5.557408"><ele>818</ele></trkpt><trkpt lat="42.58458" lon="-5.558095"><ele>818</ele></trkpt><trkpt lat="42.585322" lon="-5.558784"><ele>820</ele></trkpt><trkpt lat="42.586067" lon="-5.559469"><ele>821</ele></trkpt><trkpt lat="42.586809" lon="-5.560158"><ele>820</ele></trkpt><trkpt lat="42.587411" lon="-5.561019"><ele>822</ele></trkpt><trkpt lat="42.588212" lon="-5.561403"><ele>821</ele></trkpt><trkpt lat="42.58901" lon="-5.561965"><ele>826</ele></trkpt><trkpt lat="42.589809" lon="-5.562527"><ele>830</ele></trkpt><trkpt lat="42.590544" lon="-5.563225"><ele>827</ele></trkpt><trkpt lat="42.591154" lon="-5.564122"><ele>826</ele></trkpt><trkpt lat="42.591732" lon="-5.565054"><ele>828</ele></trkpt><trkpt lat="42.592201" lon="-5.566089"><ele>830</ele></trkpt><trkpt lat="42.592837" lon="-5.566778"><ele>832</ele></trkpt><trkpt lat="42.593489" lon="-5.567621"><ele>833</ele></trkpt><trkpt lat="42.594156" lon="-5.568437"><ele>831</ele></trkpt><trkpt lat="42.594894" lon="-5.569137"><ele>833</ele></trkpt><trkpt lat="42.595663" lon="-5.569694"><ele>834</ele></trkpt><trkpt lat="42.596555" lon="-5.569845"><ele>837</ele></trkpt><trkpt lat="42.597437" lon="-5.570059"><ele>839</ele></trkpt><trkpt lat="42.598177" lon="-5.569989"><ele>839</ele></trkpt><trkpt lat="42.598462" lon="-5.568834"><ele>842</ele></trkpt><trkpt lat="42.598716" lon="-5.567662"><ele>844</ele></trkpt><trkpt lat="42.599313" lon="-5.567576"><ele>845</ele></trkpt></trkseg></trk></gpx>