<?xml version="1.0" encoding="UTF-8"?>
<gpx version="1.1" creator="Mi Diario del Camino de Santiago" xmlns="http://www.topografix.com/GPX/1/1">
<metadata><name>Etapa 25: Ponferrada - Villafranca del Bierzo</name><copyright author="OpenStreetMap contributors"><license>https://opendatacommons.org/licenses/odbl/1-0/</license></copyright></metadata>
<trk><name>Etapa 25: Ponferrada - Villafranca del Bierzo</name><trkseg><trkpt lat="42.544072" lon="-6.592619"><ele>538</ele></trkpt><trkpt lat="42.544794" lon="-6.592065"><ele>539</ele></trkpt><trkpt lat="42.545499" lon="-6.591309"><ele>539</ele></trkpt><trkpt lat="42.546202" lon="-6.590926"><ele>535</ele></trkpt><trkpt lat="42.546392" lon="-6.591342"><ele>530</ele></trkpt><trkpt lat="42.546734" lon="-6.592418"><ele>517</ele></trkpt><trkpt lat="42.547059" lon="-6.593395"><ele>510</ele></trkpt><trkpt lat="42.547642" lon="-6.593893"><ele>512</ele></trkpt><trkpt lat="42.547871" lon="-6.595072"><ele>512</ele></trkpt><trkpt lat="42.548262" lon="-6.59599"><ele>513</ele></trkpt><trkpt lat="42.549133" lon="-6.595693"><ele>514</ele></trkpt><trkpt lat="42.550007" lon="-6.595404"><ele>512</ele></trkpt><trkpt lat="42.550879" lon="-6.595106"><ele>513</ele></trkpt><trkpt lat="42.551442" lon="-6.594665"><ele>511</ele></trkpt><trkpt lat="42.55208" lon="-6.59438"><ele>513</ele></trkpt><trkpt lat="42.552831" lon="-6.594235"><ele>514</ele></trkpt><trkpt lat="42.553673" lon="-6.594092"><ele>517</ele></trkpt><trkpt lat="42.554556" lon="-6.593968"><ele>521</ele></trkpt><trkpt lat="42.55535" lon="-6.594448"><ele>525</ele></trkpt><trkpt lat="42.556075" lon="-6.593953"><ele>528</ele></trkpt><trkpt lat="42.556632" lon="-6.593081"><ele>525</ele></trkpt><trkpt lat="42.557271" lon="-6.592554"><ele>527</ele></trkpt><trkpt lat="42.557938" lon="-6.591869"><ele>528</ele></trkpt><trkpt lat="42.558237" lon="-6.590733"><ele>526</ele></trkpt><trkpt lat="42.55847" lon="-6.589554"><ele>528</ele></trkpt><trkpt lat="42.558915" lon="-6.588685"><ele>534</ele></trkpt><trkpt lat="42.559563" lon="-6.589418"><ele>529</ele></trkpt><trkpt lat="42.560205" lon="-6.590273"><ele>530</ele></trkpt><trkpt lat="42.560842" lon="-6.591134"><ele>537</ele></trkpt><trkpt lat="42.561476" lon="-6.592"><ele>539</ele></trkpt><trkpt lat="42.562117" lon="-6.592857"><ele>539</ele></trkpt><trkpt lat="42.562617" lon="-6.59345"><ele>539</ele></trkpt><trkpt lat="42.56309" lon="-6.594296"><ele>540</ele></trkpt><trkpt lat="42.563725" lon="-6.595043"><ele>538</ele></trkpt><trkpt lat="42.564002" lon="-6.595908"><ele>536</ele></trkpt><trkpt lat="42.564642" lon="-6.596766"><ele>534</ele></trkpt><trkpt lat="42.565287" lon="-6.597616"><ele>535</ele></trkpt><trkpt lat="42.565994" lon="-6.598302"><ele>536</ele></trkpt><trkpt lat="42.56673" lon="-6.599"><ele>538</ele></trkpt><trkpt lat="42.567416" lon="-6.599789"><ele>540</ele></trkpt><trkpt lat="42.568121" lon="-6.600533"><ele>543</ele></trkpt><trkpt lat="42.568865" lon="-6.601216"><ele>544</ele></trkpt><trkpt lat="42.569723" lon="-6.601559"><ele>544</ele></trkpt><trkpt lat="42.570552" lon="-6.602014"><ele>542</ele></trkpt><trkpt lat="42.570931" lon="-6.603076"><ele>542</ele></trkpt><trkpt lat="42.571551" lon="-6.60395"><ele>544</ele></trkpt><trkpt lat="42.572069" lon="-6.604787"><ele>542</ele></trkpt><trkpt lat="42.572263" lon="-6.605969"><ele>539</ele></trkpt><trkpt lat="42.572333" lon="-6.607187"><ele>534</ele></trkpt><trkpt lat="42.572473" lon="-6.608382"><ele>530</ele></trkpt><trkpt lat="42.572695" lon="-6.609248"><ele>528</ele></trkpt><trkpt lat="42.573047" lon="-6.610368"><ele>526</ele></trkpt><trkpt lat="42.573556" lon="-6.611336"><ele>524</ele></trkpt><trkpt lat="42.574282" lon="-6.612023"><ele>523</ele></trkpt><trkpt lat="42.574567" lon="-6.613139"><ele>521</ele></trkpt><trkpt lat="42.574646" lon="-6.614355"><ele>521</ele></trkpt><trkpt lat="42.574739" lon="-6.61557"><ele>519</ele></trkpt><trkpt lat="42.574885" lon="-6.616774"><ele>518</ele></trkpt><trkpt lat="42.575071" lon="-6.617968"><ele>518</ele></trkpt><trkpt lat="42.57521" lon="-6.619174"><ele>518</ele></trkpt><trkpt lat="42.575309" lon="-6.620387"><ele>516</ele></trkpt><trkpt lat="42.575362" lon="-6.621605"><ele>516</ele></trkpt><trkpt lat="42.575459" lon="-6.622819"><ele>517</ele></trkpt><trkpt lat="42.575536" lon="-6.624035"><ele>516</ele></trkpt><trkpt lat="42.575685" lon="-6.625236"><ele>517</ele></trkpt><trkpt lat="42.575857" lon="-6.626434"><ele>515</ele></trkpt><trkpt lat="42.576017" lon="-6.627629"><ele>513</ele></trkpt><trkpt lat="42.576403" lon="-6.62873"><ele>513</ele></trkpt><trkpt lat="42.576921" lon="-6.629724"><ele>511</ele></trkpt><trkpt lat="42.577516" lon="-6.630637"><ele>511</ele></trkpt><trkpt lat="42.577956" lon="-6.631699"><ele>512</ele></trkpt><trkpt lat="42.578001" lon="-6.632879"><ele>510</ele></trkpt><trkpt lat="42.577745" lon="-6.634049"><ele>508</ele></trkpt><trkpt lat="42.577349" lon="-6.635144"><ele>509</ele></trkpt><trkpt lat="42.577063" lon="-6.636299"><ele>510</ele></trkpt><trkpt lat="42.576947" lon="-6.6375"><ele>510</ele></trkpt><trkpt lat="42.576798" lon="-6.638697"><ele>508</ele></trkpt><trkpt lat="42.576936" lon="-6.639877"><ele>508</ele></trkpt><trkpt lat="42.577317" lon="-6.64098"><ele>506</ele></trkpt><trkpt lat="42.577359" lon="-6.642198"><ele>505</ele></trkpt><trkpt lat="42.577354" lon="-6.643419"><ele>504</ele></trkpt><trkpt lat="42.577388" lon="-6.644638"><ele>504</ele></trkpt><trkpt lat="42.577325" lon="-6.645853"><ele>505</ele></trkpt><trkpt lat="42.577176" lon="-6.647057"><ele>504</ele></trkpt><trkpt lat="42.577091" lon="-6.648272"><ele>504</ele></trkpt><trkpt lat="42.576986" lon="-6.649485"><ele>504</ele></trkpt><trkpt lat="42.576927" lon="-6.650703"><ele>503</ele></trkpt><trkpt lat="42.576979" lon="-6.651922"><ele>501</ele></trkpt><trkpt lat="42.577101" lon="-6.653131"><ele>499</ele></trkpt><trkpt lat="42.576968" lon="-6.654324"><ele>497</ele></trkpt><trkpt lat="42.576955" lon="-6.655528"><ele>495</ele></trkpt><trkpt lat="42.576955" lon="-6.656743"><ele>496</ele></trkpt><trkpt lat="42.576587" lon="-6.657837"><ele>499</ele></trkpt><trkpt lat="42.576295" lon="-6.658982"><ele>499</ele></trkpt><trkpt lat="42.576134" lon="-6.660183"><ele>497</ele></trkpt><trkpt lat="42.576236" lon="-6.661326"><ele>496</ele></trkpt><trkpt lat="42.576683" lon="-6.662385"><ele>495</ele></trkpt><trkpt lat="42.577088" lon="-6.663476"><ele>494</ele></trkpt><trkpt lat="42.577483" lon="-6.664573"><ele>493</ele></trkpt><trkpt lat="42.57787" lon="-6.665675"><ele>492</ele></trkpt><trkpt lat="42.578396" lon="-6.666659"><ele>493</ele></trkpt><trkpt lat="42.578868" lon="-6.667436"><ele>492</ele></trkpt><trkpt lat="42.579396" lon="-6.668333"><ele>491</ele></trkpt><trkpt lat="42.579857" lon="-6.669382"><ele>491</ele></trkpt><trkpt lat="42.58032" lon="-6.670429"><ele>492</ele></trkpt><trkpt lat="42.580786" lon="-6.671473"><ele>492</ele></trkpt><trkpt lat="42.581342" lon="-6.672421"><ele>492</ele></trkpt><trkpt lat="42.582051" lon="-6.673172"><ele>494</ele></trkpt><trkpt lat="42.582759" lon="-6.673926"><ele>494</ele></trkpt><trkpt lat="42.583374" lon="-6.674672"><ele>495</ele></trkpt><trkpt lat="42.584063" lon="-6.675259"><ele>496</ele></trkpt><trkpt lat="42.584726" lon="-6.676038"><ele>501</ele></trkpt><trkpt lat="42.585439" lon="-6.676782"><ele>507</ele></trkpt><trkpt lat="42.586143" lon="-6.677531"><ele>514</ele></trkpt><trkpt lat="42.58681" lon="-6.678342"><ele>516</ele></trkpt><trkpt lat="42.587304" lon="-6.679288"><ele>524</ele></trkpt><trkpt lat="42.586934" lon="-6.680389"><ele>523</ele></trkpt><trkpt lat="42.58726" lon="-6.681503"><ele>520</ele></trkpt><trkpt lat="42.587838" lon="-6.682433"><ele>519</ele></trkpt><trkpt lat="42.588272" lon="-6.683494"><ele>517</ele></trkpt><trkpt lat="42.588284" lon="-6.684709"><ele>516</ele></trkpt><trkpt lat="42.588487" lon="-6.685898"><ele>513</ele></trkpt><trkpt lat="42.588795" lon="-6.687042"><ele>506</ele></trkpt><trkpt lat="42.589127" lon="-6.688177"><ele>501</ele></trkpt><trkpt lat="42.589394" lon="-6.689312"><ele>500</ele></trkpt><trkpt lat="42.589473" lon="-6.690502"><ele>496</ele></trkpt><trkpt lat="42.589811" lon="-6.691611"><ele>496</ele></trkpt><trkpt lat="42.590442" lon="-6.69243"><ele>496</ele></trkpt><trkpt lat="42.590824" lon="-6.693511"><ele>495</ele></trkpt><trkpt lat="42.591208" lon="-6.694616"><ele>495</ele></trkpt><trkpt lat="42.591543" lon="-6.695749"><ele>495</ele></trkpt><trkpt lat="42.591924" lon="-6.696855"><ele>494</ele></trkpt><trkpt lat="42.592287" lon="-6.697972"><ele>494</ele></trkpt><trkpt lat="42.592643" lon="-6.699093"><ele>495</ele></trkpt><trkpt lat="42.592976" lon="-6.700228"><ele>498</ele></trkpt><trkpt lat="42.593206" lon="-6.701407"><ele>502</ele></trkpt><trkpt lat="42.593454" lon="-6.702578"><ele>506</ele></trkpt><trkpt lat="42.593734" lon="-6.70373"><ele>510</ele></trkpt><trkpt lat="42.594119" lon="-6.704814"><ele>512</ele></trkpt><trkpt lat="42.594507" lon="-6.705916"><ele>514</ele></trkpt><trkpt lat="42.594943" lon="-6.706984"><ele>514</ele></trkpt><trkpt lat="42.595384" lon="-6.708049"><ele>510</ele></trkpt><trkpt lat="42.595815" lon="-6.709122"><ele>506</ele></trkpt><trkpt lat="42.596237" lon="-6.7102"><ele>504</ele></trkpt><trkpt lat="42.59665" lon="-6.711286"><ele>504</ele></trkpt><trkpt lat="42.597056" lon="-6.712375"><ele>505</ele></trkpt><trkpt lat="42.597529" lon="-6.713401"><ele>504</ele></trkpt><trkpt lat="42.598233" lon="-6.71416"><ele>504</ele></trkpt><trkpt lat="42.598794" lon="-6.715083"><ele>496</ele></trkpt><trkpt lat="42.599391" lon="-6.715985"><ele>486</ele></trkpt><trkpt lat="42.599596" lon="-6.717032"><ele>485</ele></trkpt><trkpt lat="42.599625" lon="-6.718253"><ele>485</ele></trkpt><trkpt lat="42.599663" lon="-6.719474"><ele>484</ele></trkpt><trkpt lat="42.59969" lon="-6.720695"><ele>484</ele></trkpt><trkpt lat="42.599764" lon="-6.721912"><ele>485</ele></trkpt><trkpt lat="42.599772" lon="-6.723105"><ele>486</ele></trkpt><trkpt lat="42.599879" lon="-6.724316"><ele>483</ele></trkpt><trkpt lat="42.599759" lon="-6.725517"><ele>484</ele></trkpt><trkpt lat="42.599693" lon="-6.726612"><ele>482</ele></trkpt><trkpt lat="42.599997" lon="-6.727746"><ele>479</ele></trkpt><trkpt lat="42.600038" lon="-6.728965"><ele>477</ele></trkpt><trkpt lat="42.600086" lon="-6.730185"><ele>475</ele></trkpt><trkpt lat="42.600144" lon="-6.731398"><ele>476</ele></trkpt><trkpt lat="42.600451" lon="-6.732541"><ele>474</ele></trkpt><trkpt lat="42.600736" lon="-6.733699"><ele>475</ele></trkpt><trkpt lat="42.601002" lon="-6.734771"><ele>476</ele></trkpt><trkpt lat="42.601321" lon="-6.735913"><ele>478</ele></trkpt><trkpt lat="42.601665" lon="-6.737042"><ele>479</ele></trkpt><trkpt lat="42.602134" lon="-6.73808"><ele>481</ele></trkpt><trkpt lat="42.602642" lon="-6.739088"><ele>482</ele></trkpt><trkpt lat="42.603157" lon="-6.74009"><ele>487</ele></trkpt><trkpt lat="42.603671" lon="-6.741093"><ele>496</ele></trkpt><trkpt lat="42.604189" lon="-6.742091"><ele>500</ele></trkpt><trkpt lat="42.604633" lon="-6.743148"><ele>503</ele></trkpt><trkpt lat="42.604839" lon="-6.744337"><ele>509</ele></trkpt><trkpt lat="42.605033" lon="-6.74553"><ele>518</ele></trkpt><trkpt lat="42.605222" lon="-6.746724"><ele>524</ele></trkpt><trkpt lat="42.60541" lon="-6.747919"><ele>529</ele></trkpt><trkpt lat="42.605603" lon="-6.749113"><ele>536</ele></trkpt><trkpt lat="42.605805" lon="-6.750303"><ele>539</ele></trkpt><trkpt lat="42.605958" lon="-6.751507"><ele>545</ele></trkpt><trkpt lat="42.606065" lon="-6.75272"><ele>550</ele></trkpt><trkpt lat="42.606158" lon="-6.753935"><ele>556</ele></trkpt><trkpt lat="42.606227" lon="-6.755153"><ele>564</ele></trkpt><trkpt lat="42.605946" lon="-6.756307"><ele>569</ele></trkpt><trkpt lat="42.605678" lon="-6.757473"><ele>565</ele></trkpt><trkpt lat="42.605415" lon="-6.758642"><ele>559</ele></trkpt><trkpt lat="42.605157" lon="-6.759812"><ele>552</ele></trkpt><trkpt lat="42.604829" lon="-6.760949"><ele>547</ele></trkpt><trkpt lat="42.604466" lon="-6.762066"><ele>539</ele></trkpt><trkpt lat="42.60435" lon="-6.763261"><ele>528</ele></trkpt><trkpt lat="42.604366" lon="-6.764482"><ele>522</ele></trkpt><trkpt lat="42.604184" lon="-6.765672"><ele>520</ele></trkpt><trkpt lat="42.603698" lon="-6.766695"><ele>520</ele></trkpt><trkpt lat="42.603152" lon="-6.767666"><ele>519</ele></trkpt><trkpt lat="42.602554" lon="-6.768572"><ele>521</ele></trkpt><trkpt lat="42.601893" lon="-6.769402"><ele>528</ele></trkpt><trkpt lat="42.60133" lon="-6.770332"><ele>532</ele></trkpt><trkpt lat="42.601364" lon="-6.771546"><ele>535</ele></trkpt><trkpt lat="42.601468" lon="-6.772759"><ele>529</ele></trkpt><trkpt lat="42.601675" lon="-6.773948"><ele>520</ele></trkpt><trkpt lat="42.60166" lon="-6.775153"><ele>519</ele></trkpt><trkpt lat="42.601243" lon="-6.776229"><ele>517</ele></trkpt><trkpt lat="42.601536" lon="-6.777259"><ele>522</ele></trkpt><trkpt lat="42.601568" lon="-6.778478"><ele>527</ele></trkpt><trkpt lat="42.601567" lon="-6.779696"><ele>532</ele></trkpt><trkpt lat="42.601565" lon="-6.780917"><ele>545</ele></trkpt><trkpt lat="42.601742" lon="-6.782103"><ele>553</ele></trkpt><trkpt lat="42.602076" lon="-6.783237"><ele>555</ele></trkpt><trkpt lat="42.602057" lon="-6.784442"><ele>547</ele></trkpt><trkpt lat="42.602283" lon="-6.785615"><ele>547</ele></trkpt><trkpt lat="42.602475" lon="-6.786709"><ele>548</ele></trkpt><trkpt lat="42.602582" lon="-6.787847"><ele>553</ele></trkpt><trkpt lat="42.603242" lon="-6.788652"><ele>560</ele></trkpt><trkpt lat="42.603876" lon="-6.789517"><ele>565</ele></trkpt><trkpt lat="42.604202" lon="-6.790637"><ele>568</ele></trkpt><trkpt lat="42.60473" lon="-6.791621"><ele>573</ele></trkpt><trkpt lat="42.604741" lon="-6.792837"><ele>576</ele></trkpt><trkpt lat="42.604769" lon="-6.794057"><ele>581</ele></trkpt><trkpt lat="42.604758" lon="-6.795278"><ele>580</ele></trkpt><trkpt lat="42.60468" lon="-6.796494"><ele>573</ele></trkpt><trkpt lat="42.604209" lon="-6.797532"><ele>567</ele></trkpt><trkpt lat="42.603917" lon="-6.79866"><ele>569</ele></trkpt><trkpt lat="42.604031" lon="-6.799871"><ele>567</ele></trkpt><trkpt lat="42.60419" lon="-6.801072"><ele>560</ele></trkpt><trkpt lat="42.604421" lon="-6.802252"><ele>555</ele></trkpt><trkpt lat="42.60447" lon="-6.803466"><ele>551</ele></trkpt><trkpt lat="42.604519" lon="-6.804685"><ele>546</ele></trkpt><trkpt lat="42.604523" lon="-6.805906"><ele>537</ele></trkpt><trkpt lat="42.604341" lon="-6.807099"><ele>530</ele></trkpt><trkpt lat="42.604195" lon="-6.807708"><ele>527</ele></trkpt></trkseg></trk></gpx>