<?xml version="1.0" encoding="UTF-8"?>
<gpx version="1.1" creator="Mi Diario del Camino de Santiago" xmlns="http://www.topografix.com/GPX/1/1">
<metadata><name>Etapa 10: Santo Domingo de la Calzada - Belorado</name><copyright author="OpenStreetMap contributors"><license>https://opendatacommons.org/licenses/odbl/1-0/</license></copyright></metadata>
<trk><name>Etapa 10: Santo Domingo de la Calzada - Belorado</name><trkseg><trkpt lat="42.440909" lon="-2.953835"><ele>646</ele></trkpt><trkpt lat="42.441019" lon="-2.955041"><ele>643</ele></trkpt><trkpt lat="42.44109" lon="-2.956256"><ele>642</ele></trkpt><trkpt lat="42.441009" lon="-2.957245"><ele>642</ele></trkpt><trkpt lat="42.441125" lon="-2.958452"><ele>640</ele></trkpt><trkpt lat="42.441522" lon="-2.959533"><ele>640</ele></trkpt><trkpt lat="42.441895" lon="-2.960601"><ele>637</ele></trkpt><trkpt lat="42.442235" lon="-2.961729"><ele>637</ele></trkpt><trkpt lat="42.44269" lon="-2.962723"><ele>639</ele></trkpt><trkpt lat="42.443227" lon="-2.963697"><ele>639</ele></trkpt><trkpt lat="42.443857" lon="-2.964561"><ele>639</ele></trkpt><trkpt lat="42.444338" lon="-2.965429"><ele>638</ele></trkpt><trkpt lat="42.444716" lon="-2.96653"><ele>637</ele></trkpt><trkpt lat="42.444972" lon="-2.967695"><ele>637</ele></trkpt><trkpt lat="42.445188" lon="-2.968878"><ele>633</ele></trkpt><trkpt lat="42.445477" lon="-2.970032"><ele>632</ele></trkpt><trkpt lat="42.445742" lon="-2.971196"><ele>631</ele></trkpt><trkpt lat="42.445427" lon="-2.971916"><ele>630</ele></trkpt><trkpt lat="42.445561" lon="-2.972997"><ele>630</ele></trkpt><trkpt lat="42.445917" lon="-2.974116"><ele>631</ele></trkpt><trkpt lat="42.446272" lon="-2.975236"><ele>631</ele></trkpt><trkpt lat="42.446624" lon="-2.976358"><ele>631</ele></trkpt><trkpt lat="42.446976" lon="-2.977479"><ele>632</ele></trkpt><trkpt lat="42.447293" lon="-2.97862"><ele>633</ele></trkpt><trkpt lat="42.447577" lon="-2.979776"><ele>634</ele></trkpt><trkpt lat="42.447962" lon="-2.980853"><ele>636</ele></trkpt><trkpt lat="42.448159" lon="-2.982033"><ele>638</ele></trkpt><trkpt lat="42.448449" lon="-2.983186"><ele>639</ele></trkpt><trkpt lat="42.448772" lon="-2.984322"><ele>640</ele></trkpt><trkpt lat="42.449135" lon="-2.985437"><ele>642</ele></trkpt><trkpt lat="42.449638" lon="-2.986072"><ele>644</ele></trkpt><trkpt lat="42.449942" lon="-2.987219"><ele>648</ele></trkpt><trkpt lat="42.450154" lon="-2.988401"><ele>653</ele></trkpt><trkpt lat="42.450278" lon="-2.989608"><ele>658</ele></trkpt><trkpt lat="42.450406" lon="-2.990814"><ele>664</ele></trkpt><trkpt lat="42.450585" lon="-2.992008"><ele>668</ele></trkpt><trkpt lat="42.450749" lon="-2.993206"><ele>670</ele></trkpt><trkpt lat="42.450927" lon="-2.994401"><ele>669</ele></trkpt><trkpt lat="42.451113" lon="-2.995593"><ele>665</ele></trkpt><trkpt lat="42.45131" lon="-2.996783"><ele>666</ele></trkpt><trkpt lat="42.451501" lon="-2.997973"><ele>665</ele></trkpt><trkpt lat="42.451646" lon="-2.999176"><ele>662</ele></trkpt><trkpt lat="42.451778" lon="-3.000381"><ele>660</ele></trkpt><trkpt lat="42.451899" lon="-3.001589"><ele>658</ele></trkpt><trkpt lat="42.451967" lon="-3.002804"><ele>659</ele></trkpt><trkpt lat="42.452029" lon="-3.00402"><ele>659</ele></trkpt><trkpt lat="42.452266" lon="-3.005091"><ele>660</ele></trkpt><trkpt lat="42.45211" lon="-3.006138"><ele>661</ele></trkpt><trkpt lat="42.452239" lon="-3.007344"><ele>666</ele></trkpt><trkpt lat="42.452371" lon="-3.008549"><ele>670</ele></trkpt><trkpt lat="42.452506" lon="-3.009755"><ele>675</ele></trkpt><trkpt lat="42.452636" lon="-3.010961"><ele>680</ele></trkpt><trkpt lat="42.452748" lon="-3.01217"><ele>681</ele></trkpt><trkpt lat="42.452849" lon="-3.013381"><ele>681</ele></trkpt><trkpt lat="42.45295" lon="-3.014592"><ele>683</ele></trkpt><trkpt lat="42.45305" lon="-3.015803"><ele>685</ele></trkpt><trkpt lat="42.452963" lon="-3.017008"><ele>686</ele></trkpt><trkpt lat="42.452662" lon="-3.018009"><ele>689</ele></trkpt><trkpt lat="42.452453" lon="-3.019195"><ele>691</ele></trkpt><trkpt lat="42.452242" lon="-3.02038"><ele>693</ele></trkpt><trkpt lat="42.452036" lon="-3.021566"><ele>698</ele></trkpt><trkpt lat="42.451823" lon="-3.02275"><ele>706</ele></trkpt><trkpt lat="42.451611" lon="-3.023935"><ele>716</ele></trkpt><trkpt lat="42.45133" lon="-3.024957"><ele>721</ele></trkpt><trkpt lat="42.450913" lon="-3.026037"><ele>726</ele></trkpt><trkpt lat="42.450487" lon="-3.027108"><ele>729</ele></trkpt><trkpt lat="42.450051" lon="-3.028174"><ele>731</ele></trkpt><trkpt lat="42.449609" lon="-3.029235"><ele>732</ele></trkpt><trkpt lat="42.449104" lon="-3.030067"><ele>728</ele></trkpt><trkpt lat="42.448998" lon="-3.030492"><ele>724</ele></trkpt><trkpt lat="42.448742" lon="-3.031656"><ele>709</ele></trkpt><trkpt lat="42.44858" lon="-3.032847"><ele>695</ele></trkpt><trkpt lat="42.44914" lon="-3.033309"><ele>694</ele></trkpt><trkpt lat="42.449625" lon="-3.034336"><ele>690</ele></trkpt><trkpt lat="42.450108" lon="-3.035363"><ele>687</ele></trkpt><trkpt lat="42.450591" lon="-3.036391"><ele>688</ele></trkpt><trkpt lat="42.450631" lon="-3.037307"><ele>694</ele></trkpt><trkpt lat="42.449913" lon="-3.03804"><ele>697</ele></trkpt><trkpt lat="42.449191" lon="-3.038767"><ele>700</ele></trkpt><trkpt lat="42.44862" lon="-3.039653"><ele>706</ele></trkpt><trkpt lat="42.448153" lon="-3.040689"><ele>714</ele></trkpt><trkpt lat="42.447617" lon="-3.041668"><ele>721</ele></trkpt><trkpt lat="42.447075" lon="-3.04264"><ele>727</ele></trkpt><trkpt lat="42.446492" lon="-3.043567"><ele>731</ele></trkpt><trkpt lat="42.445883" lon="-3.044464"><ele>733</ele></trkpt><trkpt lat="42.445266" lon="-3.04535"><ele>738</ele></trkpt><trkpt lat="42.444921" lon="-3.046431"><ele>733</ele></trkpt><trkpt lat="42.444615" lon="-3.047577"><ele>729</ele></trkpt><trkpt lat="42.44431" lon="-3.048723"><ele>731</ele></trkpt><trkpt lat="42.44397" lon="-3.04985"><ele>731</ele></trkpt><trkpt lat="42.443593" lon="-3.050956"><ele>725</ele></trkpt><trkpt lat="42.443237" lon="-3.052074"><ele>724</ele></trkpt><trkpt lat="42.442719" lon="-3.05307"><ele>723</ele></trkpt><trkpt lat="42.442129" lon="-3.053989"><ele>724</ele></trkpt><trkpt lat="42.441553" lon="-3.054923"><ele>723</ele></trkpt><trkpt lat="42.44101" lon="-3.055894"><ele>724</ele></trkpt><trkpt lat="42.440473" lon="-3.056871"><ele>726</ele></trkpt><trkpt lat="42.439938" lon="-3.05785"><ele>728</ele></trkpt><trkpt lat="42.439453" lon="-3.058877"><ele>729</ele></trkpt><trkpt lat="42.438971" lon="-3.059905"><ele>732</ele></trkpt><trkpt lat="42.438521" lon="-3.060959"><ele>734</ele></trkpt><trkpt lat="42.438118" lon="-3.062047"><ele>736</ele></trkpt><trkpt lat="42.438698" lon="-3.062789"><ele>737</ele></trkpt><trkpt lat="42.438621" lon="-3.063903"><ele>740</ele></trkpt><trkpt lat="42.438252" lon="-3.065014"><ele>743</ele></trkpt><trkpt lat="42.437907" lon="-3.066138"><ele>744</ele></trkpt><trkpt lat="42.437595" lon="-3.067271"><ele>743</ele></trkpt><trkpt lat="42.437292" lon="-3.068406"><ele>742</ele></trkpt><trkpt lat="42.437161" lon="-3.069603"><ele>744</ele></trkpt><trkpt lat="42.437184" lon="-3.07082"><ele>748</ele></trkpt><trkpt lat="42.437193" lon="-3.072038"><ele>752</ele></trkpt><trkpt lat="42.437215" lon="-3.073255"><ele>757</ele></trkpt><trkpt lat="42.437318" lon="-3.07446"><ele>756</ele></trkpt><trkpt lat="42.437375" lon="-3.075675"><ele>755</ele></trkpt><trkpt lat="42.437444" lon="-3.07689"><ele>754</ele></trkpt><trkpt lat="42.437517" lon="-3.078105"><ele>754</ele></trkpt><trkpt lat="42.4376" lon="-3.079318"><ele>757</ele></trkpt><trkpt lat="42.437015" lon="-3.080073"><ele>761</ele></trkpt><trkpt lat="42.437091" lon="-3.081274"><ele>766</ele></trkpt><trkpt lat="42.436983" lon="-3.082469"><ele>770</ele></trkpt><trkpt lat="42.43675" lon="-3.083645"><ele>771</ele></trkpt><trkpt lat="42.43653" lon="-3.084821"><ele>770</ele></trkpt><trkpt lat="42.436405" lon="-3.086024"><ele>765</ele></trkpt><trkpt lat="42.436458" lon="-3.086867"><ele>761</ele></trkpt><trkpt lat="42.435795" lon="-3.087686"><ele>760</ele></trkpt><trkpt lat="42.435237" lon="-3.088634"><ele>754</ele></trkpt><trkpt lat="42.434965" lon="-3.08979"><ele>752</ele></trkpt><trkpt lat="42.434641" lon="-3.090926"><ele>755</ele></trkpt><trkpt lat="42.434332" lon="-3.092071"><ele>760</ele></trkpt><trkpt lat="42.433738" lon="-3.092814"><ele>762</ele></trkpt><trkpt lat="42.432885" lon="-3.092779"><ele>759</ele></trkpt><trkpt lat="42.432464" lon="-3.093828"><ele>766</ele></trkpt><trkpt lat="42.431947" lon="-3.094822"><ele>772</ele></trkpt><trkpt lat="42.431419" lon="-3.095809"><ele>777</ele></trkpt><trkpt lat="42.430895" lon="-3.096799"><ele>781</ele></trkpt><trkpt lat="42.430343" lon="-3.097753"><ele>782</ele></trkpt><trkpt lat="42.429565" lon="-3.098312"><ele>787</ele></trkpt><trkpt lat="42.428683" lon="-3.09855"><ele>790</ele></trkpt><trkpt lat="42.427821" lon="-3.098853"><ele>791</ele></trkpt><trkpt lat="42.427112" lon="-3.099587"><ele>795</ele></trkpt><trkpt lat="42.426609" lon="-3.100584"><ele>798</ele></trkpt><trkpt lat="42.426054" lon="-3.101524"><ele>802</ele></trkpt><trkpt lat="42.425979" lon="-3.102659"><ele>804</ele></trkpt><trkpt lat="42.426352" lon="-3.103759"><ele>802</ele></trkpt><trkpt lat="42.426943" lon="-3.104665"><ele>792</ele></trkpt><trkpt lat="42.427254" lon="-3.105807"><ele>788</ele></trkpt><trkpt lat="42.427211" lon="-3.107009"><ele>782</ele></trkpt><trkpt lat="42.427024" lon="-3.108201"><ele>775</ele></trkpt><trkpt lat="42.427187" lon="-3.109327"><ele>768</ele></trkpt><trkpt lat="42.42774" lon="-3.110287"><ele>763</ele></trkpt><trkpt lat="42.428472" lon="-3.110983"><ele>758</ele></trkpt><trkpt lat="42.429285" lon="-3.111504"><ele>756</ele></trkpt><trkpt lat="42.430065" lon="-3.112095"><ele>756</ele></trkpt><trkpt lat="42.430739" lon="-3.112902"><ele>759</ele></trkpt><trkpt lat="42.431147" lon="-3.113871"><ele>762</ele></trkpt><trkpt lat="42.431045" lon="-3.115082"><ele>765</ele></trkpt><trkpt lat="42.430939" lon="-3.116292"><ele>767</ele></trkpt><trkpt lat="42.430832" lon="-3.117502"><ele>771</ele></trkpt><trkpt lat="42.430729" lon="-3.118712"><ele>775</ele></trkpt><trkpt lat="42.430628" lon="-3.119923"><ele>779</ele></trkpt><trkpt lat="42.430526" lon="-3.121134"><ele>783</ele></trkpt><trkpt lat="42.430426" lon="-3.122344"><ele>785</ele></trkpt><trkpt lat="42.430487" lon="-3.123556"><ele>783</ele></trkpt><trkpt lat="42.430642" lon="-3.124756"><ele>780</ele></trkpt><trkpt lat="42.430788" lon="-3.125958"><ele>779</ele></trkpt><trkpt lat="42.430963" lon="-3.127153"><ele>781</ele></trkpt><trkpt lat="42.431083" lon="-3.128358"><ele>787</ele></trkpt><trkpt lat="42.430967" lon="-3.129562"><ele>791</ele></trkpt><trkpt lat="42.430607" lon="-3.130673"><ele>792</ele></trkpt><trkpt lat="42.430029" lon="-3.131602"><ele>788</ele></trkpt><trkpt lat="42.4294" lon="-3.132473"><ele>785</ele></trkpt><trkpt lat="42.428862" lon="-3.133366"><ele>780</ele></trkpt><trkpt lat="42.42854" lon="-3.134498"><ele>779</ele></trkpt><trkpt lat="42.428191" lon="-3.13562"><ele>783</ele></trkpt><trkpt lat="42.427414" lon="-3.136042"><ele>790</ele></trkpt><trkpt lat="42.427233" lon="-3.13715"><ele>792</ele></trkpt><trkpt lat="42.427185" lon="-3.138364"><ele>789</ele></trkpt><trkpt lat="42.426857" lon="-3.139481"><ele>788</ele></trkpt><trkpt lat="42.426492" lon="-3.140594"><ele>790</ele></trkpt><trkpt lat="42.426126" lon="-3.141708"><ele>792</ele></trkpt><trkpt lat="42.425761" lon="-3.142821"><ele>795</ele></trkpt><trkpt lat="42.425405" lon="-3.14394"><ele>799</ele></trkpt><trkpt lat="42.425045" lon="-3.145056"><ele>802</ele></trkpt><trkpt lat="42.424676" lon="-3.146167"><ele>805</ele></trkpt><trkpt lat="42.424308" lon="-3.147279"><ele>807</ele></trkpt><trkpt lat="42.42394" lon="-3.14839"><ele>809</ele></trkpt><trkpt lat="42.423572" lon="-3.149502"><ele>812</ele></trkpt><trkpt lat="42.423203" lon="-3.150613"><ele>812</ele></trkpt><trkpt lat="42.422817" lon="-3.151714"><ele>813</ele></trkpt><trkpt lat="42.422486" lon="-3.152845"><ele>815</ele></trkpt><trkpt lat="42.422122" lon="-3.153959"><ele>818</ele></trkpt><trkpt lat="42.421758" lon="-3.155073"><ele>819</ele></trkpt><trkpt lat="42.421395" lon="-3.156187"><ele>820</ele></trkpt><trkpt lat="42.421032" lon="-3.157302"><ele>821</ele></trkpt><trkpt lat="42.420674" lon="-3.158419"><ele>822</ele></trkpt><trkpt lat="42.420356" lon="-3.159559"><ele>822</ele></trkpt><trkpt lat="42.420063" lon="-3.16071"><ele>824</ele></trkpt><trkpt lat="42.419772" lon="-3.161863"><ele>826</ele></trkpt><trkpt lat="42.419478" lon="-3.163014"><ele>826</ele></trkpt><trkpt lat="42.419184" lon="-3.164166"><ele>827</ele></trkpt><trkpt lat="42.4189" lon="-3.165321"><ele>823</ele></trkpt><trkpt lat="42.41859" lon="-3.166462"><ele>822</ele></trkpt><trkpt lat="42.418301" lon="-3.167616"><ele>820</ele></trkpt><trkpt lat="42.418012" lon="-3.168769"><ele>817</ele></trkpt><trkpt lat="42.417722" lon="-3.169923"><ele>816</ele></trkpt><trkpt lat="42.417428" lon="-3.171074"><ele>813</ele></trkpt><trkpt lat="42.417124" lon="-3.17222"><ele>814</ele></trkpt><trkpt lat="42.416816" lon="-3.173365"><ele>812</ele></trkpt><trkpt lat="42.416515" lon="-3.174512"><ele>810</ele></trkpt><trkpt lat="42.416255" lon="-3.175675"><ele>811</ele></trkpt><trkpt lat="42.415971" lon="-3.17683"><ele>808</ele></trkpt><trkpt lat="42.415809" lon="-3.178026"><ele>804</ele></trkpt><trkpt lat="42.415844" lon="-3.179239"><ele>799</ele></trkpt><trkpt lat="42.416372" lon="-3.180006"><ele>800</ele></trkpt><trkpt lat="42.417043" lon="-3.180812"><ele>804</ele></trkpt><trkpt lat="42.417602" lon="-3.181761"><ele>803</ele></trkpt><trkpt lat="42.417927" lon="-3.182891"><ele>798</ele></trkpt><trkpt lat="42.418182" lon="-3.184051"><ele>795</ele></trkpt><trkpt lat="42.418405" lon="-3.185222"><ele>786</ele></trkpt><trkpt lat="42.418704" lon="-3.186324"><ele>782</ele></trkpt><trkpt lat="42.419314" lon="-3.187214"><ele>781</ele></trkpt><trkpt lat="42.419904" lon="-3.188084"><ele>778</ele></trkpt><trkpt lat="42.420712" lon="-3.188539"><ele>777</ele></trkpt><trkpt lat="42.420785" lon="-3.189147"><ele>774</ele></trkpt></trkseg></trk></gpx>