<?xml version="1.0" encoding="UTF-8"?>
<gpx version="1.1" creator="Mi Diario del Camino de Santiago" xmlns="http://www.topografix.com/GPX/1/1">
<metadata><name>Etapa 26: Villafranca del Bierzo - O Cebreiro</name><copyright author="OpenStreetMap contributors"><license>https://opendatacommons.org/licenses/odbl/1-0/</license></copyright></metadata>
<trk><name>Etapa 26: Villafranca del Bierzo - O Cebreiro</name><trkseg><trkpt lat="42.604195" lon="-6.807708"><ele>527</ele></trkpt><trkpt lat="42.604209" lon="-6.808913"><ele>523</ele></trkpt><trkpt lat="42.604467" lon="-6.810013"><ele>519</ele></trkpt><trkpt lat="42.60532" lon="-6.810382"><ele>511</ele></trkpt><trkpt lat="42.606043" lon="-6.810884"><ele>501</ele></trkpt><trkpt lat="42.606941" lon="-6.810827"><ele>499</ele></trkpt><trkpt lat="42.607838" lon="-6.81091"><ele>499</ele></trkpt><trkpt lat="42.608696" lon="-6.810764"><ele>499</ele></trkpt><trkpt lat="42.609197" lon="-6.811666"><ele>499</ele></trkpt><trkpt lat="42.609402" lon="-6.812726"><ele>506</ele></trkpt><trkpt lat="42.609936" lon="-6.813613"><ele>502</ele></trkpt><trkpt lat="42.610805" lon="-6.813923"><ele>503</ele></trkpt><trkpt lat="42.611598" lon="-6.814497"><ele>504</ele></trkpt><trkpt lat="42.612393" lon="-6.815061"><ele>504</ele></trkpt><trkpt lat="42.613276" lon="-6.815125"><ele>507</ele></trkpt><trkpt lat="42.614145" lon="-6.815025"><ele>514</ele></trkpt><trkpt lat="42.61492" lon="-6.815597"><ele>519</ele></trkpt><trkpt lat="42.615239" lon="-6.816702"><ele>526</ele></trkpt><trkpt lat="42.614975" lon="-6.81787"><ele>524</ele></trkpt><trkpt lat="42.614441" lon="-6.818781"><ele>526</ele></trkpt><trkpt lat="42.613555" lon="-6.818925"><ele>523</ele></trkpt><trkpt lat="42.612706" lon="-6.819113"><ele>518</ele></trkpt><trkpt lat="42.611948" lon="-6.819706"><ele>514</ele></trkpt><trkpt lat="42.611706" lon="-6.820591"><ele>512</ele></trkpt><trkpt lat="42.612522" lon="-6.821103"><ele>514</ele></trkpt><trkpt lat="42.613379" lon="-6.821388"><ele>516</ele></trkpt><trkpt lat="42.614241" lon="-6.821054"><ele>514</ele></trkpt><trkpt lat="42.614966" lon="-6.821648"><ele>525</ele></trkpt><trkpt lat="42.614967" lon="-6.822844"><ele>521</ele></trkpt><trkpt lat="42.614924" lon="-6.824046"><ele>520</ele></trkpt><trkpt lat="42.615491" lon="-6.824952"><ele>522</ele></trkpt><trkpt lat="42.616263" lon="-6.825577"><ele>523</ele></trkpt><trkpt lat="42.616932" lon="-6.82639"><ele>525</ele></trkpt><trkpt lat="42.617448" lon="-6.827387"><ele>527</ele></trkpt><trkpt lat="42.617841" lon="-6.828486"><ele>527</ele></trkpt><trkpt lat="42.618355" lon="-6.829468"><ele>534</ele></trkpt><trkpt lat="42.619171" lon="-6.829974"><ele>535</ele></trkpt><trkpt lat="42.620017" lon="-6.83039"><ele>534</ele></trkpt><trkpt lat="42.620891" lon="-6.830515"><ele>532</ele></trkpt><trkpt lat="42.621689" lon="-6.829958"><ele>535</ele></trkpt><trkpt lat="42.62254" lon="-6.829653"><ele>539</ele></trkpt><trkpt lat="42.623234" lon="-6.83035"><ele>540</ele></trkpt><trkpt lat="42.623298" lon="-6.831543"><ele>536</ele></trkpt><trkpt lat="42.623081" lon="-6.832726"><ele>536</ele></trkpt><trkpt lat="42.622605" lon="-6.833754"><ele>536</ele></trkpt><trkpt lat="42.621941" lon="-6.834575"><ele>537</ele></trkpt><trkpt lat="42.621244" lon="-6.835345"><ele>532</ele></trkpt><trkpt lat="42.620996" lon="-6.836463"><ele>532</ele></trkpt><trkpt lat="42.62154" lon="-6.83737"><ele>531</ele></trkpt><trkpt lat="42.622335" lon="-6.837927"><ele>532</ele></trkpt><trkpt lat="42.622891" lon="-6.838838"><ele>531</ele></trkpt><trkpt lat="42.623697" lon="-6.839349"><ele>536</ele></trkpt><trkpt lat="42.624245" lon="-6.840296"><ele>537</ele></trkpt><trkpt lat="42.624707" lon="-6.841345"><ele>538</ele></trkpt><trkpt lat="42.625174" lon="-6.842386"><ele>540</ele></trkpt><trkpt lat="42.625719" lon="-6.84335"><ele>546</ele></trkpt><trkpt lat="42.626218" lon="-6.844315"><ele>545</ele></trkpt><trkpt lat="42.626491" lon="-6.845465"><ele>543</ele></trkpt><trkpt lat="42.62695" lon="-6.846346"><ele>537</ele></trkpt><trkpt lat="42.62783" lon="-6.846589"><ele>539</ele></trkpt><trkpt lat="42.628698" lon="-6.8469"><ele>538</ele></trkpt><trkpt lat="42.629498" lon="-6.847453"><ele>536</ele></trkpt><trkpt lat="42.630208" lon="-6.848202"><ele>537</ele></trkpt><trkpt lat="42.630891" lon="-6.848997"><ele>542</ele></trkpt><trkpt lat="42.631563" lon="-6.84981"><ele>547</ele></trkpt><trkpt lat="42.632215" lon="-6.850651"><ele>547</ele></trkpt><trkpt lat="42.63286" lon="-6.851502"><ele>550</ele></trkpt><trkpt lat="42.633506" lon="-6.852353"><ele>546</ele></trkpt><trkpt lat="42.634356" lon="-6.852731"><ele>546</ele></trkpt><trkpt lat="42.63519" lon="-6.853176"><ele>548</ele></trkpt><trkpt lat="42.635962" lon="-6.853802"><ele>548</ele></trkpt><trkpt lat="42.636716" lon="-6.854468"><ele>551</ele></trkpt><trkpt lat="42.63741" lon="-6.855238"><ele>551</ele></trkpt><trkpt lat="42.637994" lon="-6.856166"><ele>549</ele></trkpt><trkpt lat="42.638471" lon="-6.857191"><ele>556</ele></trkpt><trkpt lat="42.638652" lon="-6.858387"><ele>553</ele></trkpt><trkpt lat="42.638801" lon="-6.859593"><ele>553</ele></trkpt><trkpt lat="42.638733" lon="-6.860778"><ele>555</ele></trkpt><trkpt lat="42.638132" lon="-6.861681"><ele>563</ele></trkpt><trkpt lat="42.637896" lon="-6.862818"><ele>558</ele></trkpt><trkpt lat="42.638326" lon="-6.863873"><ele>558</ele></trkpt><trkpt lat="42.638873" lon="-6.864843"><ele>551</ele></trkpt><trkpt lat="42.639373" lon="-6.865859"><ele>551</ele></trkpt><trkpt lat="42.63985" lon="-6.866894"><ele>552</ele></trkpt><trkpt lat="42.640447" lon="-6.867737"><ele>551</ele></trkpt><trkpt lat="42.641321" lon="-6.867825"><ele>557</ele></trkpt><trkpt lat="42.64213" lon="-6.868318"><ele>558</ele></trkpt><trkpt lat="42.642814" lon="-6.869113"><ele>551</ele></trkpt><trkpt lat="42.643498" lon="-6.869906"><ele>552</ele></trkpt><trkpt lat="42.644194" lon="-6.870681"><ele>553</ele></trkpt><trkpt lat="42.644826" lon="-6.871545"><ele>555</ele></trkpt><trkpt lat="42.645574" lon="-6.872162"><ele>558</ele></trkpt><trkpt lat="42.646292" lon="-6.872866"><ele>560</ele></trkpt><trkpt lat="42.646787" lon="-6.873882"><ele>558</ele></trkpt><trkpt lat="42.64723" lon="-6.874938"><ele>558</ele></trkpt><trkpt lat="42.647862" lon="-6.875793"><ele>567</ele></trkpt><trkpt lat="42.648038" lon="-6.876941"><ele>562</ele></trkpt><trkpt lat="42.648143" lon="-6.878125"><ele>557</ele></trkpt><trkpt lat="42.648627" lon="-6.879148"><ele>566</ele></trkpt><trkpt lat="42.649105" lon="-6.880169"><ele>571</ele></trkpt><trkpt lat="42.649374" lon="-6.881311"><ele>574</ele></trkpt><trkpt lat="42.649452" lon="-6.88252"><ele>576</ele></trkpt><trkpt lat="42.649689" lon="-6.883699"><ele>583</ele></trkpt><trkpt lat="42.649838" lon="-6.884897"><ele>587</ele></trkpt><trkpt lat="42.650309" lon="-6.885934"><ele>593</ele></trkpt><trkpt lat="42.65051" lon="-6.887105"><ele>582</ele></trkpt><trkpt lat="42.65128" lon="-6.887713"><ele>584</ele></trkpt><trkpt lat="42.651946" lon="-6.888527"><ele>577</ele></trkpt><trkpt lat="42.652727" lon="-6.889122"><ele>577</ele></trkpt><trkpt lat="42.653555" lon="-6.889506"><ele>576</ele></trkpt><trkpt lat="42.654204" lon="-6.89033"><ele>577</ele></trkpt><trkpt lat="42.654824" lon="-6.891206"><ele>583</ele></trkpt><trkpt lat="42.655394" lon="-6.892132"><ele>581</ele></trkpt><trkpt lat="42.656244" lon="-6.892498"><ele>581</ele></trkpt><trkpt lat="42.656741" lon="-6.89343"><ele>579</ele></trkpt><trkpt lat="42.656969" lon="-6.894538"><ele>585</ele></trkpt><trkpt lat="42.656258" lon="-6.895129"><ele>593</ele></trkpt><trkpt lat="42.655528" lon="-6.895631"><ele>583</ele></trkpt><trkpt lat="42.655138" lon="-6.896581"><ele>581</ele></trkpt><trkpt lat="42.654786" lon="-6.897706"><ele>585</ele></trkpt><trkpt lat="42.654489" lon="-6.898857"><ele>586</ele></trkpt><trkpt lat="42.654468" lon="-6.900074"><ele>589</ele></trkpt><trkpt lat="42.654685" lon="-6.901258"><ele>591</ele></trkpt><trkpt lat="42.654948" lon="-6.902427"><ele>599</ele></trkpt><trkpt lat="42.655209" lon="-6.903597"><ele>595</ele></trkpt><trkpt lat="42.655486" lon="-6.904759"><ele>596</ele></trkpt><trkpt lat="42.656094" lon="-6.905645"><ele>600</ele></trkpt><trkpt lat="42.656633" lon="-6.906604"><ele>596</ele></trkpt><trkpt lat="42.656933" lon="-6.907755"><ele>595</ele></trkpt><trkpt lat="42.65755" lon="-6.908619"><ele>600</ele></trkpt><trkpt lat="42.658337" lon="-6.909204"><ele>606</ele></trkpt><trkpt lat="42.658732" lon="-6.910268"><ele>609</ele></trkpt><trkpt lat="42.658413" lon="-6.911368"><ele>610</ele></trkpt><trkpt lat="42.657735" lon="-6.912168"><ele>604</ele></trkpt><trkpt lat="42.65758" lon="-6.913318"><ele>598</ele></trkpt><trkpt lat="42.658175" lon="-6.914181"><ele>596</ele></trkpt><trkpt lat="42.658912" lon="-6.914881"><ele>597</ele></trkpt><trkpt lat="42.659461" lon="-6.915797"><ele>599</ele></trkpt><trkpt lat="42.659997" lon="-6.916769"><ele>604</ele></trkpt><trkpt lat="42.660113" lon="-6.91794"><ele>602</ele></trkpt><trkpt lat="42.660043" lon="-6.919158"><ele>601</ele></trkpt><trkpt lat="42.659936" lon="-6.920371"><ele>601</ele></trkpt><trkpt lat="42.660092" lon="-6.921554"><ele>601</ele></trkpt><trkpt lat="42.660501" lon="-6.922631"><ele>605</ele></trkpt><trkpt lat="42.660757" lon="-6.923804"><ele>609</ele></trkpt><trkpt lat="42.66109" lon="-6.924936"><ele>612</ele></trkpt><trkpt lat="42.661627" lon="-6.925913"><ele>616</ele></trkpt><trkpt lat="42.662294" lon="-6.92663"><ele>610</ele></trkpt><trkpt lat="42.663191" lon="-6.926691"><ele>608</ele></trkpt><trkpt lat="42.664087" lon="-6.926752"><ele>609</ele></trkpt><trkpt lat="42.664973" lon="-6.926608"><ele>613</ele></trkpt><trkpt lat="42.665756" lon="-6.927174"><ele>615</ele></trkpt><trkpt lat="42.665809" lon="-6.928307"><ele>611</ele></trkpt><trkpt lat="42.665543" lon="-6.929473"><ele>616</ele></trkpt><trkpt lat="42.665247" lon="-6.930607"><ele>618</ele></trkpt><trkpt lat="42.665617" lon="-6.931717"><ele>626</ele></trkpt><trkpt lat="42.665826" lon="-6.932906"><ele>628</ele></trkpt><trkpt lat="42.666014" lon="-6.934102"><ele>625</ele></trkpt><trkpt lat="42.666268" lon="-6.935274"><ele>625</ele></trkpt><trkpt lat="42.66648" lon="-6.936419"><ele>627</ele></trkpt><trkpt lat="42.666359" lon="-6.937608"><ele>628</ele></trkpt><trkpt lat="42.66624" lon="-6.938742"><ele>639</ele></trkpt><trkpt lat="42.665577" lon="-6.939525"><ele>650</ele></trkpt><trkpt lat="42.664886" lon="-6.9403"><ele>651</ele></trkpt><trkpt lat="42.664134" lon="-6.940961"><ele>632</ele></trkpt><trkpt lat="42.664033" lon="-6.942153"><ele>630</ele></trkpt><trkpt lat="42.66434" lon="-6.943287"><ele>634</ele></trkpt><trkpt lat="42.664663" lon="-6.944409"><ele>638</ele></trkpt><trkpt lat="42.665025" lon="-6.945514"><ele>634</ele></trkpt><trkpt lat="42.665312" lon="-6.946643"><ele>638</ele></trkpt><trkpt lat="42.665242" lon="-6.947858"><ele>640</ele></trkpt><trkpt lat="42.665065" lon="-6.94905"><ele>642</ele></trkpt><trkpt lat="42.664937" lon="-6.95026"><ele>648</ele></trkpt><trkpt lat="42.664727" lon="-6.95141"><ele>652</ele></trkpt><trkpt lat="42.664542" lon="-6.952606"><ele>658</ele></trkpt><trkpt lat="42.664465" lon="-6.953821"><ele>655</ele></trkpt><trkpt lat="42.664695" lon="-6.95486"><ele>650</ele></trkpt><trkpt lat="42.66546" lon="-6.955503"><ele>649</ele></trkpt><trkpt lat="42.666215" lon="-6.956167"><ele>650</ele></trkpt><trkpt lat="42.666971" lon="-6.956831"><ele>645</ele></trkpt><trkpt lat="42.667727" lon="-6.957493"><ele>645</ele></trkpt><trkpt lat="42.668484" lon="-6.958153"><ele>647</ele></trkpt><trkpt lat="42.66925" lon="-6.958793"><ele>651</ele></trkpt><trkpt lat="42.669897" lon="-6.95963"><ele>650</ele></trkpt><trkpt lat="42.670379" lon="-6.960662"><ele>651</ele></trkpt><trkpt lat="42.670774" lon="-6.96176"><ele>653</ele></trkpt><trkpt lat="42.671144" lon="-6.962875"><ele>652</ele></trkpt><trkpt lat="42.671558" lon="-6.963958"><ele>656</ele></trkpt><trkpt lat="42.672024" lon="-6.965003"><ele>658</ele></trkpt><trkpt lat="42.672555" lon="-6.965991"><ele>659</ele></trkpt><trkpt lat="42.672956" lon="-6.967065"><ele>662</ele></trkpt><trkpt lat="42.672536" lon="-6.968119"><ele>665</ele></trkpt><trkpt lat="42.671803" lon="-6.968812"><ele>655</ele></trkpt><trkpt lat="42.672117" lon="-6.96968"><ele>661</ele></trkpt><trkpt lat="42.672703" lon="-6.970568"><ele>680</ele></trkpt><trkpt lat="42.672529" lon="-6.971756"><ele>674</ele></trkpt><trkpt lat="42.672569" lon="-6.972973"><ele>684</ele></trkpt><trkpt lat="42.672459" lon="-6.974183"><ele>683</ele></trkpt><trkpt lat="42.6725" lon="-6.975404"><ele>687</ele></trkpt><trkpt lat="42.672473" lon="-6.976616"><ele>692</ele></trkpt><trkpt lat="42.672351" lon="-6.977826"><ele>691</ele></trkpt><trkpt lat="42.671938" lon="-6.978598"><ele>686</ele></trkpt><trkpt lat="42.671106" lon="-6.978988"><ele>674</ele></trkpt><trkpt lat="42.670903" lon="-6.980149"><ele>674</ele></trkpt><trkpt lat="42.670661" lon="-6.981277"><ele>678</ele></trkpt><trkpt lat="42.670574" lon="-6.982427"><ele>683</ele></trkpt><trkpt lat="42.671031" lon="-6.983481"><ele>677</ele></trkpt><trkpt lat="42.671392" lon="-6.984596"><ele>679</ele></trkpt><trkpt lat="42.671732" lon="-6.985718"><ele>677</ele></trkpt><trkpt lat="42.672253" lon="-6.986696"><ele>684</ele></trkpt><trkpt lat="42.672755" lon="-6.987698"><ele>686</ele></trkpt><trkpt lat="42.672942" lon="-6.988867"><ele>685</ele></trkpt><trkpt lat="42.672749" lon="-6.990057"><ele>688</ele></trkpt><trkpt lat="42.673135" lon="-6.991046"><ele>693</ele></trkpt><trkpt lat="42.673074" lon="-6.992213"><ele>697</ele></trkpt><trkpt lat="42.673413" lon="-6.993313"><ele>701</ele></trkpt><trkpt lat="42.674181" lon="-6.993912"><ele>704</ele></trkpt><trkpt lat="42.674799" lon="-6.99478"><ele>707</ele></trkpt><trkpt lat="42.675501" lon="-6.995479"><ele>718</ele></trkpt><trkpt lat="42.676016" lon="-6.99641"><ele>740</ele></trkpt><trkpt lat="42.675913" lon="-6.997565"><ele>744</ele></trkpt><trkpt lat="42.675858" lon="-6.998539"><ele>745</ele></trkpt><trkpt lat="42.676287" lon="-6.999603"><ele>748</ele></trkpt><trkpt lat="42.676981" lon="-7.000207"><ele>752</ele></trkpt><trkpt lat="42.677818" lon="-7.000484"><ele>764</ele></trkpt><trkpt lat="42.678563" lon="-7.00115"><ele>775</ele></trkpt><trkpt lat="42.679205" lon="-7.001992"><ele>782</ele></trkpt><trkpt lat="42.679866" lon="-7.002777"><ele>781</ele></trkpt><trkpt lat="42.680108" lon="-7.003554"><ele>786</ele></trkpt><trkpt lat="42.679985" lon="-7.004034"><ele>804</ele></trkpt><trkpt lat="42.680689" lon="-7.004764"><ele>824</ele></trkpt><trkpt lat="42.681351" lon="-7.005565"><ele>838</ele></trkpt><trkpt lat="42.68187" lon="-7.006255"><ele>847</ele></trkpt><trkpt lat="42.682319" lon="-7.00641"><ele>858</ele></trkpt><trkpt lat="42.682882" lon="-7.007346"><ele>875</ele></trkpt><trkpt lat="42.68341" lon="-7.007423"><ele>885</ele></trkpt><trkpt lat="42.684115" lon="-7.007928"><ele>897</ele></trkpt><trkpt lat="42.684561" lon="-7.008883"><ele>905</ele></trkpt><trkpt lat="42.685056" lon="-7.009698"><ele>911</ele></trkpt><trkpt lat="42.685776" lon="-7.010419"><ele>921</ele></trkpt><trkpt lat="42.686541" lon="-7.010973"><ele>943</ele></trkpt><trkpt lat="42.686808" lon="-7.011983"><ele>955</ele></trkpt><trkpt lat="42.686873" lon="-7.01288"><ele>948</ele></trkpt><trkpt lat="42.68766" lon="-7.01271"><ele>959</ele></trkpt><trkpt lat="42.688533" lon="-7.0128"><ele>968</ele></trkpt><trkpt lat="42.689239" lon="-7.013345"><ele>979</ele></trkpt><trkpt lat="42.689717" lon="-7.014378"><ele>995</ele></trkpt><trkpt lat="42.69043" lon="-7.015024"><ele>1004</ele></trkpt><trkpt lat="42.691322" lon="-7.015177"><ele>1024</ele></trkpt><trkpt lat="42.692119" lon="-7.015667"><ele>1045</ele></trkpt><trkpt lat="42.692568" lon="-7.016712"><ele>1056</ele></trkpt><trkpt lat="42.693148" lon="-7.017625"><ele>1060</ele></trkpt><trkpt lat="42.693944" lon="-7.018157"><ele>1068</ele></trkpt><trkpt lat="42.694806" lon="-7.018502"><ele>1058</ele></trkpt><trkpt lat="42.695684" lon="-7.018444"><ele>1068</ele></trkpt><trkpt lat="42.696555" lon="-7.018555"><ele>1075</ele></trkpt><trkpt lat="42.697217" lon="-7.019373"><ele>1094</ele></trkpt><trkpt lat="42.697964" lon="-7.020026"><ele>1102</ele></trkpt><trkpt lat="42.69883" lon="-7.019884"><ele>1116</ele></trkpt><trkpt lat="42.699636" lon="-7.020151"><ele>1136</ele></trkpt><trkpt lat="42.700436" lon="-7.020696"><ele>1144</ele></trkpt><trkpt lat="42.701101" lon="-7.02142"><ele>1151</ele></trkpt><trkpt lat="42.701616" lon="-7.022336"><ele>1157</ele></trkpt><trkpt lat="42.702367" lon="-7.023002"><ele>1165</ele></trkpt><trkpt lat="42.703079" lon="-7.023722"><ele>1168</ele></trkpt><trkpt lat="42.703876" lon="-7.024277"><ele>1177</ele></trkpt><trkpt lat="42.704564" lon="-7.025065"><ele>1186</ele></trkpt><trkpt lat="42.705262" lon="-7.02583"><ele>1205</ele></trkpt><trkpt lat="42.705853" lon="-7.026632"><ele>1219</ele></trkpt><trkpt lat="42.705919" lon="-7.027825"><ele>1213</ele></trkpt><trkpt lat="42.706336" lon="-7.028904"><ele>1231</ele></trkpt><trkpt lat="42.706387" lon="-7.029918"><ele>1247</ele></trkpt><trkpt lat="42.705776" lon="-7.030764"><ele>1234</ele></trkpt><trkpt lat="42.706133" lon="-7.031869"><ele>1241</ele></trkpt><trkpt lat="42.706812" lon="-7.032663"><ele>1246</ele></trkpt><trkpt lat="42.70744" lon="-7.033504"><ele>1253</ele></trkpt><trkpt lat="42.707784" lon="-7.034623"><ele>1262</ele></trkpt><trkpt lat="42.707929" lon="-7.03579"><ele>1282</ele></trkpt><trkpt lat="42.707336" lon="-7.03663"><ele>1273</ele></trkpt><trkpt lat="42.707215" lon="-7.037808"><ele>1282</ele></trkpt><trkpt lat="42.707242" lon="-7.039026"><ele>1289</ele></trkpt><trkpt lat="42.707543" lon="-7.040177"><ele>1296</ele></trkpt><trkpt lat="42.707683" lon="-7.041385"><ele>1295</ele></trkpt><trkpt lat="42.707612" lon="-7.042587"><ele>1291</ele></trkpt><trkpt lat="42.70769" lon="-7.043595"><ele>1291</ele></trkpt></trkseg></trk></gpx>