<?xml version="1.0" encoding="UTF-8"?>
<gpx version="1.1" creator="Mi Diario del Camino de Santiago" xmlns="http://www.topografix.com/GPX/1/1">
<metadata><name>Etapa 16: Frómista - Carrión de los Condes</name><copyright author="OpenStreetMap contributors"><license>https://opendatacommons.org/licenses/odbl/1-0/</license></copyright></metadata>
<trk><name>Etapa 16: Frómista - Carrión de los Condes</name><trkseg><trkpt lat="42.266071" lon="-4.406403"><ele>780</ele></trkpt><trkpt lat="42.265478" lon="-4.407308"><ele>780</ele></trkpt><trkpt lat="42.265272" lon="-4.408472"><ele>779</ele></trkpt><trkpt lat="42.265224" lon="-4.409686"><ele>780</ele></trkpt><trkpt lat="42.265179" lon="-4.4109"><ele>780</ele></trkpt><trkpt lat="42.26511" lon="-4.41211"><ele>781</ele></trkpt><trkpt lat="42.26502" lon="-4.413319"><ele>781</ele></trkpt><trkpt lat="42.265312" lon="-4.414413"><ele>782</ele></trkpt><trkpt lat="42.265143" lon="-4.415561"><ele>780</ele></trkpt><trkpt lat="42.265243" lon="-4.416768"><ele>778</ele></trkpt><trkpt lat="42.265592" lon="-4.417836"><ele>776</ele></trkpt><trkpt lat="42.265507" lon="-4.418905"><ele>778</ele></trkpt><trkpt lat="42.265596" lon="-4.420113"><ele>779</ele></trkpt><trkpt lat="42.26572" lon="-4.421316"><ele>778</ele></trkpt><trkpt lat="42.265833" lon="-4.422522"><ele>776</ele></trkpt><trkpt lat="42.265951" lon="-4.423727"><ele>775</ele></trkpt><trkpt lat="42.266068" lon="-4.424932"><ele>776</ele></trkpt><trkpt lat="42.266186" lon="-4.426136"><ele>776</ele></trkpt><trkpt lat="42.266307" lon="-4.427341"><ele>776</ele></trkpt><trkpt lat="42.266427" lon="-4.428545"><ele>776</ele></trkpt><trkpt lat="42.266545" lon="-4.42975"><ele>777</ele></trkpt><trkpt lat="42.26666" lon="-4.430955"><ele>777</ele></trkpt><trkpt lat="42.266777" lon="-4.43216"><ele>775</ele></trkpt><trkpt lat="42.266895" lon="-4.433365"><ele>776</ele></trkpt><trkpt lat="42.267012" lon="-4.43457"><ele>777</ele></trkpt><trkpt lat="42.267131" lon="-4.435774"><ele>777</ele></trkpt><trkpt lat="42.267248" lon="-4.436979"><ele>779</ele></trkpt><trkpt lat="42.267361" lon="-4.438185"><ele>779</ele></trkpt><trkpt lat="42.267474" lon="-4.43939"><ele>781</ele></trkpt><trkpt lat="42.267567" lon="-4.440596"><ele>781</ele></trkpt><trkpt lat="42.267692" lon="-4.441799"><ele>782</ele></trkpt><trkpt lat="42.268066" lon="-4.442859"><ele>780</ele></trkpt><trkpt lat="42.268604" lon="-4.443834"><ele>780</ele></trkpt><trkpt lat="42.269139" lon="-4.444811"><ele>779</ele></trkpt><trkpt lat="42.269195" lon="-4.445871"><ele>781</ele></trkpt><trkpt lat="42.268911" lon="-4.447024"><ele>778</ele></trkpt><trkpt lat="42.268673" lon="-4.448173"><ele>774</ele></trkpt><trkpt lat="42.2691" lon="-4.449195"><ele>775</ele></trkpt><trkpt lat="42.268711" lon="-4.450234"><ele>774</ele></trkpt><trkpt lat="42.268796" lon="-4.451404"><ele>774</ele></trkpt><trkpt lat="42.269249" lon="-4.452406"><ele>776</ele></trkpt><trkpt lat="42.269657" lon="-4.453489"><ele>776</ele></trkpt><trkpt lat="42.270064" lon="-4.454573"><ele>775</ele></trkpt><trkpt lat="42.270469" lon="-4.455658"><ele>776</ele></trkpt><trkpt lat="42.270871" lon="-4.456745"><ele>776</ele></trkpt><trkpt lat="42.271276" lon="-4.45783"><ele>775</ele></trkpt><trkpt lat="42.271681" lon="-4.458915"><ele>774</ele></trkpt><trkpt lat="42.272085" lon="-4.460001"><ele>775</ele></trkpt><trkpt lat="42.272497" lon="-4.461081"><ele>775</ele></trkpt><trkpt lat="42.272916" lon="-4.462156"><ele>774</ele></trkpt><trkpt lat="42.273413" lon="-4.463167"><ele>776</ele></trkpt><trkpt lat="42.273975" lon="-4.464115"><ele>777</ele></trkpt><trkpt lat="42.27456" lon="-4.465038"><ele>780</ele></trkpt><trkpt lat="42.275145" lon="-4.465961"><ele>779</ele></trkpt><trkpt lat="42.275731" lon="-4.466883"><ele>778</ele></trkpt><trkpt lat="42.276313" lon="-4.46781"><ele>777</ele></trkpt><trkpt lat="42.276895" lon="-4.468737"><ele>777</ele></trkpt><trkpt lat="42.277482" lon="-4.469657"><ele>779</ele></trkpt><trkpt lat="42.278068" lon="-4.47058"><ele>779</ele></trkpt><trkpt lat="42.278653" lon="-4.471503"><ele>779</ele></trkpt><trkpt lat="42.279238" lon="-4.472426"><ele>778</ele></trkpt><trkpt lat="42.279823" lon="-4.473348"><ele>778</ele></trkpt><trkpt lat="42.280409" lon="-4.474271"><ele>780</ele></trkpt><trkpt lat="42.280997" lon="-4.47519"><ele>781</ele></trkpt><trkpt lat="42.281581" lon="-4.476115"><ele>780</ele></trkpt><trkpt lat="42.282163" lon="-4.477041"><ele>780</ele></trkpt><trkpt lat="42.282745" lon="-4.477968"><ele>780</ele></trkpt><trkpt lat="42.283328" lon="-4.478894"><ele>781</ele></trkpt><trkpt lat="42.283872" lon="-4.479804"><ele>783</ele></trkpt><trkpt lat="42.284532" lon="-4.48063"><ele>785</ele></trkpt><trkpt lat="42.285163" lon="-4.481477"><ele>785</ele></trkpt><trkpt lat="42.285869" lon="-4.482219"><ele>784</ele></trkpt><trkpt lat="42.286555" lon="-4.482998"><ele>783</ele></trkpt><trkpt lat="42.287162" lon="-4.483895"><ele>782</ele></trkpt><trkpt lat="42.287812" lon="-4.484679"><ele>783</ele></trkpt><trkpt lat="42.288424" lon="-4.48557"><ele>781</ele></trkpt><trkpt lat="42.289037" lon="-4.48646"><ele>781</ele></trkpt><trkpt lat="42.289649" lon="-4.48735"><ele>783</ele></trkpt><trkpt lat="42.290261" lon="-4.488241"><ele>783</ele></trkpt><trkpt lat="42.290873" lon="-4.489132"><ele>782</ele></trkpt><trkpt lat="42.291485" lon="-4.490023"><ele>784</ele></trkpt><trkpt lat="42.292099" lon="-4.490911"><ele>784</ele></trkpt><trkpt lat="42.29271" lon="-4.491804"><ele>784</ele></trkpt><trkpt lat="42.293321" lon="-4.492695"><ele>784</ele></trkpt><trkpt lat="42.293933" lon="-4.493586"><ele>784</ele></trkpt><trkpt lat="42.294545" lon="-4.494477"><ele>785</ele></trkpt><trkpt lat="42.295157" lon="-4.495367"><ele>786</ele></trkpt><trkpt lat="42.295769" lon="-4.496259"><ele>788</ele></trkpt><trkpt lat="42.29638" lon="-4.49715"><ele>789</ele></trkpt><trkpt lat="42.296991" lon="-4.498042"><ele>789</ele></trkpt><trkpt lat="42.297583" lon="-4.498958"><ele>788</ele></trkpt><trkpt lat="42.298084" lon="-4.499902"><ele>788</ele></trkpt><trkpt lat="42.298597" lon="-4.500899"><ele>787</ele></trkpt><trkpt lat="42.299107" lon="-4.501799"><ele>786</ele></trkpt><trkpt lat="42.299566" lon="-4.502845"><ele>786</ele></trkpt><trkpt lat="42.300013" lon="-4.5039"><ele>786</ele></trkpt><trkpt lat="42.30046" lon="-4.504955"><ele>786</ele></trkpt><trkpt lat="42.300909" lon="-4.506009"><ele>786</ele></trkpt><trkpt lat="42.301355" lon="-4.507065"><ele>788</ele></trkpt><trkpt lat="42.301801" lon="-4.508121"><ele>787</ele></trkpt><trkpt lat="42.302246" lon="-4.509177"><ele>787</ele></trkpt><trkpt lat="42.302687" lon="-4.510237"><ele>787</ele></trkpt><trkpt lat="42.303127" lon="-4.511297"><ele>788</ele></trkpt><trkpt lat="42.303574" lon="-4.512353"><ele>791</ele></trkpt><trkpt lat="42.304019" lon="-4.513409"><ele>793</ele></trkpt><trkpt lat="42.304462" lon="-4.514467"><ele>793</ele></trkpt><trkpt lat="42.304908" lon="-4.515523"><ele>791</ele></trkpt><trkpt lat="42.305354" lon="-4.51658"><ele>793</ele></trkpt><trkpt lat="42.3058" lon="-4.517635"><ele>796</ele></trkpt><trkpt lat="42.306251" lon="-4.518687"><ele>798</ele></trkpt><trkpt lat="42.306702" lon="-4.519739"><ele>799</ele></trkpt><trkpt lat="42.307132" lon="-4.520807"><ele>798</ele></trkpt><trkpt lat="42.307574" lon="-4.521866"><ele>799</ele></trkpt><trkpt lat="42.308017" lon="-4.522925"><ele>800</ele></trkpt><trkpt lat="42.308459" lon="-4.523983"><ele>801</ele></trkpt><trkpt lat="42.308908" lon="-4.525037"><ele>798</ele></trkpt><trkpt lat="42.309357" lon="-4.526091"><ele>794</ele></trkpt><trkpt lat="42.309801" lon="-4.527148"><ele>795</ele></trkpt><trkpt lat="42.310245" lon="-4.528206"><ele>800</ele></trkpt><trkpt lat="42.310682" lon="-4.529269"><ele>805</ele></trkpt><trkpt lat="42.311129" lon="-4.530324"><ele>804</ele></trkpt><trkpt lat="42.311578" lon="-4.531378"><ele>802</ele></trkpt><trkpt lat="42.311996" lon="-4.532454"><ele>801</ele></trkpt><trkpt lat="42.31234" lon="-4.533577"><ele>800</ele></trkpt><trkpt lat="42.312687" lon="-4.534699"><ele>798</ele></trkpt><trkpt lat="42.313026" lon="-4.535826"><ele>798</ele></trkpt><trkpt lat="42.313366" lon="-4.536952"><ele>798</ele></trkpt><trkpt lat="42.313705" lon="-4.538078"><ele>798</ele></trkpt><trkpt lat="42.314044" lon="-4.539204"><ele>798</ele></trkpt><trkpt lat="42.314384" lon="-4.540331"><ele>800</ele></trkpt><trkpt lat="42.314723" lon="-4.541457"><ele>799</ele></trkpt><trkpt lat="42.315268" lon="-4.542318"><ele>800</ele></trkpt><trkpt lat="42.315327" lon="-4.54328"><ele>801</ele></trkpt><trkpt lat="42.315585" lon="-4.544408"><ele>802</ele></trkpt><trkpt lat="42.315918" lon="-4.545538"><ele>803</ele></trkpt><trkpt lat="42.316284" lon="-4.546648"><ele>805</ele></trkpt><trkpt lat="42.316641" lon="-4.547765"><ele>808</ele></trkpt><trkpt lat="42.316988" lon="-4.548887"><ele>808</ele></trkpt><trkpt lat="42.317338" lon="-4.550007"><ele>810</ele></trkpt><trkpt lat="42.317686" lon="-4.551128"><ele>811</ele></trkpt><trkpt lat="42.318033" lon="-4.552251"><ele>813</ele></trkpt><trkpt lat="42.318376" lon="-4.553375"><ele>814</ele></trkpt><trkpt lat="42.31872" lon="-4.554498"><ele>815</ele></trkpt><trkpt lat="42.319064" lon="-4.555622"><ele>816</ele></trkpt><trkpt lat="42.319404" lon="-4.556748"><ele>817</ele></trkpt><trkpt lat="42.319742" lon="-4.557875"><ele>818</ele></trkpt><trkpt lat="42.320091" lon="-4.558996"><ele>822</ele></trkpt><trkpt lat="42.320436" lon="-4.56012"><ele>823</ele></trkpt><trkpt lat="42.320779" lon="-4.561244"><ele>824</ele></trkpt><trkpt lat="42.321122" lon="-4.562369"><ele>825</ele></trkpt><trkpt lat="42.321465" lon="-4.563493"><ele>828</ele></trkpt><trkpt lat="42.321809" lon="-4.564617"><ele>831</ele></trkpt><trkpt lat="42.322152" lon="-4.565741"><ele>833</ele></trkpt><trkpt lat="42.322533" lon="-4.566842"><ele>836</ele></trkpt><trkpt lat="42.322983" lon="-4.567895"><ele>841</ele></trkpt><trkpt lat="42.323422" lon="-4.568957"><ele>843</ele></trkpt><trkpt lat="42.323869" lon="-4.570012"><ele>845</ele></trkpt><trkpt lat="42.324342" lon="-4.571046"><ele>846</ele></trkpt><trkpt lat="42.324856" lon="-4.572044"><ele>842</ele></trkpt><trkpt lat="42.325375" lon="-4.573037"><ele>843</ele></trkpt><trkpt lat="42.325894" lon="-4.57403"><ele>846</ele></trkpt><trkpt lat="42.326407" lon="-4.57503"><ele>847</ele></trkpt><trkpt lat="42.326919" lon="-4.576029"><ele>847</ele></trkpt><trkpt lat="42.327433" lon="-4.577028"><ele>849</ele></trkpt><trkpt lat="42.32795" lon="-4.578023"><ele>847</ele></trkpt><trkpt lat="42.328464" lon="-4.579021"><ele>846</ele></trkpt><trkpt lat="42.328978" lon="-4.580019"><ele>844</ele></trkpt><trkpt lat="42.329492" lon="-4.581018"><ele>842</ele></trkpt><trkpt lat="42.330006" lon="-4.582016"><ele>840</ele></trkpt><trkpt lat="42.33052" lon="-4.583014"><ele>840</ele></trkpt><trkpt lat="42.331034" lon="-4.584012"><ele>839</ele></trkpt><trkpt lat="42.331548" lon="-4.585011"><ele>836</ele></trkpt><trkpt lat="42.332062" lon="-4.586009"><ele>834</ele></trkpt><trkpt lat="42.332576" lon="-4.587007"><ele>834</ele></trkpt><trkpt lat="42.33309" lon="-4.588005"><ele>833</ele></trkpt><trkpt lat="42.333604" lon="-4.589004"><ele>831</ele></trkpt><trkpt lat="42.334118" lon="-4.590002"><ele>827</ele></trkpt><trkpt lat="42.334632" lon="-4.591"><ele>826</ele></trkpt><trkpt lat="42.335139" lon="-4.592005"><ele>824</ele></trkpt><trkpt lat="42.335653" lon="-4.593004"><ele>823</ele></trkpt><trkpt lat="42.336166" lon="-4.594003"><ele>824</ele></trkpt><trkpt lat="42.336679" lon="-4.595001"><ele>827</ele></trkpt><trkpt lat="42.337249" lon="-4.595942"><ele>827</ele></trkpt><trkpt lat="42.337408" lon="-4.59698"><ele>828</ele></trkpt><trkpt lat="42.337415" lon="-4.598196"><ele>828</ele></trkpt><trkpt lat="42.33741" lon="-4.599412"><ele>830</ele></trkpt><trkpt lat="42.337254" lon="-4.60061"><ele>831</ele></trkpt><trkpt lat="42.33718" lon="-4.601406"><ele>834</ele></trkpt></trkseg></trk></gpx>