<?xml version="1.0" encoding="UTF-8"?>
<gpx version="1.1" creator="Mi Diario del Camino de Santiago" xmlns="http://www.topografix.com/GPX/1/1">
<metadata><name>Etapa 22B: Villar de Mazarife - Astorga</name><copyright author="OpenStreetMap contributors"><license>https://opendatacommons.org/licenses/odbl/1-0/</license></copyright></metadata>
<trk><name>Etapa 22B: Villar de Mazarife - Astorga</name><trkseg><trkpt lat="42.483394" lon="-5.727912"><ele>871</ele></trkpt><trkpt lat="42.482906" lon="-5.728816"><ele>869</ele></trkpt><trkpt lat="42.482575" lon="-5.729949"><ele>868</ele></trkpt><trkpt lat="42.48224" lon="-5.731081"><ele>866</ele></trkpt><trkpt lat="42.481936" lon="-5.732213"><ele>865</ele></trkpt><trkpt lat="42.481504" lon="-5.733279"><ele>864</ele></trkpt><trkpt lat="42.481194" lon="-5.734423"><ele>863</ele></trkpt><trkpt lat="42.48088" lon="-5.735566"><ele>862</ele></trkpt><trkpt lat="42.480539" lon="-5.736695"><ele>862</ele></trkpt><trkpt lat="42.480195" lon="-5.737821"><ele>862</ele></trkpt><trkpt lat="42.479843" lon="-5.738943"><ele>862</ele></trkpt><trkpt lat="42.479482" lon="-5.74006"><ele>861</ele></trkpt><trkpt lat="42.479119" lon="-5.741175"><ele>862</ele></trkpt><trkpt lat="42.478758" lon="-5.742293"><ele>861</ele></trkpt><trkpt lat="42.478404" lon="-5.743413"><ele>860</ele></trkpt><trkpt lat="42.478047" lon="-5.744532"><ele>860</ele></trkpt><trkpt lat="42.477687" lon="-5.74565"><ele>860</ele></trkpt><trkpt lat="42.477332" lon="-5.74677"><ele>859</ele></trkpt><trkpt lat="42.47698" lon="-5.747892"><ele>860</ele></trkpt><trkpt lat="42.476628" lon="-5.749014"><ele>859</ele></trkpt><trkpt lat="42.476273" lon="-5.750135"><ele>858</ele></trkpt><trkpt lat="42.475921" lon="-5.751257"><ele>859</ele></trkpt><trkpt lat="42.475568" lon="-5.752378"><ele>857</ele></trkpt><trkpt lat="42.475211" lon="-5.753497"><ele>857</ele></trkpt><trkpt lat="42.474854" lon="-5.754617"><ele>857</ele></trkpt><trkpt lat="42.4745" lon="-5.755737"><ele>858</ele></trkpt><trkpt lat="42.474145" lon="-5.756857"><ele>857</ele></trkpt><trkpt lat="42.473788" lon="-5.757977"><ele>857</ele></trkpt><trkpt lat="42.473431" lon="-5.759096"><ele>858</ele></trkpt><trkpt lat="42.473081" lon="-5.760219"><ele>857</ele></trkpt><trkpt lat="42.472729" lon="-5.761341"><ele>857</ele></trkpt><trkpt lat="42.472375" lon="-5.762462"><ele>854</ele></trkpt><trkpt lat="42.47202" lon="-5.763582"><ele>853</ele></trkpt><trkpt lat="42.471662" lon="-5.764701"><ele>853</ele></trkpt><trkpt lat="42.471309" lon="-5.765822"><ele>853</ele></trkpt><trkpt lat="42.470955" lon="-5.766943"><ele>853</ele></trkpt><trkpt lat="42.470595" lon="-5.768059"><ele>853</ele></trkpt><trkpt lat="42.470241" lon="-5.76918"><ele>853</ele></trkpt><trkpt lat="42.469887" lon="-5.770301"><ele>854</ele></trkpt><trkpt lat="42.469534" lon="-5.771422"><ele>854</ele></trkpt><trkpt lat="42.46918" lon="-5.772543"><ele>855</ele></trkpt><trkpt lat="42.468824" lon="-5.773663"><ele>854</ele></trkpt><trkpt lat="42.468469" lon="-5.774783"><ele>855</ele></trkpt><trkpt lat="42.468117" lon="-5.775905"><ele>855</ele></trkpt><trkpt lat="42.467763" lon="-5.777026"><ele>854</ele></trkpt><trkpt lat="42.467407" lon="-5.778145"><ele>854</ele></trkpt><trkpt lat="42.467051" lon="-5.779265"><ele>854</ele></trkpt><trkpt lat="42.466696" lon="-5.780385"><ele>853</ele></trkpt><trkpt lat="42.466345" lon="-5.781507"><ele>852</ele></trkpt><trkpt lat="42.465993" lon="-5.782629"><ele>852</ele></trkpt><trkpt lat="42.465641" lon="-5.783751"><ele>853</ele></trkpt><trkpt lat="42.465289" lon="-5.784873"><ele>852</ele></trkpt><trkpt lat="42.464937" lon="-5.785995"><ele>851</ele></trkpt><trkpt lat="42.464584" lon="-5.787116"><ele>849</ele></trkpt><trkpt lat="42.464225" lon="-5.788234"><ele>850</ele></trkpt><trkpt lat="42.463869" lon="-5.789353"><ele>850</ele></trkpt><trkpt lat="42.46352" lon="-5.790476"><ele>851</ele></trkpt><trkpt lat="42.463166" lon="-5.791597"><ele>850</ele></trkpt><trkpt lat="42.462815" lon="-5.792719"><ele>850</ele></trkpt><trkpt lat="42.462463" lon="-5.793842"><ele>850</ele></trkpt><trkpt lat="42.462112" lon="-5.794964"><ele>851</ele></trkpt><trkpt lat="42.461762" lon="-5.796087"><ele>852</ele></trkpt><trkpt lat="42.461406" lon="-5.797206"><ele>850</ele></trkpt><trkpt lat="42.460566" lon="-5.797297"><ele>851</ele></trkpt><trkpt lat="42.459684" lon="-5.797412"><ele>848</ele></trkpt><trkpt lat="42.45953" lon="-5.798442"><ele>845</ele></trkpt><trkpt lat="42.459981" lon="-5.799497"><ele>844</ele></trkpt><trkpt lat="42.460433" lon="-5.800551"><ele>843</ele></trkpt><trkpt lat="42.460752" lon="-5.80168"><ele>842</ele></trkpt><trkpt lat="42.460729" lon="-5.802899"><ele>840</ele></trkpt><trkpt lat="42.460702" lon="-5.804117"><ele>838</ele></trkpt><trkpt lat="42.460673" lon="-5.805335"><ele>835</ele></trkpt><trkpt lat="42.460646" lon="-5.806554"><ele>834</ele></trkpt><trkpt lat="42.460618" lon="-5.807772"><ele>836</ele></trkpt><trkpt lat="42.460591" lon="-5.808991"><ele>835</ele></trkpt><trkpt lat="42.460559" lon="-5.810209"><ele>837</ele></trkpt><trkpt lat="42.460532" lon="-5.811427"><ele>836</ele></trkpt><trkpt lat="42.460502" lon="-5.812646"><ele>837</ele></trkpt><trkpt lat="42.460473" lon="-5.813864"><ele>836</ele></trkpt><trkpt lat="42.460445" lon="-5.815083"><ele>835</ele></trkpt><trkpt lat="42.460414" lon="-5.816301"><ele>836</ele></trkpt><trkpt lat="42.460383" lon="-5.817519"><ele>836</ele></trkpt><trkpt lat="42.460353" lon="-5.818737"><ele>835</ele></trkpt><trkpt lat="42.460324" lon="-5.819956"><ele>836</ele></trkpt><trkpt lat="42.460295" lon="-5.821174"><ele>839</ele></trkpt><trkpt lat="42.46027" lon="-5.822393"><ele>840</ele></trkpt><trkpt lat="42.460242" lon="-5.823611"><ele>838</ele></trkpt><trkpt lat="42.460214" lon="-5.824829"><ele>836</ele></trkpt><trkpt lat="42.460186" lon="-5.826048"><ele>835</ele></trkpt><trkpt lat="42.460157" lon="-5.827266"><ele>835</ele></trkpt><trkpt lat="42.460127" lon="-5.828485"><ele>835</ele></trkpt><trkpt lat="42.460097" lon="-5.829703"><ele>835</ele></trkpt><trkpt lat="42.46007" lon="-5.830921"><ele>834</ele></trkpt><trkpt lat="42.460199" lon="-5.831979"><ele>835</ele></trkpt><trkpt lat="42.460609" lon="-5.833062"><ele>834</ele></trkpt><trkpt lat="42.460988" lon="-5.834031"><ele>834</ele></trkpt><trkpt lat="42.461842" lon="-5.83439"><ele>834</ele></trkpt><trkpt lat="42.462181" lon="-5.83542"><ele>836</ele></trkpt><trkpt lat="42.462511" lon="-5.836537"><ele>838</ele></trkpt><trkpt lat="42.462836" lon="-5.83764"><ele>837</ele></trkpt><trkpt lat="42.46315" lon="-5.838777"><ele>836</ele></trkpt><trkpt lat="42.463737" lon="-5.839689"><ele>835</ele></trkpt><trkpt lat="42.46438" lon="-5.840541"><ele>836</ele></trkpt><trkpt lat="42.464521" lon="-5.841376"><ele>835</ele></trkpt><trkpt lat="42.463711" lon="-5.841854"><ele>833</ele></trkpt><trkpt lat="42.462817" lon="-5.841758"><ele>831</ele></trkpt><trkpt lat="42.462137" lon="-5.84252"><ele>829</ele></trkpt><trkpt lat="42.461507" lon="-5.84339"><ele>829</ele></trkpt><trkpt lat="42.460876" lon="-5.844258"><ele>828</ele></trkpt><trkpt lat="42.460245" lon="-5.845127"><ele>828</ele></trkpt><trkpt lat="42.459647" lon="-5.846024"><ele>827</ele></trkpt><trkpt lat="42.459608" lon="-5.847242"><ele>827</ele></trkpt><trkpt lat="42.45957" lon="-5.84846"><ele>826</ele></trkpt><trkpt lat="42.459532" lon="-5.849678"><ele>826</ele></trkpt><trkpt lat="42.459498" lon="-5.850896"><ele>825</ele></trkpt><trkpt lat="42.459465" lon="-5.852114"><ele>825</ele></trkpt><trkpt lat="42.459431" lon="-5.853332"><ele>826</ele></trkpt><trkpt lat="42.459387" lon="-5.85455"><ele>825</ele></trkpt><trkpt lat="42.459346" lon="-5.855768"><ele>825</ele></trkpt><trkpt lat="42.459315" lon="-5.856986"><ele>825</ele></trkpt><trkpt lat="42.459279" lon="-5.858204"><ele>825</ele></trkpt><trkpt lat="42.459241" lon="-5.859422"><ele>824</ele></trkpt><trkpt lat="42.459138" lon="-5.860608"><ele>824</ele></trkpt><trkpt lat="42.458724" lon="-5.861688"><ele>824</ele></trkpt><trkpt lat="42.45837" lon="-5.862809"><ele>824</ele></trkpt><trkpt lat="42.45857" lon="-5.863808"><ele>825</ele></trkpt><trkpt lat="42.459159" lon="-5.864729"><ele>824</ele></trkpt><trkpt lat="42.459745" lon="-5.865654"><ele>825</ele></trkpt><trkpt lat="42.460327" lon="-5.866583"><ele>827</ele></trkpt><trkpt lat="42.46092" lon="-5.8675"><ele>827</ele></trkpt><trkpt lat="42.461509" lon="-5.868421"><ele>827</ele></trkpt><trkpt lat="42.462035" lon="-5.869382"><ele>828</ele></trkpt><trkpt lat="42.462528" lon="-5.870077"><ele>827</ele></trkpt><trkpt lat="42.463112" lon="-5.871004"><ele>827</ele></trkpt><trkpt lat="42.463697" lon="-5.87193"><ele>826</ele></trkpt><trkpt lat="42.463985" lon="-5.872989"><ele>824</ele></trkpt><trkpt lat="42.463918" lon="-5.874202"><ele>824</ele></trkpt><trkpt lat="42.46391" lon="-5.875421"><ele>824</ele></trkpt><trkpt lat="42.463926" lon="-5.876639"><ele>825</ele></trkpt><trkpt lat="42.463957" lon="-5.877856"><ele>814</ele></trkpt><trkpt lat="42.464041" lon="-5.879069"><ele>819</ele></trkpt><trkpt lat="42.46391" lon="-5.880271"><ele>820</ele></trkpt><trkpt lat="42.463697" lon="-5.881456"><ele>821</ele></trkpt><trkpt lat="42.463549" lon="-5.882654"><ele>822</ele></trkpt><trkpt lat="42.463508" lon="-5.883872"><ele>821</ele></trkpt><trkpt lat="42.46342" lon="-5.885085"><ele>822</ele></trkpt><trkpt lat="42.463314" lon="-5.886288"><ele>822</ele></trkpt><trkpt lat="42.463152" lon="-5.88748"><ele>821</ele></trkpt><trkpt lat="42.463422" lon="-5.888272"><ele>818</ele></trkpt><trkpt lat="42.464145" lon="-5.888934"><ele>818</ele></trkpt><trkpt lat="42.464701" lon="-5.889892"><ele>818</ele></trkpt><trkpt lat="42.465261" lon="-5.890846"><ele>818</ele></trkpt><trkpt lat="42.46582" lon="-5.891801"><ele>818</ele></trkpt><trkpt lat="42.466368" lon="-5.892768"><ele>820</ele></trkpt><trkpt lat="42.466879" lon="-5.893771"><ele>820</ele></trkpt><trkpt lat="42.467217" lon="-5.894854"><ele>820</ele></trkpt><trkpt lat="42.467137" lon="-5.896061"><ele>820</ele></trkpt><trkpt lat="42.467282" lon="-5.897264"><ele>820</ele></trkpt><trkpt lat="42.467427" lon="-5.898467"><ele>820</ele></trkpt><trkpt lat="42.467567" lon="-5.899672"><ele>820</ele></trkpt><trkpt lat="42.467703" lon="-5.900877"><ele>821</ele></trkpt><trkpt lat="42.467844" lon="-5.902081"><ele>820</ele></trkpt><trkpt lat="42.467987" lon="-5.903284"><ele>821</ele></trkpt><trkpt lat="42.468107" lon="-5.904492"><ele>824</ele></trkpt><trkpt lat="42.468205" lon="-5.905704"><ele>824</ele></trkpt><trkpt lat="42.468311" lon="-5.906915"><ele>823</ele></trkpt><trkpt lat="42.468404" lon="-5.908127"><ele>824</ele></trkpt><trkpt lat="42.468643" lon="-5.909289"><ele>826</ele></trkpt><trkpt lat="42.469083" lon="-5.910306"><ele>828</ele></trkpt><trkpt lat="42.469861" lon="-5.9108"><ele>828</ele></trkpt><trkpt lat="42.470341" lon="-5.911699"><ele>828</ele></trkpt><trkpt lat="42.470488" lon="-5.912758"><ele>829</ele></trkpt><trkpt lat="42.470682" lon="-5.913728"><ele>830</ele></trkpt><trkpt lat="42.470738" lon="-5.914856"><ele>832</ele></trkpt><trkpt lat="42.470257" lon="-5.915645"><ele>836</ele></trkpt><trkpt lat="42.469598" lon="-5.916402"><ele>836</ele></trkpt><trkpt lat="42.468857" lon="-5.917093"><ele>839</ele></trkpt><trkpt lat="42.468158" lon="-5.917833"><ele>841</ele></trkpt><trkpt lat="42.467279" lon="-5.918093"><ele>840</ele></trkpt><trkpt lat="42.466401" lon="-5.918357"><ele>840</ele></trkpt><trkpt lat="42.465524" lon="-5.918622"><ele>838</ele></trkpt><trkpt lat="42.464646" lon="-5.918886"><ele>837</ele></trkpt><trkpt lat="42.463766" lon="-5.919141"><ele>837</ele></trkpt><trkpt lat="42.463673" lon="-5.920246"><ele>844</ele></trkpt><trkpt lat="42.464002" lon="-5.921378"><ele>857</ele></trkpt><trkpt lat="42.464351" lon="-5.922502"><ele>864</ele></trkpt><trkpt lat="42.46452" lon="-5.923678"><ele>872</ele></trkpt><trkpt lat="42.464183" lon="-5.924796"><ele>868</ele></trkpt><trkpt lat="42.463807" lon="-5.925902"><ele>860</ele></trkpt><trkpt lat="42.463326" lon="-5.926931"><ele>854</ele></trkpt><trkpt lat="42.462807" lon="-5.927927"><ele>849</ele></trkpt><trkpt lat="42.462139" lon="-5.928636"><ele>847</ele></trkpt><trkpt lat="42.461281" lon="-5.928902"><ele>845</ele></trkpt><trkpt lat="42.460475" lon="-5.929327"><ele>846</ele></trkpt><trkpt lat="42.45975" lon="-5.930031"><ele>848</ele></trkpt><trkpt lat="42.45888" lon="-5.930179"><ele>848</ele></trkpt><trkpt lat="42.458025" lon="-5.930254"><ele>848</ele></trkpt><trkpt lat="42.457153" lon="-5.92999"><ele>849</ele></trkpt><trkpt lat="42.456318" lon="-5.929572"><ele>848</ele></trkpt><trkpt lat="42.455447" lon="-5.929285"><ele>846</ele></trkpt><trkpt lat="42.45455" lon="-5.92935"><ele>844</ele></trkpt><trkpt lat="42.453668" lon="-5.929583"><ele>843</ele></trkpt><trkpt lat="42.452825" lon="-5.929184"><ele>841</ele></trkpt><trkpt lat="42.451955" lon="-5.928894"><ele>840</ele></trkpt><trkpt lat="42.451106" lon="-5.928494"><ele>838</ele></trkpt><trkpt lat="42.450605" lon="-5.928937"><ele>839</ele></trkpt><trkpt lat="42.450368" lon="-5.930113"><ele>842</ele></trkpt><trkpt lat="42.45006" lon="-5.931246"><ele>848</ele></trkpt><trkpt lat="42.449839" lon="-5.932426"><ele>853</ele></trkpt><trkpt lat="42.449714" lon="-5.933561"><ele>857</ele></trkpt><trkpt lat="42.449447" lon="-5.934725"><ele>859</ele></trkpt><trkpt lat="42.449176" lon="-5.935887"><ele>862</ele></trkpt><trkpt lat="42.448897" lon="-5.937046"><ele>860</ele></trkpt><trkpt lat="42.448563" lon="-5.938176"><ele>857</ele></trkpt><trkpt lat="42.448229" lon="-5.939308"><ele>852</ele></trkpt><trkpt lat="42.447913" lon="-5.940449"><ele>850</ele></trkpt><trkpt lat="42.447571" lon="-5.941506"><ele>847</ele></trkpt><trkpt lat="42.447291" lon="-5.942664"><ele>848</ele></trkpt><trkpt lat="42.446803" lon="-5.943468"><ele>845</ele></trkpt><trkpt lat="42.446543" lon="-5.944611"><ele>848</ele></trkpt><trkpt lat="42.446323" lon="-5.945789"><ele>852</ele></trkpt><trkpt lat="42.446378" lon="-5.947004"><ele>856</ele></trkpt><trkpt lat="42.446455" lon="-5.948218"><ele>861</ele></trkpt><trkpt lat="42.446531" lon="-5.949432"><ele>866</ele></trkpt><trkpt lat="42.446616" lon="-5.950646"><ele>868</ele></trkpt><trkpt lat="42.44671" lon="-5.951858"><ele>873</ele></trkpt><trkpt lat="42.446795" lon="-5.953071"><ele>877</ele></trkpt><trkpt lat="42.446869" lon="-5.954285"><ele>881</ele></trkpt><trkpt lat="42.446891" lon="-5.955503"><ele>883</ele></trkpt><trkpt lat="42.446992" lon="-5.956708"><ele>881</ele></trkpt><trkpt lat="42.447066" lon="-5.957922"><ele>874</ele></trkpt><trkpt lat="42.447124" lon="-5.959138"><ele>868</ele></trkpt><trkpt lat="42.447184" lon="-5.960354"><ele>864</ele></trkpt><trkpt lat="42.447248" lon="-5.96157"><ele>863</ele></trkpt><trkpt lat="42.447311" lon="-5.962786"><ele>862</ele></trkpt><trkpt lat="42.447375" lon="-5.964001"><ele>861</ele></trkpt><trkpt lat="42.447439" lon="-5.965217"><ele>862</ele></trkpt><trkpt lat="42.447513" lon="-5.966432"><ele>864</ele></trkpt><trkpt lat="42.447589" lon="-5.967646"><ele>868</ele></trkpt><trkpt lat="42.447634" lon="-5.968863"><ele>871</ele></trkpt><trkpt lat="42.447681" lon="-5.97008"><ele>875</ele></trkpt><trkpt lat="42.447734" lon="-5.971297"><ele>879</ele></trkpt><trkpt lat="42.447792" lon="-5.972513"><ele>883</ele></trkpt><trkpt lat="42.447859" lon="-5.973729"><ele>884</ele></trkpt><trkpt lat="42.447923" lon="-5.974944"><ele>888</ele></trkpt><trkpt lat="42.447979" lon="-5.976161"><ele>894</ele></trkpt><trkpt lat="42.448052" lon="-5.977375"><ele>900</ele></trkpt><trkpt lat="42.448104" lon="-5.978592"><ele>904</ele></trkpt><trkpt lat="42.44816" lon="-5.979808"><ele>907</ele></trkpt><trkpt lat="42.448288" lon="-5.980995"><ele>910</ele></trkpt><trkpt lat="42.44881" lon="-5.981985"><ele>910</ele></trkpt><trkpt lat="42.449386" lon="-5.982921"><ele>910</ele></trkpt><trkpt lat="42.450009" lon="-5.983461"><ele>912</ele></trkpt><trkpt lat="42.450605" lon="-5.984373"><ele>911</ele></trkpt><trkpt lat="42.45135" lon="-5.984964"><ele>911</ele></trkpt><trkpt lat="42.451637" lon="-5.986017"><ele>912</ele></trkpt><trkpt lat="42.452191" lon="-5.986977"><ele>912</ele></trkpt><trkpt lat="42.452678" lon="-5.987993"><ele>913</ele></trkpt><trkpt lat="42.453223" lon="-5.988962"><ele>914</ele></trkpt><trkpt lat="42.453485" lon="-5.990126"><ele>913</ele></trkpt><trkpt lat="42.453483" lon="-5.991332"><ele>912</ele></trkpt><trkpt lat="42.453312" lon="-5.992527"><ele>912</ele></trkpt><trkpt lat="42.45335" lon="-5.993736"><ele>912</ele></trkpt><trkpt lat="42.453318" lon="-5.994954"><ele>914</ele></trkpt><trkpt lat="42.453403" lon="-5.996165"><ele>914</ele></trkpt><trkpt lat="42.453568" lon="-5.997363"><ele>914</ele></trkpt><trkpt lat="42.453722" lon="-5.998563"><ele>914</ele></trkpt><trkpt lat="42.453862" lon="-5.999767"><ele>914</ele></trkpt><trkpt lat="42.454054" lon="-6.000953"><ele>905</ele></trkpt><trkpt lat="42.454311" lon="-6.002103"><ele>891</ele></trkpt><trkpt lat="42.454546" lon="-6.003277"><ele>880</ele></trkpt><trkpt lat="42.454457" lon="-6.004489"><ele>872</ele></trkpt><trkpt lat="42.454324" lon="-6.005694"><ele>865</ele></trkpt><trkpt lat="42.454348" lon="-6.006902"><ele>861</ele></trkpt><trkpt lat="42.454315" lon="-6.008051"><ele>858</ele></trkpt><trkpt lat="42.454296" lon="-6.00927"><ele>856</ele></trkpt><trkpt lat="42.454273" lon="-6.010488"><ele>855</ele></trkpt><trkpt lat="42.454256" lon="-6.011707"><ele>854</ele></trkpt><trkpt lat="42.454223" lon="-6.012925"><ele>854</ele></trkpt><trkpt lat="42.454191" lon="-6.014142"><ele>852</ele></trkpt><trkpt lat="42.454245" lon="-6.015355"><ele>850</ele></trkpt><trkpt lat="42.454346" lon="-6.016563"><ele>848</ele></trkpt><trkpt lat="42.454369" lon="-6.017781"><ele>843</ele></trkpt><trkpt lat="42.454438" lon="-6.018997"><ele>839</ele></trkpt><trkpt lat="42.454507" lon="-6.020212"><ele>838</ele></trkpt><trkpt lat="42.454607" lon="-6.02137"><ele>839</ele></trkpt><trkpt lat="42.454628" lon="-6.022583"><ele>838</ele></trkpt><trkpt lat="42.454" lon="-6.023432"><ele>838</ele></trkpt><trkpt lat="42.453858" lon="-6.024572"><ele>838</ele></trkpt><trkpt lat="42.454106" lon="-6.025527"><ele>839</ele></trkpt><trkpt lat="42.454349" lon="-6.026535"><ele>839</ele></trkpt><trkpt lat="42.454432" lon="-6.027749"><ele>837</ele></trkpt><trkpt lat="42.454506" lon="-6.028963"><ele>837</ele></trkpt><trkpt lat="42.454567" lon="-6.03018"><ele>836</ele></trkpt><trkpt lat="42.454629" lon="-6.031395"><ele>838</ele></trkpt><trkpt lat="42.454681" lon="-6.032612"><ele>840</ele></trkpt><trkpt lat="42.454758" lon="-6.033826"><ele>842</ele></trkpt><trkpt lat="42.454899" lon="-6.035029"><ele>841</ele></trkpt><trkpt lat="42.455042" lon="-6.036233"><ele>840</ele></trkpt><trkpt lat="42.455214" lon="-6.037429"><ele>839</ele></trkpt><trkpt lat="42.455385" lon="-6.038626"><ele>839</ele></trkpt><trkpt lat="42.455547" lon="-6.039824"><ele>841</ele></trkpt><trkpt lat="42.455709" lon="-6.041023"><ele>841</ele></trkpt><trkpt lat="42.455875" lon="-6.042222"><ele>840</ele></trkpt><trkpt lat="42.455766" lon="-6.043407"><ele>841</ele></trkpt><trkpt lat="42.455503" lon="-6.044224"><ele>840</ele></trkpt><trkpt lat="42.454717" lon="-6.044486"><ele>840</ele></trkpt><trkpt lat="42.454512" lon="-6.044527"><ele>840</ele></trkpt><trkpt lat="42.454473" lon="-6.044784"><ele>840</ele></trkpt><trkpt lat="42.454628" lon="-6.044973"><ele>840</ele></trkpt><trkpt lat="42.454729" lon="-6.046173"><ele>842</ele></trkpt><trkpt lat="42.454756" lon="-6.047381"><ele>841</ele></trkpt><trkpt lat="42.454338" lon="-6.047898"><ele>840</ele></trkpt><trkpt lat="42.453922" lon="-6.048822"><ele>842</ele></trkpt><trkpt lat="42.453563" lon="-6.049934"><ele>850</ele></trkpt><trkpt lat="42.452888" lon="-6.050195"><ele>855</ele></trkpt><trkpt lat="42.453129" lon="-6.050981"><ele>863</ele></trkpt><trkpt lat="42.453539" lon="-6.0518"><ele>867</ele></trkpt><trkpt lat="42.454145" lon="-6.052622"><ele>871</ele></trkpt><trkpt lat="42.454863" lon="-6.053154"><ele>873</ele></trkpt><trkpt lat="42.455384" lon="-6.053834"><ele>873</ele></trkpt><trkpt lat="42.456174" lon="-6.0544"><ele>872</ele></trkpt><trkpt lat="42.456451" lon="-6.055515"><ele>871</ele></trkpt><trkpt lat="42.457219" lon="-6.055544"><ele>870</ele></trkpt><trkpt lat="42.457416" lon="-6.056296"><ele>872</ele></trkpt></trkseg></trk></gpx>