<?xml version="1.0" encoding="UTF-8"?>
<gpx version="1.1" creator="Mi Diario del Camino de Santiago" xmlns="http://www.topografix.com/GPX/1/1">
<metadata><name>Etapa 18: Terradillos de los Templarios - Bercianos del Real Camino</name><copyright author="OpenStreetMap contributors"><license>https://opendatacommons.org/licenses/odbl/1-0/</license></copyright></metadata>
<trk><name>Etapa 18: Terradillos de los Templarios - Bercianos del Real Camino</name><trkseg><trkpt lat="42.362989" lon="-4.890328"><ele>882</ele></trkpt><trkpt lat="42.362259" lon="-4.890783"><ele>877</ele></trkpt><trkpt lat="42.362442" lon="-4.891508"><ele>878</ele></trkpt><trkpt lat="42.36219" lon="-4.892659"><ele>874</ele></trkpt><trkpt lat="42.361807" lon="-4.893758"><ele>872</ele></trkpt><trkpt lat="42.361399" lon="-4.894841"><ele>869</ele></trkpt><trkpt lat="42.361035" lon="-4.895947"><ele>867</ele></trkpt><trkpt lat="42.360811" lon="-4.897126"><ele>862</ele></trkpt><trkpt lat="42.360602" lon="-4.898309"><ele>860</ele></trkpt><trkpt lat="42.360568" lon="-4.899524"><ele>859</ele></trkpt><trkpt lat="42.360375" lon="-4.900712"><ele>857</ele></trkpt><trkpt lat="42.360318" lon="-4.901924"><ele>856</ele></trkpt><trkpt lat="42.360454" lon="-4.903116"><ele>854</ele></trkpt><trkpt lat="42.360788" lon="-4.904243"><ele>853</ele></trkpt><trkpt lat="42.361275" lon="-4.905267"><ele>852</ele></trkpt><trkpt lat="42.360961" lon="-4.906295"><ele>850</ele></trkpt><trkpt lat="42.360489" lon="-4.907332"><ele>850</ele></trkpt><trkpt lat="42.360017" lon="-4.908367"><ele>850</ele></trkpt><trkpt lat="42.359466" lon="-4.909314"><ele>854</ele></trkpt><trkpt lat="42.359121" lon="-4.910285"><ele>845</ele></trkpt><trkpt lat="42.359368" lon="-4.911412"><ele>844</ele></trkpt><trkpt lat="42.359322" lon="-4.912592"><ele>842</ele></trkpt><trkpt lat="42.359724" lon="-4.913677"><ele>843</ele></trkpt><trkpt lat="42.360086" lon="-4.914791"><ele>847</ele></trkpt><trkpt lat="42.360515" lon="-4.915858"><ele>849</ele></trkpt><trkpt lat="42.360813" lon="-4.917004"><ele>853</ele></trkpt><trkpt lat="42.360785" lon="-4.918213"><ele>857</ele></trkpt><trkpt lat="42.36073" lon="-4.919428"><ele>861</ele></trkpt><trkpt lat="42.360718" lon="-4.920644"><ele>863</ele></trkpt><trkpt lat="42.360933" lon="-4.921817"><ele>862</ele></trkpt><trkpt lat="42.36092" lon="-4.92303"><ele>864</ele></trkpt><trkpt lat="42.360725" lon="-4.924217"><ele>860</ele></trkpt><trkpt lat="42.36046" lon="-4.925379"><ele>859</ele></trkpt><trkpt lat="42.360271" lon="-4.926564"><ele>859</ele></trkpt><trkpt lat="42.360204" lon="-4.927231"><ele>859</ele></trkpt><trkpt lat="42.359865" lon="-4.928321"><ele>859</ele></trkpt><trkpt lat="42.359401" lon="-4.929333"><ele>858</ele></trkpt><trkpt lat="42.358878" lon="-4.930306"><ele>859</ele></trkpt><trkpt lat="42.358767" lon="-4.931487"><ele>861</ele></trkpt><trkpt lat="42.359025" lon="-4.932652"><ele>866</ele></trkpt><trkpt lat="42.359341" lon="-4.933792"><ele>870</ele></trkpt><trkpt lat="42.359564" lon="-4.934965"><ele>873</ele></trkpt><trkpt lat="42.359664" lon="-4.936174"><ele>872</ele></trkpt><trkpt lat="42.359761" lon="-4.937383"><ele>874</ele></trkpt><trkpt lat="42.359572" lon="-4.938569"><ele>875</ele></trkpt><trkpt lat="42.35939" lon="-4.939757"><ele>876</ele></trkpt><trkpt lat="42.359525" lon="-4.940951"><ele>873</ele></trkpt><trkpt lat="42.359357" lon="-4.942115"><ele>868</ele></trkpt><trkpt lat="42.359289" lon="-4.943327"><ele>864</ele></trkpt><trkpt lat="42.359139" lon="-4.944524"><ele>864</ele></trkpt><trkpt lat="42.359235" lon="-4.945714"><ele>863</ele></trkpt><trkpt lat="42.359987" lon="-4.946363"><ele>862</ele></trkpt><trkpt lat="42.360831" lon="-4.946747"><ele>858</ele></trkpt><trkpt lat="42.361689" lon="-4.947095"><ele>855</ele></trkpt><trkpt lat="42.362511" lon="-4.947587"><ele>852</ele></trkpt><trkpt lat="42.363332" lon="-4.948051"><ele>849</ele></trkpt><trkpt lat="42.364027" lon="-4.948823"><ele>845</ele></trkpt><trkpt lat="42.364285" lon="-4.9499"><ele>847</ele></trkpt><trkpt lat="42.36424" lon="-4.951107"><ele>846</ele></trkpt><trkpt lat="42.363629" lon="-4.95191"><ele>843</ele></trkpt><trkpt lat="42.363388" lon="-4.95304"><ele>841</ele></trkpt><trkpt lat="42.363667" lon="-4.954168"><ele>840</ele></trkpt><trkpt lat="42.364137" lon="-4.954961"><ele>838</ele></trkpt><trkpt lat="42.364004" lon="-4.956125"><ele>841</ele></trkpt><trkpt lat="42.363831" lon="-4.957314"><ele>845</ele></trkpt><trkpt lat="42.363377" lon="-4.958355"><ele>850</ele></trkpt><trkpt lat="42.36287" lon="-4.959359"><ele>851</ele></trkpt><trkpt lat="42.362523" lon="-4.960479"><ele>853</ele></trkpt><trkpt lat="42.362195" lon="-4.961612"><ele>852</ele></trkpt><trkpt lat="42.362066" lon="-4.962812"><ele>849</ele></trkpt><trkpt lat="42.361901" lon="-4.964005"><ele>849</ele></trkpt><trkpt lat="42.361462" lon="-4.965067"><ele>848</ele></trkpt><trkpt lat="42.36104" lon="-4.96614"><ele>849</ele></trkpt><trkpt lat="42.360692" lon="-4.967263"><ele>849</ele></trkpt><trkpt lat="42.360501" lon="-4.968358"><ele>850</ele></trkpt><trkpt lat="42.3611" lon="-4.969258"><ele>853</ele></trkpt><trkpt lat="42.361349" lon="-4.97042"><ele>858</ele></trkpt><trkpt lat="42.361284" lon="-4.971621"><ele>860</ele></trkpt><trkpt lat="42.361021" lon="-4.972784"><ele>862</ele></trkpt><trkpt lat="42.360934" lon="-4.973985"><ele>863</ele></trkpt><trkpt lat="42.360941" lon="-4.975201"><ele>863</ele></trkpt><trkpt lat="42.360866" lon="-4.976412"><ele>861</ele></trkpt><trkpt lat="42.360722" lon="-4.977612"><ele>859</ele></trkpt><trkpt lat="42.36095" lon="-4.978761"><ele>854</ele></trkpt><trkpt lat="42.360972" lon="-4.979978"><ele>849</ele></trkpt><trkpt lat="42.360994" lon="-4.981195"><ele>848</ele></trkpt><trkpt lat="42.361016" lon="-4.982411"><ele>846</ele></trkpt><trkpt lat="42.361319" lon="-4.983528"><ele>843</ele></trkpt><trkpt lat="42.361779" lon="-4.984574"><ele>841</ele></trkpt><trkpt lat="42.362221" lon="-4.985633"><ele>839</ele></trkpt><trkpt lat="42.362617" lon="-4.986724"><ele>835</ele></trkpt><trkpt lat="42.363037" lon="-4.987798"><ele>832</ele></trkpt><trkpt lat="42.363244" lon="-4.988979"><ele>830</ele></trkpt><trkpt lat="42.36326" lon="-4.990196"><ele>828</ele></trkpt><trkpt lat="42.363164" lon="-4.991403"><ele>826</ele></trkpt><trkpt lat="42.363182" lon="-4.99262"><ele>822</ele></trkpt><trkpt lat="42.363207" lon="-4.993837"><ele>819</ele></trkpt><trkpt lat="42.363531" lon="-4.994966"><ele>818</ele></trkpt><trkpt lat="42.363905" lon="-4.996073"><ele>816</ele></trkpt><trkpt lat="42.364275" lon="-4.997183"><ele>814</ele></trkpt><trkpt lat="42.365042" lon="-4.996989"><ele>812</ele></trkpt><trkpt lat="42.365883" lon="-4.996555"><ele>812</ele></trkpt><trkpt lat="42.366741" lon="-4.996196"><ele>811</ele></trkpt><trkpt lat="42.366941" lon="-4.997176"><ele>809</ele></trkpt><trkpt lat="42.367069" lon="-4.998381"><ele>809</ele></trkpt><trkpt lat="42.367268" lon="-4.999534"><ele>809</ele></trkpt><trkpt lat="42.367893" lon="-4.999886"><ele>808</ele></trkpt><trkpt lat="42.368786" lon="-4.999746"><ele>809</ele></trkpt><trkpt lat="42.36968" lon="-4.999614"><ele>812</ele></trkpt><trkpt lat="42.370533" lon="-4.99956"><ele>814</ele></trkpt><trkpt lat="42.370227" lon="-5.000561"><ele>814</ele></trkpt><trkpt lat="42.369688" lon="-5.00151"><ele>811</ele></trkpt><trkpt lat="42.369472" lon="-5.002691"><ele>809</ele></trkpt><trkpt lat="42.369467" lon="-5.003907"><ele>809</ele></trkpt><trkpt lat="42.369456" lon="-5.005124"><ele>810</ele></trkpt><trkpt lat="42.369454" lon="-5.00634"><ele>811</ele></trkpt><trkpt lat="42.369604" lon="-5.007539"><ele>812</ele></trkpt><trkpt lat="42.369783" lon="-5.00873"><ele>814</ele></trkpt><trkpt lat="42.369874" lon="-5.009941"><ele>816</ele></trkpt><trkpt lat="42.369966" lon="-5.011152"><ele>819</ele></trkpt><trkpt lat="42.3701" lon="-5.012308"><ele>821</ele></trkpt><trkpt lat="42.370037" lon="-5.013319"><ele>820</ele></trkpt><trkpt lat="42.370136" lon="-5.014525"><ele>820</ele></trkpt><trkpt lat="42.370001" lon="-5.015727"><ele>821</ele></trkpt><trkpt lat="42.370025" lon="-5.016943"><ele>822</ele></trkpt><trkpt lat="42.370018" lon="-5.018159"><ele>823</ele></trkpt><trkpt lat="42.370098" lon="-5.019372"><ele>826</ele></trkpt><trkpt lat="42.370174" lon="-5.020585"><ele>828</ele></trkpt><trkpt lat="42.370205" lon="-5.021801"><ele>830</ele></trkpt><trkpt lat="42.370262" lon="-5.022979"><ele>832</ele></trkpt><trkpt lat="42.370884" lon="-5.023812"><ele>834</ele></trkpt><trkpt lat="42.371097" lon="-5.02496"><ele>836</ele></trkpt><trkpt lat="42.371311" lon="-5.02596"><ele>837</ele></trkpt><trkpt lat="42.37091" lon="-5.026833"><ele>835</ele></trkpt><trkpt lat="42.370605" lon="-5.027789"><ele>832</ele></trkpt><trkpt lat="42.370726" lon="-5.028995"><ele>827</ele></trkpt><trkpt lat="42.370732" lon="-5.030207"><ele>823</ele></trkpt><trkpt lat="42.370616" lon="-5.031407"><ele>820</ele></trkpt><trkpt lat="42.370427" lon="-5.032571"><ele>818</ele></trkpt><trkpt lat="42.370381" lon="-5.033785"><ele>817</ele></trkpt><trkpt lat="42.370051" lon="-5.034913"><ele>811</ele></trkpt><trkpt lat="42.369284" lon="-5.035499"><ele>803</ele></trkpt><trkpt lat="42.368761" lon="-5.03626"><ele>798</ele></trkpt><trkpt lat="42.368982" lon="-5.037399"><ele>801</ele></trkpt><trkpt lat="42.369383" lon="-5.038488"><ele>803</ele></trkpt><trkpt lat="42.369806" lon="-5.039562"><ele>802</ele></trkpt><trkpt lat="42.370224" lon="-5.04064"><ele>801</ele></trkpt><trkpt lat="42.370646" lon="-5.041715"><ele>802</ele></trkpt><trkpt lat="42.371064" lon="-5.042793"><ele>801</ele></trkpt><trkpt lat="42.37148" lon="-5.043872"><ele>803</ele></trkpt><trkpt lat="42.371895" lon="-5.044952"><ele>804</ele></trkpt><trkpt lat="42.372351" lon="-5.045998"><ele>804</ele></trkpt><trkpt lat="42.372871" lon="-5.046991"><ele>803</ele></trkpt><trkpt lat="42.373391" lon="-5.047985"><ele>801</ele></trkpt><trkpt lat="42.373897" lon="-5.04899"><ele>802</ele></trkpt><trkpt lat="42.374113" lon="-5.049809"><ele>804</ele></trkpt><trkpt lat="42.374746" lon="-5.050566"><ele>803</ele></trkpt><trkpt lat="42.375276" lon="-5.05155"><ele>802</ele></trkpt><trkpt lat="42.375668" lon="-5.052642"><ele>803</ele></trkpt><trkpt lat="42.375898" lon="-5.053818"><ele>802</ele></trkpt><trkpt lat="42.376113" lon="-5.055001"><ele>805</ele></trkpt><trkpt lat="42.376329" lon="-5.056182"><ele>806</ele></trkpt><trkpt lat="42.376554" lon="-5.057356"><ele>807</ele></trkpt><trkpt lat="42.376831" lon="-5.058514"><ele>809</ele></trkpt><trkpt lat="42.377127" lon="-5.059663"><ele>812</ele></trkpt><trkpt lat="42.377424" lon="-5.060812"><ele>812</ele></trkpt><trkpt lat="42.377733" lon="-5.061956"><ele>814</ele></trkpt><trkpt lat="42.378039" lon="-5.0631"><ele>813</ele></trkpt><trkpt lat="42.378427" lon="-5.064194"><ele>809</ele></trkpt><trkpt lat="42.378971" lon="-5.065161"><ele>808</ele></trkpt><trkpt lat="42.379549" lon="-5.066094"><ele>810</ele></trkpt><trkpt lat="42.380133" lon="-5.067019"><ele>810</ele></trkpt><trkpt lat="42.380723" lon="-5.067937"><ele>808</ele></trkpt><trkpt lat="42.381144" lon="-5.069012"><ele>809</ele></trkpt><trkpt lat="42.381523" lon="-5.070116"><ele>812</ele></trkpt><trkpt lat="42.381877" lon="-5.071235"><ele>816</ele></trkpt><trkpt lat="42.382109" lon="-5.072404"><ele>817</ele></trkpt><trkpt lat="42.382148" lon="-5.07362"><ele>818</ele></trkpt><trkpt lat="42.382377" lon="-5.074716"><ele>819</ele></trkpt><trkpt lat="42.382433" lon="-5.075931"><ele>821</ele></trkpt><trkpt lat="42.382442" lon="-5.07701"><ele>822</ele></trkpt><trkpt lat="42.382791" lon="-5.078009"><ele>822</ele></trkpt><trkpt lat="42.383007" lon="-5.079191"><ele>822</ele></trkpt><trkpt lat="42.383205" lon="-5.080379"><ele>819</ele></trkpt><trkpt lat="42.383403" lon="-5.081566"><ele>822</ele></trkpt><trkpt lat="42.383585" lon="-5.082759"><ele>824</ele></trkpt><trkpt lat="42.383742" lon="-5.083957"><ele>825</ele></trkpt><trkpt lat="42.383834" lon="-5.085168"><ele>825</ele></trkpt><trkpt lat="42.383911" lon="-5.086381"><ele>825</ele></trkpt><trkpt lat="42.383988" lon="-5.087594"><ele>827</ele></trkpt><trkpt lat="42.384067" lon="-5.088807"><ele>825</ele></trkpt><trkpt lat="42.384131" lon="-5.090021"><ele>825</ele></trkpt><trkpt lat="42.384091" lon="-5.091237"><ele>825</ele></trkpt><trkpt lat="42.384039" lon="-5.092453"><ele>826</ele></trkpt><trkpt lat="42.384002" lon="-5.093669"><ele>827</ele></trkpt><trkpt lat="42.383961" lon="-5.094886"><ele>826</ele></trkpt><trkpt lat="42.38391" lon="-5.096101"><ele>826</ele></trkpt><trkpt lat="42.383882" lon="-5.097316"><ele>826</ele></trkpt><trkpt lat="42.383967" lon="-5.098528"><ele>826</ele></trkpt><trkpt lat="42.384045" lon="-5.099741"><ele>827</ele></trkpt><trkpt lat="42.384121" lon="-5.100955"><ele>828</ele></trkpt><trkpt lat="42.384199" lon="-5.102168"><ele>828</ele></trkpt><trkpt lat="42.384279" lon="-5.10338"><ele>828</ele></trkpt><trkpt lat="42.384357" lon="-5.104593"><ele>829</ele></trkpt><trkpt lat="42.384435" lon="-5.105806"><ele>829</ele></trkpt><trkpt lat="42.384513" lon="-5.107019"><ele>828</ele></trkpt><trkpt lat="42.384587" lon="-5.108232"><ele>827</ele></trkpt><trkpt lat="42.384639" lon="-5.109446"><ele>828</ele></trkpt><trkpt lat="42.384679" lon="-5.11055"><ele>828</ele></trkpt><trkpt lat="42.384908" lon="-5.111719"><ele>828</ele></trkpt><trkpt lat="42.385212" lon="-5.112864"><ele>827</ele></trkpt><trkpt lat="42.385497" lon="-5.114019"><ele>829</ele></trkpt><trkpt lat="42.385753" lon="-5.115186"><ele>830</ele></trkpt><trkpt lat="42.385981" lon="-5.116364"><ele>831</ele></trkpt><trkpt lat="42.386218" lon="-5.117538"><ele>832</ele></trkpt><trkpt lat="42.386578" lon="-5.118653"><ele>833</ele></trkpt><trkpt lat="42.386921" lon="-5.119779"><ele>832</ele></trkpt><trkpt lat="42.387165" lon="-5.12095"><ele>835</ele></trkpt><trkpt lat="42.387404" lon="-5.122124"><ele>836</ele></trkpt><trkpt lat="42.387638" lon="-5.1233"><ele>837</ele></trkpt><trkpt lat="42.387874" lon="-5.124475"><ele>837</ele></trkpt><trkpt lat="42.388108" lon="-5.12565"><ele>836</ele></trkpt><trkpt lat="42.388341" lon="-5.126826"><ele>835</ele></trkpt><trkpt lat="42.388577" lon="-5.128001"><ele>838</ele></trkpt><trkpt lat="42.38879" lon="-5.129184"><ele>841</ele></trkpt><trkpt lat="42.389009" lon="-5.130365"><ele>840</ele></trkpt><trkpt lat="42.389293" lon="-5.13152"><ele>836</ele></trkpt><trkpt lat="42.389408" lon="-5.132713"><ele>833</ele></trkpt><trkpt lat="42.389221" lon="-5.133903"><ele>836</ele></trkpt><trkpt lat="42.389022" lon="-5.135091"><ele>840</ele></trkpt><trkpt lat="42.388824" lon="-5.136279"><ele>842</ele></trkpt><trkpt lat="42.388627" lon="-5.137466"><ele>845</ele></trkpt><trkpt lat="42.38843" lon="-5.138655"><ele>849</ele></trkpt><trkpt lat="42.388223" lon="-5.139839"><ele>849</ele></trkpt><trkpt lat="42.388102" lon="-5.141034"><ele>851</ele></trkpt><trkpt lat="42.387987" lon="-5.142241"><ele>853</ele></trkpt><trkpt lat="42.387827" lon="-5.143438"><ele>853</ele></trkpt><trkpt lat="42.387687" lon="-5.144637"><ele>855</ele></trkpt></trkseg></trk></gpx>