<?xml version="1.0" encoding="UTF-8"?>
<gpx version="1.1" creator="Mi Diario del Camino de Santiago" xmlns="http://www.topografix.com/GPX/1/1">
<metadata><name>Etapa 1B: Saint-Jean-Pied-de-Port - Roncesvalles</name><copyright author="OpenStreetMap contributors"><license>https://opendatacommons.org/licenses/odbl/1-0/</license></copyright></metadata>
<trk><name>Etapa 1B: Saint-Jean-Pied-de-Port - Roncesvalles</name><trkseg><trkpt lat="43.16234" lon="-1.237234"><ele>166</ele></trkpt><trkpt lat="43.161509" lon="-1.237703"><ele>169</ele></trkpt><trkpt lat="43.160681" lon="-1.238186"><ele>175</ele></trkpt><trkpt lat="43.159869" lon="-1.238669"><ele>181</ele></trkpt><trkpt lat="43.15903" lon="-1.238883"><ele>190</ele></trkpt><trkpt lat="43.158239" lon="-1.23944"><ele>206</ele></trkpt><trkpt lat="43.157383" lon="-1.239738"><ele>214</ele></trkpt><trkpt lat="43.156514" lon="-1.240051"><ele>222</ele></trkpt><trkpt lat="43.155726" lon="-1.240638"><ele>228</ele></trkpt><trkpt lat="43.154923" lon="-1.241165"><ele>242</ele></trkpt><trkpt lat="43.154077" lon="-1.241585"><ele>268</ele></trkpt><trkpt lat="43.154021" lon="-1.242567"><ele>280</ele></trkpt><trkpt lat="43.154216" lon="-1.243771"><ele>280</ele></trkpt><trkpt lat="43.154411" lon="-1.244974"><ele>266</ele></trkpt><trkpt lat="43.154606" lon="-1.246177"><ele>236</ele></trkpt><trkpt lat="43.154801" lon="-1.247381"><ele>204</ele></trkpt><trkpt lat="43.154996" lon="-1.248584"><ele>183</ele></trkpt><trkpt lat="43.154779" lon="-1.249498"><ele>171</ele></trkpt><trkpt lat="43.15477" lon="-1.250614"><ele>170</ele></trkpt><trkpt lat="43.154426" lon="-1.25159"><ele>173</ele></trkpt><trkpt lat="43.154461" lon="-1.252821"><ele>175</ele></trkpt><trkpt lat="43.154322" lon="-1.254028"><ele>183</ele></trkpt><trkpt lat="43.153697" lon="-1.254906"><ele>187</ele></trkpt><trkpt lat="43.152898" lon="-1.254932"><ele>190</ele></trkpt><trkpt lat="43.152017" lon="-1.255177"><ele>191</ele></trkpt><trkpt lat="43.151173" lon="-1.255573"><ele>191</ele></trkpt><trkpt lat="43.150511" lon="-1.25638"><ele>196</ele></trkpt><trkpt lat="43.149805" lon="-1.257142"><ele>195</ele></trkpt><trkpt lat="43.149053" lon="-1.257819"><ele>195</ele></trkpt><trkpt lat="43.148318" lon="-1.258528"><ele>198</ele></trkpt><trkpt lat="43.1476" lon="-1.259271"><ele>200</ele></trkpt><trkpt lat="43.146966" lon="-1.260137"><ele>206</ele></trkpt><trkpt lat="43.146355" lon="-1.26104"><ele>204</ele></trkpt><trkpt lat="43.145688" lon="-1.261816"><ele>204</ele></trkpt><trkpt lat="43.144816" lon="-1.261676"><ele>199</ele></trkpt><trkpt lat="43.144206" lon="-1.262572"><ele>206</ele></trkpt><trkpt lat="43.14345" lon="-1.263132"><ele>212</ele></trkpt><trkpt lat="43.142576" lon="-1.263389"><ele>210</ele></trkpt><trkpt lat="43.141702" lon="-1.263602"><ele>206</ele></trkpt><trkpt lat="43.141255" lon="-1.264567"><ele>222</ele></trkpt><trkpt lat="43.140938" lon="-1.265704"><ele>228</ele></trkpt><trkpt lat="43.140731" lon="-1.266813"><ele>237</ele></trkpt><trkpt lat="43.140114" lon="-1.266038"><ele>235</ele></trkpt><trkpt lat="43.139253" lon="-1.266378"><ele>248</ele></trkpt><trkpt lat="43.138408" lon="-1.266752"><ele>253</ele></trkpt><trkpt lat="43.13752" lon="-1.266882"><ele>250</ele></trkpt><trkpt lat="43.136695" lon="-1.267293"><ele>261</ele></trkpt><trkpt lat="43.136027" lon="-1.268089"><ele>278</ele></trkpt><trkpt lat="43.135153" lon="-1.268301"><ele>265</ele></trkpt><trkpt lat="43.13435" lon="-1.26877"><ele>269</ele></trkpt><trkpt lat="43.133538" lon="-1.269178"><ele>266</ele></trkpt><trkpt lat="43.132642" lon="-1.269071"><ele>246</ele></trkpt><trkpt lat="43.131744" lon="-1.26901"><ele>229</ele></trkpt><trkpt lat="43.130879" lon="-1.269017"><ele>223</ele></trkpt><trkpt lat="43.130045" lon="-1.268896"><ele>224</ele></trkpt><trkpt lat="43.129234" lon="-1.269248"><ele>234</ele></trkpt><trkpt lat="43.128346" lon="-1.269219"><ele>242</ele></trkpt><trkpt lat="43.127539" lon="-1.269727"><ele>258</ele></trkpt><trkpt lat="43.126984" lon="-1.270661"><ele>272</ele></trkpt><trkpt lat="43.126183" lon="-1.271218"><ele>271</ele></trkpt><trkpt lat="43.125658" lon="-1.272181"><ele>284</ele></trkpt><trkpt lat="43.125238" lon="-1.272464"><ele>278</ele></trkpt><trkpt lat="43.124516" lon="-1.271811"><ele>263</ele></trkpt><trkpt lat="43.123643" lon="-1.271572"><ele>263</ele></trkpt><trkpt lat="43.122781" lon="-1.271472"><ele>259</ele></trkpt><trkpt lat="43.121943" lon="-1.2711"><ele>257</ele></trkpt><trkpt lat="43.121058" lon="-1.270991"><ele>251</ele></trkpt><trkpt lat="43.12017" lon="-1.270866"><ele>248</ele></trkpt><trkpt lat="43.119273" lon="-1.270888"><ele>253</ele></trkpt><trkpt lat="43.118416" lon="-1.270963"><ele>243</ele></trkpt><trkpt lat="43.117533" lon="-1.271102"><ele>242</ele></trkpt><trkpt lat="43.116721" lon="-1.271382"><ele>243</ele></trkpt><trkpt lat="43.116385" lon="-1.272517"><ele>262</ele></trkpt><trkpt lat="43.115937" lon="-1.27355"><ele>278</ele></trkpt><trkpt lat="43.115215" lon="-1.274283"><ele>265</ele></trkpt><trkpt lat="43.114368" lon="-1.274641"><ele>263</ele></trkpt><trkpt lat="43.113838" lon="-1.275552"><ele>266</ele></trkpt><trkpt lat="43.113441" lon="-1.276653"><ele>278</ele></trkpt><trkpt lat="43.112885" lon="-1.277588"><ele>288</ele></trkpt><trkpt lat="43.112236" lon="-1.278405"><ele>287</ele></trkpt><trkpt lat="43.111567" lon="-1.279202"><ele>276</ele></trkpt><trkpt lat="43.110873" lon="-1.279935"><ele>272</ele></trkpt><trkpt lat="43.110361" lon="-1.280939"><ele>271</ele></trkpt><trkpt lat="43.109825" lon="-1.281918"><ele>264</ele></trkpt><trkpt lat="43.109254" lon="-1.282401"><ele>261</ele></trkpt><trkpt lat="43.108696" lon="-1.282116"><ele>253</ele></trkpt><trkpt lat="43.107818" lon="-1.281978"><ele>261</ele></trkpt><trkpt lat="43.107156" lon="-1.282756"><ele>267</ele></trkpt><trkpt lat="43.106645" lon="-1.283721"><ele>267</ele></trkpt><trkpt lat="43.105961" lon="-1.284518"><ele>272</ele></trkpt><trkpt lat="43.105364" lon="-1.285427"><ele>278</ele></trkpt><trkpt lat="43.104559" lon="-1.285838"><ele>288</ele></trkpt><trkpt lat="43.104079" lon="-1.286812"><ele>279</ele></trkpt><trkpt lat="43.103675" lon="-1.287907"><ele>276</ele></trkpt><trkpt lat="43.103063" lon="-1.28878"><ele>281</ele></trkpt><trkpt lat="43.102215" lon="-1.289161"><ele>293</ele></trkpt><trkpt lat="43.101338" lon="-1.289242"><ele>310</ele></trkpt><trkpt lat="43.100603" lon="-1.289937"><ele>309</ele></trkpt><trkpt lat="43.100007" lon="-1.290844"><ele>306</ele></trkpt><trkpt lat="43.099412" lon="-1.291675"><ele>304</ele></trkpt><trkpt lat="43.098622" lon="-1.292257"><ele>317</ele></trkpt><trkpt lat="43.097885" lon="-1.292941"><ele>326</ele></trkpt><trkpt lat="43.097057" lon="-1.293248"><ele>333</ele></trkpt><trkpt lat="43.096315" lon="-1.293748"><ele>327</ele></trkpt><trkpt lat="43.095621" lon="-1.294498"><ele>327</ele></trkpt><trkpt lat="43.094982" lon="-1.295336"><ele>334</ele></trkpt><trkpt lat="43.094559" lon="-1.296287"><ele>333</ele></trkpt><trkpt lat="43.093855" lon="-1.297025"><ele>333</ele></trkpt><trkpt lat="43.093158" lon="-1.297083"><ele>331</ele></trkpt><trkpt lat="43.09229" lon="-1.296979"><ele>326</ele></trkpt><trkpt lat="43.091944" lon="-1.298093"><ele>311</ele></trkpt><trkpt lat="43.091996" lon="-1.299134"><ele>309</ele></trkpt><trkpt lat="43.091302" lon="-1.299544"><ele>313</ele></trkpt><trkpt lat="43.091495" lon="-1.300548"><ele>327</ele></trkpt><trkpt lat="43.092138" lon="-1.301123"><ele>341</ele></trkpt><trkpt lat="43.091527" lon="-1.301617"><ele>349</ele></trkpt><trkpt lat="43.091843" lon="-1.302712"><ele>370</ele></trkpt><trkpt lat="43.091271" lon="-1.303576"><ele>387</ele></trkpt><trkpt lat="43.090541" lon="-1.302904"><ele>376</ele></trkpt><trkpt lat="43.089716" lon="-1.302936"><ele>373</ele></trkpt><trkpt lat="43.088964" lon="-1.303214"><ele>383</ele></trkpt><trkpt lat="43.088133" lon="-1.303446"><ele>389</ele></trkpt><trkpt lat="43.087362" lon="-1.304048"><ele>398</ele></trkpt><trkpt lat="43.08651" lon="-1.304432"><ele>410</ele></trkpt><trkpt lat="43.085661" lon="-1.304271"><ele>401</ele></trkpt><trkpt lat="43.084893" lon="-1.304862"><ele>416</ele></trkpt><trkpt lat="43.084122" lon="-1.305492"><ele>410</ele></trkpt><trkpt lat="43.083247" lon="-1.305658"><ele>397</ele></trkpt><trkpt lat="43.082385" lon="-1.305851"><ele>398</ele></trkpt><trkpt lat="43.081865" lon="-1.306731"><ele>418</ele></trkpt><trkpt lat="43.081026" lon="-1.306353"><ele>398</ele></trkpt><trkpt lat="43.080171" lon="-1.306712"><ele>414</ele></trkpt><trkpt lat="43.079301" lon="-1.306472"><ele>401</ele></trkpt><trkpt lat="43.078498" lon="-1.305961"><ele>375</ele></trkpt><trkpt lat="43.077604" lon="-1.306081"><ele>377</ele></trkpt><trkpt lat="43.076759" lon="-1.30644"><ele>394</ele></trkpt><trkpt lat="43.075997" lon="-1.307013"><ele>400</ele></trkpt><trkpt lat="43.075281" lon="-1.30768"><ele>400</ele></trkpt><trkpt lat="43.074432" lon="-1.30805"><ele>401</ele></trkpt><trkpt lat="43.073683" lon="-1.308733"><ele>431</ele></trkpt><trkpt lat="43.073002" lon="-1.309528"><ele>446</ele></trkpt><trkpt lat="43.072139" lon="-1.309833"><ele>445</ele></trkpt><trkpt lat="43.071248" lon="-1.309908"><ele>442</ele></trkpt><trkpt lat="43.070369" lon="-1.310024"><ele>435</ele></trkpt><trkpt lat="43.06962" lon="-1.310693"><ele>457</ele></trkpt><trkpt lat="43.06873" lon="-1.310589"><ele>451</ele></trkpt><trkpt lat="43.067859" lon="-1.310388"><ele>451</ele></trkpt><trkpt lat="43.067146" lon="-1.310416"><ele>467</ele></trkpt><trkpt lat="43.066947" lon="-1.30922"><ele>453</ele></trkpt><trkpt lat="43.06637" lon="-1.308336"><ele>451</ele></trkpt><trkpt lat="43.065591" lon="-1.307762"><ele>448</ele></trkpt><trkpt lat="43.064794" lon="-1.308271"><ele>475</ele></trkpt><trkpt lat="43.063943" lon="-1.307921"><ele>463</ele></trkpt><trkpt lat="43.063236" lon="-1.307204"><ele>447</ele></trkpt><trkpt lat="43.062423" lon="-1.307209"><ele>454</ele></trkpt><trkpt lat="43.061587" lon="-1.307657"><ele>458</ele></trkpt><trkpt lat="43.060978" lon="-1.30852"><ele>455</ele></trkpt><trkpt lat="43.060166" lon="-1.308935"><ele>476</ele></trkpt><trkpt lat="43.059423" lon="-1.309605"><ele>495</ele></trkpt><trkpt lat="43.058591" lon="-1.30965"><ele>490</ele></trkpt><trkpt lat="43.057781" lon="-1.310182"><ele>492</ele></trkpt><trkpt lat="43.057134" lon="-1.310946"><ele>496</ele></trkpt><trkpt lat="43.056575" lon="-1.311753"><ele>510</ele></trkpt><trkpt lat="43.055714" lon="-1.311417"><ele>498</ele></trkpt><trkpt lat="43.054887" lon="-1.311522"><ele>500</ele></trkpt><trkpt lat="43.054822" lon="-1.312709"><ele>516</ele></trkpt><trkpt lat="43.054353" lon="-1.31376"><ele>524</ele></trkpt><trkpt lat="43.053653" lon="-1.31449"><ele>529</ele></trkpt><trkpt lat="43.053029" lon="-1.31537"><ele>544</ele></trkpt><trkpt lat="43.052148" lon="-1.315488"><ele>533</ele></trkpt><trkpt lat="43.051571" lon="-1.316342"><ele>535</ele></trkpt><trkpt lat="43.051315" lon="-1.317504"><ele>546</ele></trkpt><trkpt lat="43.050968" lon="-1.31856"><ele>553</ele></trkpt><trkpt lat="43.050589" lon="-1.319621"><ele>568</ele></trkpt><trkpt lat="43.049773" lon="-1.320132"><ele>565</ele></trkpt><trkpt lat="43.049225" lon="-1.320103"><ele>561</ele></trkpt><trkpt lat="43.048655" lon="-1.320587"><ele>573</ele></trkpt><trkpt lat="43.047817" lon="-1.32084"><ele>574</ele></trkpt><trkpt lat="43.047196" lon="-1.321514"><ele>575</ele></trkpt><trkpt lat="43.046604" lon="-1.322325"><ele>582</ele></trkpt><trkpt lat="43.045774" lon="-1.322133"><ele>578</ele></trkpt><trkpt lat="43.044921" lon="-1.322483"><ele>591</ele></trkpt><trkpt lat="43.04407" lon="-1.322868"><ele>599</ele></trkpt><trkpt lat="43.043191" lon="-1.323078"><ele>603</ele></trkpt><trkpt lat="43.042353" lon="-1.32343"><ele>608</ele></trkpt><trkpt lat="43.04156" lon="-1.323963"><ele>598</ele></trkpt><trkpt lat="43.04117" lon="-1.325023"><ele>600</ele></trkpt><trkpt lat="43.040499" lon="-1.325794"><ele>623</ele></trkpt><trkpt lat="43.039629" lon="-1.32598"><ele>627</ele></trkpt><trkpt lat="43.038893" lon="-1.326648"><ele>617</ele></trkpt><trkpt lat="43.038141" lon="-1.32732"><ele>627</ele></trkpt><trkpt lat="43.037422" lon="-1.327974"><ele>642</ele></trkpt><trkpt lat="43.036732" lon="-1.328689"><ele>651</ele></trkpt><trkpt lat="43.036107" lon="-1.329457"><ele>669</ele></trkpt><trkpt lat="43.035235" lon="-1.329723"><ele>694</ele></trkpt><trkpt lat="43.03435" lon="-1.329879"><ele>713</ele></trkpt><trkpt lat="43.033667" lon="-1.330645"><ele>740</ele></trkpt><trkpt lat="43.032819" lon="-1.330976"><ele>757</ele></trkpt><trkpt lat="43.031968" lon="-1.330638"><ele>771</ele></trkpt><trkpt lat="43.031443" lon="-1.329965"><ele>784</ele></trkpt><trkpt lat="43.03071" lon="-1.330503"><ele>810</ele></trkpt><trkpt lat="43.030601" lon="-1.331675"><ele>831</ele></trkpt><trkpt lat="43.03078" lon="-1.332626"><ele>844</ele></trkpt><trkpt lat="43.030872" lon="-1.333605"><ele>849</ele></trkpt><trkpt lat="43.030098" lon="-1.334217"><ele>864</ele></trkpt><trkpt lat="43.029434" lon="-1.333763"><ele>878</ele></trkpt><trkpt lat="43.028735" lon="-1.333105"><ele>892</ele></trkpt><trkpt lat="43.028154" lon="-1.332252"><ele>892</ele></trkpt><trkpt lat="43.027402" lon="-1.331587"><ele>906</ele></trkpt><trkpt lat="43.026692" lon="-1.330838"><ele>940</ele></trkpt><trkpt lat="43.025968" lon="-1.33011"><ele>950</ele></trkpt><trkpt lat="43.025177" lon="-1.329529"><ele>960</ele></trkpt><trkpt lat="43.024294" lon="-1.329426"><ele>981</ele></trkpt><trkpt lat="43.023431" lon="-1.32974"><ele>1011</ele></trkpt><trkpt lat="43.023393" lon="-1.32855"><ele>1000</ele></trkpt><trkpt lat="43.023191" lon="-1.327428"><ele>1003</ele></trkpt><trkpt lat="43.022567" lon="-1.326551"><ele>1016</ele></trkpt><trkpt lat="43.021851" lon="-1.325829"><ele>1030</ele></trkpt><trkpt lat="43.021329" lon="-1.324872"><ele>1041</ele></trkpt><trkpt lat="43.021234" lon="-1.323649"><ele>1041</ele></trkpt><trkpt lat="43.021055" lon="-1.323438"><ele>1045</ele></trkpt><trkpt lat="43.020548" lon="-1.32418"><ele>1054</ele></trkpt><trkpt lat="43.019746" lon="-1.323768"><ele>1058</ele></trkpt><trkpt lat="43.019043" lon="-1.323017"><ele>1054</ele></trkpt><trkpt lat="43.018301" lon="-1.322342"><ele>1047</ele></trkpt><trkpt lat="43.017576" lon="-1.321619"><ele>1027</ele></trkpt><trkpt lat="43.017128" lon="-1.320642"><ele>1019</ele></trkpt><trkpt lat="43.016483" lon="-1.319938"><ele>1014</ele></trkpt><trkpt lat="43.015916" lon="-1.31902"><ele>1002</ele></trkpt><trkpt lat="43.015379" lon="-1.318081"><ele>988</ele></trkpt><trkpt lat="43.014618" lon="-1.317476"><ele>976</ele></trkpt><trkpt lat="43.013803" lon="-1.317778"><ele>969</ele></trkpt><trkpt lat="43.013023" lon="-1.318382"><ele>977</ele></trkpt><trkpt lat="43.012134" lon="-1.318507"><ele>967</ele></trkpt><trkpt lat="43.011274" lon="-1.318862"><ele>960</ele></trkpt><trkpt lat="43.010506" lon="-1.31873"><ele>956</ele></trkpt><trkpt lat="43.00966" lon="-1.31906"><ele>959</ele></trkpt><trkpt lat="43.00879" lon="-1.319299"><ele>951</ele></trkpt><trkpt lat="43.008661" lon="-1.319749"><ele>950</ele></trkpt></trkseg></trk></gpx>