<?xml version="1.0" encoding="UTF-8"?>
<gpx version="1.1" creator="Mi Diario del Camino de Santiago" xmlns="http://www.topografix.com/GPX/1/1">
<metadata><name>Etapa 31: Palas de Rei - Arzúa</name><copyright author="OpenStreetMap contributors"><license>https://opendatacommons.org/licenses/odbl/1-0/</license></copyright></metadata>
<trk><name>Etapa 31: Palas de Rei - Arzúa</name><trkseg><trkpt lat="42.872509" lon="-7.868054"><ele>561</ele></trkpt><trkpt lat="42.873038" lon="-7.86854"><ele>562</ele></trkpt><trkpt lat="42.873256" lon="-7.869625"><ele>551</ele></trkpt><trkpt lat="42.873421" lon="-7.870618"><ele>542</ele></trkpt><trkpt lat="42.873291" lon="-7.871821"><ele>536</ele></trkpt><trkpt lat="42.873669" lon="-7.872755"><ele>534</ele></trkpt><trkpt lat="42.874166" lon="-7.873388"><ele>533</ele></trkpt><trkpt lat="42.874246" lon="-7.874597"><ele>529</ele></trkpt><trkpt lat="42.873719" lon="-7.875553"><ele>526</ele></trkpt><trkpt lat="42.873286" lon="-7.87642"><ele>522</ele></trkpt><trkpt lat="42.87306" lon="-7.877607"><ele>519</ele></trkpt><trkpt lat="42.872836" lon="-7.878792"><ele>516</ele></trkpt><trkpt lat="42.872652" lon="-7.879988"><ele>512</ele></trkpt><trkpt lat="42.872563" lon="-7.881208"><ele>510</ele></trkpt><trkpt lat="42.872505" lon="-7.882279"><ele>513</ele></trkpt><trkpt lat="42.871778" lon="-7.882942"><ele>514</ele></trkpt><trkpt lat="42.871564" lon="-7.884102"><ele>519</ele></trkpt><trkpt lat="42.871327" lon="-7.885249"><ele>527</ele></trkpt><trkpt lat="42.871394" lon="-7.88646"><ele>533</ele></trkpt><trkpt lat="42.871578" lon="-7.88765"><ele>534</ele></trkpt><trkpt lat="42.871613" lon="-7.888876"><ele>541</ele></trkpt><trkpt lat="42.871803" lon="-7.890069"><ele>542</ele></trkpt><trkpt lat="42.871138" lon="-7.889681"><ele>537</ele></trkpt><trkpt lat="42.870272" lon="-7.889472"><ele>528</ele></trkpt><trkpt lat="42.870238" lon="-7.890595"><ele>525</ele></trkpt><trkpt lat="42.870386" lon="-7.891788"><ele>520</ele></trkpt><trkpt lat="42.870598" lon="-7.892967"><ele>518</ele></trkpt><trkpt lat="42.870818" lon="-7.894142"><ele>511</ele></trkpt><trkpt lat="42.870994" lon="-7.895339"><ele>510</ele></trkpt><trkpt lat="42.871299" lon="-7.89648"><ele>508</ele></trkpt><trkpt lat="42.871619" lon="-7.897622"><ele>505</ele></trkpt><trkpt lat="42.872273" lon="-7.898442"><ele>502</ele></trkpt><trkpt lat="42.872997" lon="-7.899144"><ele>498</ele></trkpt><trkpt lat="42.873642" lon="-7.899994"><ele>497</ele></trkpt><trkpt lat="42.874089" lon="-7.901055"><ele>491</ele></trkpt><trkpt lat="42.874494" lon="-7.902017"><ele>478</ele></trkpt><trkpt lat="42.874413" lon="-7.903185"><ele>466</ele></trkpt><trkpt lat="42.874451" lon="-7.904288"><ele>458</ele></trkpt><trkpt lat="42.875045" lon="-7.905113"><ele>457</ele></trkpt><trkpt lat="42.875222" lon="-7.906302"><ele>458</ele></trkpt><trkpt lat="42.875415" lon="-7.907495"><ele>456</ele></trkpt><trkpt lat="42.875739" lon="-7.908637"><ele>455</ele></trkpt><trkpt lat="42.876393" lon="-7.909465"><ele>456</ele></trkpt><trkpt lat="42.876912" lon="-7.910444"><ele>451</ele></trkpt><trkpt lat="42.877246" lon="-7.911583"><ele>436</ele></trkpt><trkpt lat="42.877793" lon="-7.912531"><ele>421</ele></trkpt><trkpt lat="42.877988" lon="-7.913655"><ele>418</ele></trkpt><trkpt lat="42.878546" lon="-7.914465"><ele>424</ele></trkpt><trkpt lat="42.879075" lon="-7.915384"><ele>433</ele></trkpt><trkpt lat="42.879176" lon="-7.916584"><ele>434</ele></trkpt><trkpt lat="42.879568" lon="-7.917686"><ele>437</ele></trkpt><trkpt lat="42.879864" lon="-7.918842"><ele>444</ele></trkpt><trkpt lat="42.879994" lon="-7.919983"><ele>449</ele></trkpt><trkpt lat="42.880027" lon="-7.921203"><ele>458</ele></trkpt><trkpt lat="42.879812" lon="-7.922379"><ele>463</ele></trkpt><trkpt lat="42.879479" lon="-7.923514"><ele>472</ele></trkpt><trkpt lat="42.879272" lon="-7.924703"><ele>475</ele></trkpt><trkpt lat="42.879216" lon="-7.925903"><ele>472</ele></trkpt><trkpt lat="42.878813" lon="-7.926993"><ele>475</ele></trkpt><trkpt lat="42.878734" lon="-7.928201"><ele>480</ele></trkpt><trkpt lat="42.878893" lon="-7.929395"><ele>489</ele></trkpt><trkpt lat="42.879133" lon="-7.930567"><ele>497</ele></trkpt><trkpt lat="42.879602" lon="-7.931508"><ele>501</ele></trkpt><trkpt lat="42.880166" lon="-7.932428"><ele>498</ele></trkpt><trkpt lat="42.880483" lon="-7.933576"><ele>496</ele></trkpt><trkpt lat="42.880798" lon="-7.934702"><ele>490</ele></trkpt><trkpt lat="42.880671" lon="-7.935914"><ele>481</ele></trkpt><trkpt lat="42.880452" lon="-7.937078"><ele>468</ele></trkpt><trkpt lat="42.88099" lon="-7.938057"><ele>463</ele></trkpt><trkpt lat="42.88109" lon="-7.939182"><ele>460</ele></trkpt><trkpt lat="42.880958" lon="-7.940391"><ele>456</ele></trkpt><trkpt lat="42.880647" lon="-7.941542"><ele>449</ele></trkpt><trkpt lat="42.880275" lon="-7.942629"><ele>441</ele></trkpt><trkpt lat="42.880489" lon="-7.94377"><ele>428</ele></trkpt><trkpt lat="42.880582" lon="-7.944938"><ele>428</ele></trkpt><trkpt lat="42.881198" lon="-7.945804"><ele>434</ele></trkpt><trkpt lat="42.881704" lon="-7.946777"><ele>440</ele></trkpt><trkpt lat="42.881832" lon="-7.947987"><ele>446</ele></trkpt><trkpt lat="42.881704" lon="-7.949176"><ele>451</ele></trkpt><trkpt lat="42.881489" lon="-7.950343"><ele>458</ele></trkpt><trkpt lat="42.881532" lon="-7.951568"><ele>464</ele></trkpt><trkpt lat="42.881565" lon="-7.952788"><ele>471</ele></trkpt><trkpt lat="42.882092" lon="-7.953748"><ele>472</ele></trkpt><trkpt lat="42.882569" lon="-7.954778"><ele>473</ele></trkpt><trkpt lat="42.883082" lon="-7.955773"><ele>477</ele></trkpt><trkpt lat="42.883726" lon="-7.95663"><ele>476</ele></trkpt><trkpt lat="42.884305" lon="-7.95756"><ele>476</ele></trkpt><trkpt lat="42.884755" lon="-7.958588"><ele>477</ele></trkpt><trkpt lat="42.885029" lon="-7.959722"><ele>478</ele></trkpt><trkpt lat="42.885485" lon="-7.960778"><ele>470</ele></trkpt><trkpt lat="42.885907" lon="-7.961856"><ele>465</ele></trkpt><trkpt lat="42.8863" lon="-7.962959"><ele>458</ele></trkpt><trkpt lat="42.886663" lon="-7.96404"><ele>451</ele></trkpt><trkpt lat="42.88722" lon="-7.964968"><ele>448</ele></trkpt><trkpt lat="42.887875" lon="-7.965797"><ele>446</ele></trkpt><trkpt lat="42.888568" lon="-7.966529"><ele>442</ele></trkpt><trkpt lat="42.889409" lon="-7.966961"><ele>440</ele></trkpt><trkpt lat="42.889931" lon="-7.967897"><ele>439</ele></trkpt><trkpt lat="42.89018" lon="-7.969022"><ele>441</ele></trkpt><trkpt lat="42.890908" lon="-7.96972"><ele>445</ele></trkpt><trkpt lat="42.891552" lon="-7.970577"><ele>449</ele></trkpt><trkpt lat="42.892208" lon="-7.971416"><ele>452</ele></trkpt><trkpt lat="42.892879" lon="-7.972223"><ele>458</ele></trkpt><trkpt lat="42.893464" lon="-7.973154"><ele>460</ele></trkpt><trkpt lat="42.894105" lon="-7.973887"><ele>460</ele></trkpt><trkpt lat="42.893988" lon="-7.974946"><ele>459</ele></trkpt><trkpt lat="42.893561" lon="-7.976015"><ele>458</ele></trkpt><trkpt lat="42.894162" lon="-7.976869"><ele>456</ele></trkpt><trkpt lat="42.894834" lon="-7.977683"><ele>455</ele></trkpt><trkpt lat="42.895554" lon="-7.978419"><ele>453</ele></trkpt><trkpt lat="42.896238" lon="-7.97921"><ele>450</ele></trkpt><trkpt lat="42.896896" lon="-7.980042"><ele>448</ele></trkpt><trkpt lat="42.897623" lon="-7.980758"><ele>447</ele></trkpt><trkpt lat="42.898152" lon="-7.98175"><ele>447</ele></trkpt><trkpt lat="42.898609" lon="-7.982805"><ele>447</ele></trkpt><trkpt lat="42.899126" lon="-7.983809"><ele>448</ele></trkpt><trkpt lat="42.899654" lon="-7.984803"><ele>449</ele></trkpt><trkpt lat="42.900175" lon="-7.985804"><ele>450</ele></trkpt><trkpt lat="42.9008" lon="-7.986654"><ele>452</ele></trkpt><trkpt lat="42.901321" lon="-7.987655"><ele>450</ele></trkpt><trkpt lat="42.901844" lon="-7.988653"><ele>447</ele></trkpt><trkpt lat="42.902358" lon="-7.98966"><ele>444</ele></trkpt><trkpt lat="42.902771" lon="-7.990726"><ele>441</ele></trkpt><trkpt lat="42.902955" lon="-7.991823"><ele>440</ele></trkpt><trkpt lat="42.903509" lon="-7.992783"><ele>445</ele></trkpt><trkpt lat="42.903946" lon="-7.993847"><ele>457</ele></trkpt><trkpt lat="42.904333" lon="-7.994882"><ele>456</ele></trkpt><trkpt lat="42.905029" lon="-7.995658"><ele>453</ele></trkpt><trkpt lat="42.905806" lon="-7.996271"><ele>449</ele></trkpt><trkpt lat="42.906618" lon="-7.996758"><ele>440</ele></trkpt><trkpt lat="42.907463" lon="-7.997146"><ele>426</ele></trkpt><trkpt lat="42.908153" lon="-7.997919"><ele>415</ele></trkpt><trkpt lat="42.908423" lon="-7.998774"><ele>405</ele></trkpt><trkpt lat="42.909073" lon="-7.999279"><ele>410</ele></trkpt><trkpt lat="42.909231" lon="-8.000446"><ele>408</ele></trkpt><trkpt lat="42.909164" lon="-8.001615"><ele>409</ele></trkpt><trkpt lat="42.909303" lon="-8.002703"><ele>411</ele></trkpt><trkpt lat="42.909961" lon="-8.003529"><ele>419</ele></trkpt><trkpt lat="42.910456" lon="-8.004552"><ele>423</ele></trkpt><trkpt lat="42.910889" lon="-8.005628"><ele>429</ele></trkpt><trkpt lat="42.911311" lon="-8.006712"><ele>432</ele></trkpt><trkpt lat="42.911697" lon="-8.007821"><ele>436</ele></trkpt><trkpt lat="42.911979" lon="-8.008973"><ele>441</ele></trkpt><trkpt lat="42.912275" lon="-8.010114"><ele>444</ele></trkpt><trkpt lat="42.912764" lon="-8.01113"><ele>446</ele></trkpt><trkpt lat="42.913405" lon="-8.011872"><ele>453</ele></trkpt><trkpt lat="42.913613" lon="-8.013067"><ele>454</ele></trkpt><trkpt lat="42.913831" lon="-8.014258"><ele>456</ele></trkpt><trkpt lat="42.914399" lon="-8.015064"><ele>457</ele></trkpt><trkpt lat="42.914248" lon="-8.016274"><ele>456</ele></trkpt><trkpt lat="42.914067" lon="-8.017476"><ele>455</ele></trkpt><trkpt lat="42.91384" lon="-8.018664"><ele>456</ele></trkpt><trkpt lat="42.913541" lon="-8.019783"><ele>452</ele></trkpt><trkpt lat="42.913027" lon="-8.020783"><ele>446</ele></trkpt><trkpt lat="42.9126" lon="-8.021856"><ele>432</ele></trkpt><trkpt lat="42.912136" lon="-8.022788"><ele>427</ele></trkpt><trkpt lat="42.911535" lon="-8.023702"><ele>426</ele></trkpt><trkpt lat="42.911175" lon="-8.024641"><ele>425</ele></trkpt><trkpt lat="42.911537" lon="-8.02576"><ele>420</ele></trkpt><trkpt lat="42.91185" lon="-8.026902"><ele>416</ele></trkpt><trkpt lat="42.912025" lon="-8.028079"><ele>417</ele></trkpt><trkpt lat="42.912182" lon="-8.029285"><ele>419</ele></trkpt><trkpt lat="42.912187" lon="-8.030513"><ele>419</ele></trkpt><trkpt lat="42.912014" lon="-8.031713"><ele>418</ele></trkpt><trkpt lat="42.912005" lon="-8.032916"><ele>426</ele></trkpt><trkpt lat="42.912102" lon="-8.034133"><ele>422</ele></trkpt><trkpt lat="42.912383" lon="-8.035299"><ele>423</ele></trkpt><trkpt lat="42.912557" lon="-8.036481"><ele>423</ele></trkpt><trkpt lat="42.912843" lon="-8.037626"><ele>427</ele></trkpt><trkpt lat="42.913271" lon="-8.038702"><ele>433</ele></trkpt><trkpt lat="42.913878" lon="-8.039585"><ele>434</ele></trkpt><trkpt lat="42.9146" lon="-8.040316"><ele>428</ele></trkpt><trkpt lat="42.915219" lon="-8.041198"><ele>418</ele></trkpt><trkpt lat="42.915694" lon="-8.042168"><ele>423</ele></trkpt><trkpt lat="42.916269" lon="-8.042939"><ele>433</ele></trkpt><trkpt lat="42.916353" lon="-8.044148"><ele>448</ele></trkpt><trkpt lat="42.916295" lon="-8.045362"><ele>449</ele></trkpt><trkpt lat="42.916007" lon="-8.046511"><ele>449</ele></trkpt><trkpt lat="42.916555" lon="-8.047472"><ele>450</ele></trkpt><trkpt lat="42.916645" lon="-8.04861"><ele>452</ele></trkpt><trkpt lat="42.917121" lon="-8.049433"><ele>455</ele></trkpt><trkpt lat="42.917481" lon="-8.050512"><ele>457</ele></trkpt><trkpt lat="42.917585" lon="-8.051704"><ele>464</ele></trkpt><trkpt lat="42.916871" lon="-8.052392"><ele>464</ele></trkpt><trkpt lat="42.916461" lon="-8.05347"><ele>466</ele></trkpt><trkpt lat="42.916012" lon="-8.054533"><ele>466</ele></trkpt><trkpt lat="42.915682" lon="-8.055672"><ele>461</ele></trkpt><trkpt lat="42.915483" lon="-8.056857"><ele>458</ele></trkpt><trkpt lat="42.915375" lon="-8.058066"><ele>459</ele></trkpt><trkpt lat="42.915376" lon="-8.059277"><ele>463</ele></trkpt><trkpt lat="42.915597" lon="-8.060459"><ele>460</ele></trkpt><trkpt lat="42.915991" lon="-8.06156"><ele>451</ele></trkpt><trkpt lat="42.916347" lon="-8.062677"><ele>442</ele></trkpt><trkpt lat="42.916657" lon="-8.063813"><ele>430</ele></trkpt><trkpt lat="42.916941" lon="-8.064775"><ele>419</ele></trkpt><trkpt lat="42.916574" lon="-8.065893"><ele>418</ele></trkpt><trkpt lat="42.916327" lon="-8.067066"><ele>419</ele></trkpt><trkpt lat="42.916142" lon="-8.068254"><ele>421</ele></trkpt><trkpt lat="42.91586" lon="-8.069413"><ele>423</ele></trkpt><trkpt lat="42.915784" lon="-8.070609"><ele>424</ele></trkpt><trkpt lat="42.91582" lon="-8.071821"><ele>422</ele></trkpt><trkpt lat="42.915744" lon="-8.072923"><ele>418</ele></trkpt><trkpt lat="42.915738" lon="-8.073961"><ele>413</ele></trkpt><trkpt lat="42.915993" lon="-8.075078"><ele>406</ele></trkpt><trkpt lat="42.916071" lon="-8.076299"><ele>401</ele></trkpt><trkpt lat="42.916089" lon="-8.077518"><ele>397</ele></trkpt><trkpt lat="42.916518" lon="-8.078232"><ele>395</ele></trkpt><trkpt lat="42.917091" lon="-8.079034"><ele>389</ele></trkpt><trkpt lat="42.917894" lon="-8.079423"><ele>378</ele></trkpt><trkpt lat="42.918184" lon="-8.080582"><ele>373</ele></trkpt><trkpt lat="42.918418" lon="-8.081738"><ele>364</ele></trkpt><trkpt lat="42.91845" lon="-8.082895"><ele>356</ele></trkpt><trkpt lat="42.918054" lon="-8.083948"><ele>351</ele></trkpt><trkpt lat="42.918108" lon="-8.085122"><ele>342</ele></trkpt><trkpt lat="42.918524" lon="-8.086198"><ele>337</ele></trkpt><trkpt lat="42.918677" lon="-8.087407"><ele>343</ele></trkpt><trkpt lat="42.918528" lon="-8.088573"><ele>349</ele></trkpt><trkpt lat="42.91891" lon="-8.088979"><ele>358</ele></trkpt><trkpt lat="42.919334" lon="-8.089665"><ele>371</ele></trkpt><trkpt lat="42.919498" lon="-8.090868"><ele>384</ele></trkpt><trkpt lat="42.920079" lon="-8.091785"><ele>395</ele></trkpt><trkpt lat="42.920734" lon="-8.092581"><ele>398</ele></trkpt><trkpt lat="42.92159" lon="-8.092953"><ele>402</ele></trkpt><trkpt lat="42.92242" lon="-8.093418"><ele>404</ele></trkpt><trkpt lat="42.92319" lon="-8.094051"><ele>405</ele></trkpt><trkpt lat="42.923929" lon="-8.094746"><ele>408</ele></trkpt><trkpt lat="42.924386" lon="-8.095788"><ele>411</ele></trkpt><trkpt lat="42.924691" lon="-8.096943"><ele>414</ele></trkpt><trkpt lat="42.924561" lon="-8.098088"><ele>413</ele></trkpt><trkpt lat="42.924707" lon="-8.099273"><ele>408</ele></trkpt><trkpt lat="42.924648" lon="-8.100496"><ele>404</ele></trkpt><trkpt lat="42.924676" lon="-8.101719"><ele>402</ele></trkpt><trkpt lat="42.925024" lon="-8.102851"><ele>395</ele></trkpt><trkpt lat="42.925501" lon="-8.103859"><ele>384</ele></trkpt><trkpt lat="42.926346" lon="-8.104201"><ele>381</ele></trkpt><trkpt lat="42.926782" lon="-8.104811"><ele>382</ele></trkpt><trkpt lat="42.927108" lon="-8.105956"><ele>386</ele></trkpt><trkpt lat="42.927435" lon="-8.1071"><ele>390</ele></trkpt><trkpt lat="42.92776" lon="-8.108245"><ele>394</ele></trkpt><trkpt lat="42.928085" lon="-8.10939"><ele>401</ele></trkpt><trkpt lat="42.928113" lon="-8.110606"><ele>411</ele></trkpt><trkpt lat="42.927702" lon="-8.111664"><ele>423</ele></trkpt><trkpt lat="42.927096" lon="-8.11256"><ele>430</ele></trkpt><trkpt lat="42.927852" lon="-8.113028"><ele>433</ele></trkpt><trkpt lat="42.928536" lon="-8.113812"><ele>426</ele></trkpt><trkpt lat="42.928815" lon="-8.114974"><ele>415</ele></trkpt><trkpt lat="42.929052" lon="-8.116159"><ele>405</ele></trkpt><trkpt lat="42.929252" lon="-8.117357"><ele>398</ele></trkpt><trkpt lat="42.929453" lon="-8.118554"><ele>394</ele></trkpt><trkpt lat="42.929525" lon="-8.11977"><ele>389</ele></trkpt><trkpt lat="42.929672" lon="-8.120763"><ele>392</ele></trkpt><trkpt lat="42.929921" lon="-8.121941"><ele>386</ele></trkpt><trkpt lat="42.930127" lon="-8.123107"><ele>373</ele></trkpt><trkpt lat="42.930144" lon="-8.124329"><ele>357</ele></trkpt><trkpt lat="42.930441" lon="-8.125463"><ele>345</ele></trkpt><trkpt lat="42.93091" lon="-8.126504"><ele>337</ele></trkpt><trkpt lat="42.931043" lon="-8.127712"><ele>322</ele></trkpt><trkpt lat="42.930958" lon="-8.128932"><ele>310</ele></trkpt><trkpt lat="42.930895" lon="-8.130101"><ele>306</ele></trkpt><trkpt lat="42.930475" lon="-8.131183"><ele>307</ele></trkpt><trkpt lat="42.93055" lon="-8.132394"><ele>315</ele></trkpt><trkpt lat="42.930783" lon="-8.133581"><ele>321</ele></trkpt><trkpt lat="42.930905" lon="-8.134718"><ele>332</ele></trkpt><trkpt lat="42.930153" lon="-8.135242"><ele>340</ele></trkpt><trkpt lat="42.929288" lon="-8.13552"><ele>339</ele></trkpt><trkpt lat="42.928858" lon="-8.136366"><ele>345</ele></trkpt><trkpt lat="42.929706" lon="-8.13612"><ele>348</ele></trkpt><trkpt lat="42.930577" lon="-8.136275"><ele>349</ele></trkpt><trkpt lat="42.930919" lon="-8.137386"><ele>355</ele></trkpt><trkpt lat="42.930919" lon="-8.138605"><ele>362</ele></trkpt><trkpt lat="42.930819" lon="-8.139826"><ele>363</ele></trkpt><trkpt lat="42.930367" lon="-8.140785"><ele>368</ele></trkpt><trkpt lat="42.929965" lon="-8.141874"><ele>376</ele></trkpt><trkpt lat="42.929924" lon="-8.143097"><ele>380</ele></trkpt><trkpt lat="42.929939" lon="-8.144325"><ele>382</ele></trkpt><trkpt lat="42.929947" lon="-8.145553"><ele>383</ele></trkpt><trkpt lat="42.929954" lon="-8.146782"><ele>385</ele></trkpt><trkpt lat="42.929969" lon="-8.14801"><ele>387</ele></trkpt><trkpt lat="42.929997" lon="-8.149237"><ele>386</ele></trkpt><trkpt lat="42.930045" lon="-8.150427"><ele>383</ele></trkpt><trkpt lat="42.930048" lon="-8.151655"><ele>388</ele></trkpt><trkpt lat="42.929898" lon="-8.152865"><ele>392</ele></trkpt><trkpt lat="42.929559" lon="-8.153996"><ele>394</ele></trkpt><trkpt lat="42.929172" lon="-8.155098"><ele>397</ele></trkpt><trkpt lat="42.928754" lon="-8.156185"><ele>396</ele></trkpt><trkpt lat="42.928354" lon="-8.157283"><ele>394</ele></trkpt><trkpt lat="42.927951" lon="-8.158381"><ele>395</ele></trkpt><trkpt lat="42.92755" lon="-8.15948"><ele>393</ele></trkpt><trkpt lat="42.927111" lon="-8.160525"><ele>390</ele></trkpt><trkpt lat="42.926667" lon="-8.161593"><ele>389</ele></trkpt><trkpt lat="42.926312" lon="-8.162718"><ele>388</ele></trkpt></trkseg></trk></gpx>