<?xml version="1.0" encoding="UTF-8"?>
<gpx version="1.1" creator="Mi Diario del Camino de Santiago" xmlns="http://www.topografix.com/GPX/1/1">
<metadata><name>Etapa 13: Burgos - Hornillos del Camino</name><copyright author="OpenStreetMap contributors"><license>https://opendatacommons.org/licenses/odbl/1-0/</license></copyright></metadata>
<trk><name>Etapa 13: Burgos - Hornillos del Camino</name><trkseg><trkpt lat="42.340889" lon="-3.704897"><ele>877</ele></trkpt><trkpt lat="42.340426" lon="-3.70591"><ele>874</ele></trkpt><trkpt lat="42.340185" lon="-3.70701"><ele>870</ele></trkpt><trkpt lat="42.340546" lon="-3.708123"><ele>876</ele></trkpt><trkpt lat="42.34092" lon="-3.709227"><ele>881</ele></trkpt><trkpt lat="42.341149" lon="-3.710404"><ele>879</ele></trkpt><trkpt lat="42.341572" lon="-3.711395"><ele>876</ele></trkpt><trkpt lat="42.341695" lon="-3.712599"><ele>864</ele></trkpt><trkpt lat="42.342092" lon="-3.713658"><ele>857</ele></trkpt><trkpt lat="42.342659" lon="-3.714522"><ele>856</ele></trkpt><trkpt lat="42.341828" lon="-3.714964"><ele>855</ele></trkpt><trkpt lat="42.341452" lon="-3.715902"><ele>856</ele></trkpt><trkpt lat="42.340899" lon="-3.716582"><ele>858</ele></trkpt><trkpt lat="42.340456" lon="-3.717624"><ele>852</ele></trkpt><trkpt lat="42.340439" lon="-3.718604"><ele>852</ele></trkpt><trkpt lat="42.340408" lon="-3.719701"><ele>853</ele></trkpt><trkpt lat="42.340531" lon="-3.720906"><ele>854</ele></trkpt><trkpt lat="42.34065" lon="-3.722112"><ele>855</ele></trkpt><trkpt lat="42.340769" lon="-3.723318"><ele>851</ele></trkpt><trkpt lat="42.340894" lon="-3.724523"><ele>851</ele></trkpt><trkpt lat="42.341017" lon="-3.725728"><ele>849</ele></trkpt><trkpt lat="42.341166" lon="-3.726919"><ele>849</ele></trkpt><trkpt lat="42.341628" lon="-3.727497"><ele>848</ele></trkpt><trkpt lat="42.341809" lon="-3.728685"><ele>847</ele></trkpt><trkpt lat="42.342036" lon="-3.729657"><ele>848</ele></trkpt><trkpt lat="42.342164" lon="-3.730861"><ele>844</ele></trkpt><trkpt lat="42.342287" lon="-3.732066"><ele>846</ele></trkpt><trkpt lat="42.342328" lon="-3.733252"><ele>844</ele></trkpt><trkpt lat="42.342409" lon="-3.73435"><ele>844</ele></trkpt><trkpt lat="42.342531" lon="-3.735555"><ele>845</ele></trkpt><trkpt lat="42.342933" lon="-3.736274"><ele>844</ele></trkpt><trkpt lat="42.343176" lon="-3.737061"><ele>845</ele></trkpt><trkpt lat="42.343445" lon="-3.738221"><ele>846</ele></trkpt><trkpt lat="42.343605" lon="-3.739418"><ele>844</ele></trkpt><trkpt lat="42.34364" lon="-3.740595"><ele>843</ele></trkpt><trkpt lat="42.343632" lon="-3.741788"><ele>844</ele></trkpt><trkpt lat="42.34357" lon="-3.742998"><ele>842</ele></trkpt><trkpt lat="42.343531" lon="-3.744213"><ele>841</ele></trkpt><trkpt lat="42.343762" lon="-3.74537"><ele>841</ele></trkpt><trkpt lat="42.344248" lon="-3.746384"><ele>842</ele></trkpt><trkpt lat="42.34473" lon="-3.74741"><ele>841</ele></trkpt><trkpt lat="42.345091" lon="-3.748522"><ele>840</ele></trkpt><trkpt lat="42.345356" lon="-3.749683"><ele>840</ele></trkpt><trkpt lat="42.345801" lon="-3.750737"><ele>841</ele></trkpt><trkpt lat="42.346372" lon="-3.751673"><ele>843</ele></trkpt><trkpt lat="42.346612" lon="-3.752823"><ele>846</ele></trkpt><trkpt lat="42.346984" lon="-3.753912"><ele>845</ele></trkpt><trkpt lat="42.34734" lon="-3.755024"><ele>843</ele></trkpt><trkpt lat="42.347535" lon="-3.756203"><ele>835</ele></trkpt><trkpt lat="42.347847" lon="-3.757343"><ele>833</ele></trkpt><trkpt lat="42.348141" lon="-3.758493"><ele>835</ele></trkpt><trkpt lat="42.348318" lon="-3.75968"><ele>835</ele></trkpt><trkpt lat="42.348358" lon="-3.760895"><ele>835</ele></trkpt><trkpt lat="42.348359" lon="-3.762112"><ele>834</ele></trkpt><trkpt lat="42.348366" lon="-3.763329"><ele>834</ele></trkpt><trkpt lat="42.348613" lon="-3.764467"><ele>833</ele></trkpt><trkpt lat="42.349093" lon="-3.765491"><ele>832</ele></trkpt><trkpt lat="42.349336" lon="-3.766662"><ele>835</ele></trkpt><trkpt lat="42.349897" lon="-3.767598"><ele>834</ele></trkpt><trkpt lat="42.350494" lon="-3.767931"><ele>833</ele></trkpt><trkpt lat="42.350903" lon="-3.768814"><ele>833</ele></trkpt><trkpt lat="42.351268" lon="-3.769924"><ele>832</ele></trkpt><trkpt lat="42.351706" lon="-3.770986"><ele>831</ele></trkpt><trkpt lat="42.351932" lon="-3.77216"><ele>831</ele></trkpt><trkpt lat="42.352074" lon="-3.773361"><ele>830</ele></trkpt><trkpt lat="42.352262" lon="-3.77455"><ele>829</ele></trkpt><trkpt lat="42.352441" lon="-3.775741"><ele>829</ele></trkpt><trkpt lat="42.35256" lon="-3.776947"><ele>831</ele></trkpt><trkpt lat="42.352958" lon="-3.777772"><ele>831</ele></trkpt><trkpt lat="42.35251" lon="-3.778827"><ele>831</ele></trkpt><trkpt lat="42.352295" lon="-3.779995"><ele>829</ele></trkpt><trkpt lat="42.35226" lon="-3.781209"><ele>828</ele></trkpt><trkpt lat="42.352058" lon="-3.782353"><ele>829</ele></trkpt><trkpt lat="42.351747" lon="-3.783488"><ele>828</ele></trkpt><trkpt lat="42.351602" lon="-3.784432"><ele>829</ele></trkpt><trkpt lat="42.352409" lon="-3.784957"><ele>830</ele></trkpt><trkpt lat="42.35313" lon="-3.785664"><ele>826</ele></trkpt><trkpt lat="42.353322" lon="-3.78679"><ele>826</ele></trkpt><trkpt lat="42.35245" lon="-3.78681"><ele>827</ele></trkpt><trkpt lat="42.351691" lon="-3.787171"><ele>826</ele></trkpt><trkpt lat="42.351222" lon="-3.788209"><ele>826</ele></trkpt><trkpt lat="42.35094" lon="-3.789338"><ele>825</ele></trkpt><trkpt lat="42.350872" lon="-3.790551"><ele>826</ele></trkpt><trkpt lat="42.35059" lon="-3.791659"><ele>826</ele></trkpt><trkpt lat="42.35076" lon="-3.7928"><ele>826</ele></trkpt><trkpt lat="42.350737" lon="-3.794015"><ele>825</ele></trkpt><trkpt lat="42.351178" lon="-3.794808"><ele>826</ele></trkpt><trkpt lat="42.351601" lon="-3.795668"><ele>826</ele></trkpt><trkpt lat="42.35101" lon="-3.796327"><ele>826</ele></trkpt><trkpt lat="42.350206" lon="-3.796162"><ele>827</ele></trkpt><trkpt lat="42.349896" lon="-3.797164"><ele>826</ele></trkpt><trkpt lat="42.349969" lon="-3.79837"><ele>825</ele></trkpt><trkpt lat="42.349913" lon="-3.799583"><ele>827</ele></trkpt><trkpt lat="42.349551" lon="-3.800691"><ele>830</ele></trkpt><trkpt lat="42.349069" lon="-3.801714"><ele>831</ele></trkpt><trkpt lat="42.348454" lon="-3.80259"><ele>831</ele></trkpt><trkpt lat="42.3479" lon="-3.803538"><ele>831</ele></trkpt><trkpt lat="42.347555" lon="-3.804589"><ele>828</ele></trkpt><trkpt lat="42.347556" lon="-3.805789"><ele>825</ele></trkpt><trkpt lat="42.347534" lon="-3.807003"><ele>825</ele></trkpt><trkpt lat="42.347633" lon="-3.808212"><ele>829</ele></trkpt><trkpt lat="42.347754" lon="-3.809418"><ele>829</ele></trkpt><trkpt lat="42.347892" lon="-3.81062"><ele>826</ele></trkpt><trkpt lat="42.348087" lon="-3.811808"><ele>828</ele></trkpt><trkpt lat="42.348301" lon="-3.812989"><ele>829</ele></trkpt><trkpt lat="42.348569" lon="-3.814113"><ele>829</ele></trkpt><trkpt lat="42.348938" lon="-3.815217"><ele>829</ele></trkpt><trkpt lat="42.348623" lon="-3.816331"><ele>826</ele></trkpt><trkpt lat="42.348936" lon="-3.817278"><ele>826</ele></trkpt><trkpt lat="42.349158" lon="-3.818441"><ele>826</ele></trkpt><trkpt lat="42.348907" lon="-3.819536"><ele>827</ele></trkpt><trkpt lat="42.349222" lon="-3.820657"><ele>825</ele></trkpt><trkpt lat="42.349307" lon="-3.821825"><ele>823</ele></trkpt><trkpt lat="42.34911" lon="-3.822974"><ele>822</ele></trkpt><trkpt lat="42.348963" lon="-3.824167"><ele>820</ele></trkpt><trkpt lat="42.348615" lon="-3.825289"><ele>821</ele></trkpt><trkpt lat="42.348266" lon="-3.82641"><ele>822</ele></trkpt><trkpt lat="42.347948" lon="-3.827548"><ele>820</ele></trkpt><trkpt lat="42.347499" lon="-3.828555"><ele>820</ele></trkpt><trkpt lat="42.346606" lon="-3.828684"><ele>825</ele></trkpt><trkpt lat="42.345742" lon="-3.828966"><ele>832</ele></trkpt><trkpt lat="42.344958" lon="-3.829548"><ele>833</ele></trkpt><trkpt lat="42.344179" lon="-3.829983"><ele>831</ele></trkpt><trkpt lat="42.343384" lon="-3.830542"><ele>834</ele></trkpt><trkpt lat="42.342709" lon="-3.831343"><ele>835</ele></trkpt><trkpt lat="42.342114" lon="-3.832255"><ele>831</ele></trkpt><trkpt lat="42.341529" lon="-3.833178"><ele>829</ele></trkpt><trkpt lat="42.340733" lon="-3.833549"><ele>829</ele></trkpt><trkpt lat="42.340471" lon="-3.834594"><ele>834</ele></trkpt><trkpt lat="42.339923" lon="-3.835436"><ele>832</ele></trkpt><trkpt lat="42.340132" lon="-3.836611"><ele>835</ele></trkpt><trkpt lat="42.34025" lon="-3.837795"><ele>839</ele></trkpt><trkpt lat="42.340323" lon="-3.838995"><ele>834</ele></trkpt><trkpt lat="42.340474" lon="-3.840192"><ele>829</ele></trkpt><trkpt lat="42.340431" lon="-3.841399"><ele>832</ele></trkpt><trkpt lat="42.340276" lon="-3.842596"><ele>837</ele></trkpt><trkpt lat="42.340183" lon="-3.843801"><ele>841</ele></trkpt><trkpt lat="42.340331" lon="-3.845001"><ele>843</ele></trkpt><trkpt lat="42.340371" lon="-3.84621"><ele>841</ele></trkpt><trkpt lat="42.340455" lon="-3.847419"><ele>841</ele></trkpt><trkpt lat="42.340582" lon="-3.848623"><ele>843</ele></trkpt><trkpt lat="42.340894" lon="-3.849738"><ele>843</ele></trkpt><trkpt lat="42.341194" lon="-3.850847"><ele>847</ele></trkpt><trkpt lat="42.341305" lon="-3.852055"><ele>852</ele></trkpt><trkpt lat="42.341399" lon="-3.853263"><ele>854</ele></trkpt><trkpt lat="42.341401" lon="-3.854472"><ele>854</ele></trkpt><trkpt lat="42.341221" lon="-3.855662"><ele>860</ele></trkpt><trkpt lat="42.341077" lon="-3.856862"><ele>866</ele></trkpt><trkpt lat="42.340915" lon="-3.858059"><ele>867</ele></trkpt><trkpt lat="42.340888" lon="-3.859268"><ele>867</ele></trkpt><trkpt lat="42.34086" lon="-3.860483"><ele>864</ele></trkpt><trkpt lat="42.340757" lon="-3.86169"><ele>863</ele></trkpt><trkpt lat="42.340756" lon="-3.862906"><ele>865</ele></trkpt><trkpt lat="42.340741" lon="-3.864122"><ele>869</ele></trkpt><trkpt lat="42.34107" lon="-3.865239"><ele>868</ele></trkpt><trkpt lat="42.341317" lon="-3.866405"><ele>873</ele></trkpt><trkpt lat="42.341432" lon="-3.867611"><ele>876</ele></trkpt><trkpt lat="42.341622" lon="-3.868799"><ele>880</ele></trkpt><trkpt lat="42.341729" lon="-3.870006"><ele>886</ele></trkpt><trkpt lat="42.341861" lon="-3.87121"><ele>885</ele></trkpt><trkpt lat="42.341888" lon="-3.872423"><ele>889</ele></trkpt><trkpt lat="42.34201" lon="-3.87362"><ele>892</ele></trkpt><trkpt lat="42.34193" lon="-3.874809"><ele>898</ele></trkpt><trkpt lat="42.341848" lon="-3.875987"><ele>905</ele></trkpt><trkpt lat="42.341916" lon="-3.877196"><ele>907</ele></trkpt><trkpt lat="42.34174" lon="-3.878388"><ele>909</ele></trkpt><trkpt lat="42.341669" lon="-3.879577"><ele>911</ele></trkpt><trkpt lat="42.341826" lon="-3.880771"><ele>915</ele></trkpt><trkpt lat="42.341929" lon="-3.881975"><ele>918</ele></trkpt><trkpt lat="42.341976" lon="-3.883189"><ele>919</ele></trkpt><trkpt lat="42.342099" lon="-3.884391"><ele>921</ele></trkpt><trkpt lat="42.342299" lon="-3.885577"><ele>919</ele></trkpt><trkpt lat="42.342379" lon="-3.886787"><ele>919</ele></trkpt><trkpt lat="42.342424" lon="-3.888002"><ele>917</ele></trkpt><trkpt lat="42.34241" lon="-3.889216"><ele>917</ele></trkpt><trkpt lat="42.342233" lon="-3.890409"><ele>917</ele></trkpt><trkpt lat="42.34197" lon="-3.89157"><ele>919</ele></trkpt><trkpt lat="42.341671" lon="-3.892717"><ele>921</ele></trkpt><trkpt lat="42.341352" lon="-3.893853"><ele>922</ele></trkpt><trkpt lat="42.341067" lon="-3.895005"><ele>921</ele></trkpt><trkpt lat="42.340854" lon="-3.896185"><ele>912</ele></trkpt><trkpt lat="42.34096" lon="-3.897392"><ele>896</ele></trkpt><trkpt lat="42.340743" lon="-3.898558"><ele>881</ele></trkpt><trkpt lat="42.340673" lon="-3.89976"><ele>870</ele></trkpt><trkpt lat="42.340681" lon="-3.900976"><ele>863</ele></trkpt><trkpt lat="42.340684" lon="-3.902191"><ele>856</ele></trkpt><trkpt lat="42.340715" lon="-3.903407"><ele>849</ele></trkpt><trkpt lat="42.340627" lon="-3.904614"><ele>842</ele></trkpt><trkpt lat="42.340555" lon="-3.905823"><ele>837</ele></trkpt><trkpt lat="42.340719" lon="-3.907018"><ele>836</ele></trkpt><trkpt lat="42.340684" lon="-3.908231"><ele>834</ele></trkpt><trkpt lat="42.340709" lon="-3.909439"><ele>833</ele></trkpt><trkpt lat="42.340676" lon="-3.910654"><ele>831</ele></trkpt><trkpt lat="42.340643" lon="-3.91187"><ele>829</ele></trkpt><trkpt lat="42.340598" lon="-3.913085"><ele>828</ele></trkpt><trkpt lat="42.340519" lon="-3.914297"><ele>828</ele></trkpt><trkpt lat="42.340379" lon="-3.915499"><ele>827</ele></trkpt><trkpt lat="42.340254" lon="-3.916704"><ele>826</ele></trkpt><trkpt lat="42.340134" lon="-3.917909"><ele>825</ele></trkpt><trkpt lat="42.339987" lon="-3.919109"><ele>820</ele></trkpt><trkpt lat="42.339659" lon="-3.920241"><ele>819</ele></trkpt><trkpt lat="42.339168" lon="-3.921256"><ele>818</ele></trkpt><trkpt lat="42.338783" lon="-3.922339"><ele>819</ele></trkpt><trkpt lat="42.338609" lon="-3.923532"><ele>820</ele></trkpt><trkpt lat="42.338271" lon="-3.924639"><ele>819</ele></trkpt><trkpt lat="42.338395" lon="-3.92582"><ele>823</ele></trkpt></trkseg></trk></gpx>