<?xml version="1.0" encoding="UTF-8"?>
<gpx version="1.1" creator="Mi Diario del Camino de Santiago" xmlns="http://www.topografix.com/GPX/1/1">
<metadata><name>Etapa 1A: Saint-Jean-Pied-de-Port - Roncesvalles</name><copyright author="OpenStreetMap contributors"><license>https://opendatacommons.org/licenses/odbl/1-0/</license></copyright></metadata>
<trk><name>Etapa 1A: Saint-Jean-Pied-de-Port - Roncesvalles</name><trkseg><trkpt lat="43.16234" lon="-1.237234"><ele>166</ele></trkpt><trkpt lat="43.161509" lon="-1.237703"><ele>169</ele></trkpt><trkpt lat="43.160681" lon="-1.238186"><ele>175</ele></trkpt><trkpt lat="43.159869" lon="-1.238669"><ele>181</ele></trkpt><trkpt lat="43.15903" lon="-1.238883"><ele>190</ele></trkpt><trkpt lat="43.158239" lon="-1.23944"><ele>206</ele></trkpt><trkpt lat="43.157383" lon="-1.239738"><ele>214</ele></trkpt><trkpt lat="43.156514" lon="-1.240051"><ele>222</ele></trkpt><trkpt lat="43.155726" lon="-1.240638"><ele>228</ele></trkpt><trkpt lat="43.154923" lon="-1.241165"><ele>242</ele></trkpt><trkpt lat="43.154077" lon="-1.241585"><ele>268</ele></trkpt><trkpt lat="43.153198" lon="-1.241839"><ele>277</ele></trkpt><trkpt lat="43.152323" lon="-1.242125"><ele>266</ele></trkpt><trkpt lat="43.151476" lon="-1.242531"><ele>261</ele></trkpt><trkpt lat="43.150605" lon="-1.242791"><ele>255</ele></trkpt><trkpt lat="43.149727" lon="-1.242561"><ele>255</ele></trkpt><trkpt lat="43.148834" lon="-1.242506"><ele>252</ele></trkpt><trkpt lat="43.147943" lon="-1.242527"><ele>249</ele></trkpt><trkpt lat="43.147057" lon="-1.242414"><ele>264</ele></trkpt><trkpt lat="43.146287" lon="-1.241799"><ele>272</ele></trkpt><trkpt lat="43.145599" lon="-1.241004"><ele>278</ele></trkpt><trkpt lat="43.144839" lon="-1.24035"><ele>282</ele></trkpt><trkpt lat="43.143983" lon="-1.240261"><ele>288</ele></trkpt><trkpt lat="43.143261" lon="-1.240994"><ele>299</ele></trkpt><trkpt lat="43.142465" lon="-1.241527"><ele>304</ele></trkpt><trkpt lat="43.141569" lon="-1.241445"><ele>310</ele></trkpt><trkpt lat="43.140719" lon="-1.241059"><ele>307</ele></trkpt><trkpt lat="43.139957" lon="-1.240406"><ele>314</ele></trkpt><trkpt lat="43.139243" lon="-1.239658"><ele>312</ele></trkpt><trkpt lat="43.138439" lon="-1.239114"><ele>311</ele></trkpt><trkpt lat="43.137551" lon="-1.238925"><ele>310</ele></trkpt><trkpt lat="43.136763" lon="-1.23836"><ele>318</ele></trkpt><trkpt lat="43.135891" lon="-1.238107"><ele>323</ele></trkpt><trkpt lat="43.134994" lon="-1.238092"><ele>322</ele></trkpt><trkpt lat="43.134257" lon="-1.238672"><ele>331</ele></trkpt><trkpt lat="43.133439" lon="-1.238792"><ele>332</ele></trkpt><trkpt lat="43.13268" lon="-1.238376"><ele>329</ele></trkpt><trkpt lat="43.131911" lon="-1.238993"><ele>346</ele></trkpt><trkpt lat="43.131154" lon="-1.239635"><ele>344</ele></trkpt><trkpt lat="43.130662" lon="-1.240646"><ele>345</ele></trkpt><trkpt lat="43.130071" lon="-1.241502"><ele>348</ele></trkpt><trkpt lat="43.129556" lon="-1.242446"><ele>359</ele></trkpt><trkpt lat="43.129666" lon="-1.243618"><ele>372</ele></trkpt><trkpt lat="43.130118" lon="-1.244682"><ele>384</ele></trkpt><trkpt lat="43.130054" lon="-1.245085"><ele>395</ele></trkpt><trkpt lat="43.129209" lon="-1.244666"><ele>403</ele></trkpt><trkpt lat="43.128349" lon="-1.244312"><ele>411</ele></trkpt><trkpt lat="43.127456" lon="-1.244223"><ele>435</ele></trkpt><trkpt lat="43.126564" lon="-1.244362"><ele>451</ele></trkpt><trkpt lat="43.125692" lon="-1.244644"><ele>472</ele></trkpt><trkpt lat="43.124804" lon="-1.24479"><ele>489</ele></trkpt><trkpt lat="43.123938" lon="-1.245014"><ele>501</ele></trkpt><trkpt lat="43.123081" lon="-1.244684"><ele>510</ele></trkpt><trkpt lat="43.122303" lon="-1.244076"><ele>521</ele></trkpt><trkpt lat="43.121504" lon="-1.243582"><ele>544</ele></trkpt><trkpt lat="43.12086" lon="-1.242776"><ele>559</ele></trkpt><trkpt lat="43.120345" lon="-1.242338"><ele>573</ele></trkpt><trkpt lat="43.119894" lon="-1.242019"><ele>592</ele></trkpt><trkpt lat="43.119276" lon="-1.242188"><ele>606</ele></trkpt><trkpt lat="43.118994" lon="-1.241643"><ele>623</ele></trkpt><trkpt lat="43.118552" lon="-1.241119"><ele>642</ele></trkpt><trkpt lat="43.118887" lon="-1.240077"><ele>660</ele></trkpt><trkpt lat="43.118138" lon="-1.239951"><ele>682</ele></trkpt><trkpt lat="43.118028" lon="-1.238772"><ele>701</ele></trkpt><trkpt lat="43.117283" lon="-1.23818"><ele>722</ele></trkpt><trkpt lat="43.11643" lon="-1.237796"><ele>737</ele></trkpt><trkpt lat="43.115547" lon="-1.237589"><ele>759</ele></trkpt><trkpt lat="43.11465" lon="-1.237631"><ele>775</ele></trkpt><trkpt lat="43.113768" lon="-1.23751"><ele>788</ele></trkpt><trkpt lat="43.112893" lon="-1.237235"><ele>798</ele></trkpt><trkpt lat="43.112024" lon="-1.237441"><ele>801</ele></trkpt><trkpt lat="43.111191" lon="-1.237906"><ele>798</ele></trkpt><trkpt lat="43.11031" lon="-1.238123"><ele>795</ele></trkpt><trkpt lat="43.109458" lon="-1.238483"><ele>794</ele></trkpt><trkpt lat="43.108728" lon="-1.239151"><ele>800</ele></trkpt><trkpt lat="43.107858" lon="-1.239433"><ele>810</ele></trkpt><trkpt lat="43.10696" lon="-1.239377"><ele>830</ele></trkpt><trkpt lat="43.106451" lon="-1.238781"><ele>837</ele></trkpt><trkpt lat="43.105987" lon="-1.237913"><ele>839</ele></trkpt><trkpt lat="43.1052" lon="-1.238369"><ele>854</ele></trkpt><trkpt lat="43.10452" lon="-1.239175"><ele>870</ele></trkpt><trkpt lat="43.103753" lon="-1.239799"><ele>865</ele></trkpt><trkpt lat="43.102864" lon="-1.239891"><ele>864</ele></trkpt><trkpt lat="43.101975" lon="-1.239891"><ele>872</ele></trkpt><trkpt lat="43.101089" lon="-1.240095"><ele>877</ele></trkpt><trkpt lat="43.100237" lon="-1.24049"><ele>886</ele></trkpt><trkpt lat="43.099359" lon="-1.240739"><ele>896</ele></trkpt><trkpt lat="43.098494" lon="-1.24107"><ele>902</ele></trkpt><trkpt lat="43.09764" lon="-1.241422"><ele>912</ele></trkpt><trkpt lat="43.096787" lon="-1.241775"><ele>924</ele></trkpt><trkpt lat="43.095928" lon="-1.242138"><ele>930</ele></trkpt><trkpt lat="43.095057" lon="-1.242362"><ele>941</ele></trkpt><trkpt lat="43.094161" lon="-1.242362"><ele>958</ele></trkpt><trkpt lat="43.093303" lon="-1.242721"><ele>971</ele></trkpt><trkpt lat="43.092491" lon="-1.243244"><ele>981</ele></trkpt><trkpt lat="43.09171" lon="-1.243843"><ele>987</ele></trkpt><trkpt lat="43.090849" lon="-1.244195"><ele>992</ele></trkpt><trkpt lat="43.089955" lon="-1.244306"><ele>1002</ele></trkpt><trkpt lat="43.089128" lon="-1.244739"><ele>1011</ele></trkpt><trkpt lat="43.088472" lon="-1.245538"><ele>1033</ele></trkpt><trkpt lat="43.089184" lon="-1.246203"><ele>1023</ele></trkpt><trkpt lat="43.089289" lon="-1.247029"><ele>1028</ele></trkpt><trkpt lat="43.088631" lon="-1.247859"><ele>1034</ele></trkpt><trkpt lat="43.088028" lon="-1.248769"><ele>1046</ele></trkpt><trkpt lat="43.087559" lon="-1.249812"><ele>1044</ele></trkpt><trkpt lat="43.086713" lon="-1.25016"><ele>1060</ele></trkpt><trkpt lat="43.086109" lon="-1.251037"><ele>1064</ele></trkpt><trkpt lat="43.085478" lon="-1.251864"><ele>1078</ele></trkpt><trkpt lat="43.084613" lon="-1.252163"><ele>1082</ele></trkpt><trkpt lat="43.083724" lon="-1.252009"><ele>1084</ele></trkpt><trkpt lat="43.082831" lon="-1.25195"><ele>1093</ele></trkpt><trkpt lat="43.081933" lon="-1.251944"><ele>1095</ele></trkpt><trkpt lat="43.081229" lon="-1.252422"><ele>1098</ele></trkpt><trkpt lat="43.080945" lon="-1.253583"><ele>1109</ele></trkpt><trkpt lat="43.08057" lon="-1.254702"><ele>1123</ele></trkpt><trkpt lat="43.08006" lon="-1.255706"><ele>1131</ele></trkpt><trkpt lat="43.079614" lon="-1.256725"><ele>1134</ele></trkpt><trkpt lat="43.080164" lon="-1.257622"><ele>1139</ele></trkpt><trkpt lat="43.080025" lon="-1.258804"><ele>1134</ele></trkpt><trkpt lat="43.079489" lon="-1.259779"><ele>1124</ele></trkpt><trkpt lat="43.07887" lon="-1.260667"><ele>1118</ele></trkpt><trkpt lat="43.07826" lon="-1.261568"><ele>1113</ele></trkpt><trkpt lat="43.077662" lon="-1.262485"><ele>1103</ele></trkpt><trkpt lat="43.076859" lon="-1.263015"><ele>1104</ele></trkpt><trkpt lat="43.075976" lon="-1.263242"><ele>1111</ele></trkpt><trkpt lat="43.075281" lon="-1.263978"><ele>1117</ele></trkpt><trkpt lat="43.074716" lon="-1.264933"><ele>1122</ele></trkpt><trkpt lat="43.074211" lon="-1.265952"><ele>1123</ele></trkpt><trkpt lat="43.073502" lon="-1.266618"><ele>1125</ele></trkpt><trkpt lat="43.072616" lon="-1.266763"><ele>1137</ele></trkpt><trkpt lat="43.071728" lon="-1.266582"><ele>1151</ele></trkpt><trkpt lat="43.071092" lon="-1.267192"><ele>1157</ele></trkpt><trkpt lat="43.071147" lon="-1.26841"><ele>1159</ele></trkpt><trkpt lat="43.070576" lon="-1.269253"><ele>1173</ele></trkpt><trkpt lat="43.069686" lon="-1.269379"><ele>1183</ele></trkpt><trkpt lat="43.0688" lon="-1.26917"><ele>1186</ele></trkpt><trkpt lat="43.067958" lon="-1.26881"><ele>1185</ele></trkpt><trkpt lat="43.067412" lon="-1.267862"><ele>1188</ele></trkpt><trkpt lat="43.066562" lon="-1.267486"><ele>1201</ele></trkpt><trkpt lat="43.065681" lon="-1.267243"><ele>1190</ele></trkpt><trkpt lat="43.064811" lon="-1.266934"><ele>1187</ele></trkpt><trkpt lat="43.06395" lon="-1.266576"><ele>1191</ele></trkpt><trkpt lat="43.063065" lon="-1.266552"><ele>1190</ele></trkpt><trkpt lat="43.06219" lon="-1.266834"><ele>1191</ele></trkpt><trkpt lat="43.061554" lon="-1.267539"><ele>1200</ele></trkpt><trkpt lat="43.061018" lon="-1.268347"><ele>1204</ele></trkpt><trkpt lat="43.060126" lon="-1.268195"><ele>1211</ele></trkpt><trkpt lat="43.059308" lon="-1.267727"><ele>1219</ele></trkpt><trkpt lat="43.058467" lon="-1.267318"><ele>1224</ele></trkpt><trkpt lat="43.057627" lon="-1.26688"><ele>1229</ele></trkpt><trkpt lat="43.056784" lon="-1.266452"><ele>1243</ele></trkpt><trkpt lat="43.055917" lon="-1.266131"><ele>1255</ele></trkpt><trkpt lat="43.05508" lon="-1.26638"><ele>1281</ele></trkpt><trkpt lat="43.054345" lon="-1.266955"><ele>1282</ele></trkpt><trkpt lat="43.053495" lon="-1.267352"><ele>1282</ele></trkpt><trkpt lat="43.052615" lon="-1.267565"><ele>1281</ele></trkpt><trkpt lat="43.051729" lon="-1.267737"><ele>1277</ele></trkpt><trkpt lat="43.050864" lon="-1.268066"><ele>1280</ele></trkpt><trkpt lat="43.050103" lon="-1.268192"><ele>1287</ele></trkpt><trkpt lat="43.049535" lon="-1.267271"><ele>1291</ele></trkpt><trkpt lat="43.048882" lon="-1.266438"><ele>1300</ele></trkpt><trkpt lat="43.048229" lon="-1.265604"><ele>1311</ele></trkpt><trkpt lat="43.047422" lon="-1.265059"><ele>1310</ele></trkpt><trkpt lat="43.046568" lon="-1.264754"><ele>1311</ele></trkpt><trkpt lat="43.045671" lon="-1.264826"><ele>1307</ele></trkpt><trkpt lat="43.044927" lon="-1.265396"><ele>1313</ele></trkpt><trkpt lat="43.044646" lon="-1.2665"><ele>1314</ele></trkpt><trkpt lat="43.044161" lon="-1.267533"><ele>1317</ele></trkpt><trkpt lat="43.043608" lon="-1.268494"><ele>1328</ele></trkpt><trkpt lat="43.043232" lon="-1.269604"><ele>1337</ele></trkpt><trkpt lat="43.042889" lon="-1.270732"><ele>1327</ele></trkpt><trkpt lat="43.042781" lon="-1.271921"><ele>1311</ele></trkpt><trkpt lat="43.042496" lon="-1.273057"><ele>1302</ele></trkpt><trkpt lat="43.04247" lon="-1.27413"><ele>1286</ele></trkpt><trkpt lat="43.042202" lon="-1.275301"><ele>1281</ele></trkpt><trkpt lat="43.041934" lon="-1.276464"><ele>1279</ele></trkpt><trkpt lat="43.0415" lon="-1.277522"><ele>1288</ele></trkpt><trkpt lat="43.041081" lon="-1.278591"><ele>1289</ele></trkpt><trkpt lat="43.040689" lon="-1.279697"><ele>1286</ele></trkpt><trkpt lat="43.040383" lon="-1.280846"><ele>1288</ele></trkpt><trkpt lat="43.039823" lon="-1.281759"><ele>1285</ele></trkpt><trkpt lat="43.039038" lon="-1.28226"><ele>1287</ele></trkpt><trkpt lat="43.038485" lon="-1.283194"><ele>1292</ele></trkpt><trkpt lat="43.038197" lon="-1.284357"><ele>1307</ele></trkpt><trkpt lat="43.037952" lon="-1.285536"><ele>1315</ele></trkpt><trkpt lat="43.037794" lon="-1.28673"><ele>1304</ele></trkpt><trkpt lat="43.037497" lon="-1.287861"><ele>1309</ele></trkpt><trkpt lat="43.037065" lon="-1.288932"><ele>1314</ele></trkpt><trkpt lat="43.036707" lon="-1.290051"><ele>1331</ele></trkpt><trkpt lat="43.036242" lon="-1.291074"><ele>1347</ele></trkpt><trkpt lat="43.03559" lon="-1.291802"><ele>1368</ele></trkpt><trkpt lat="43.034952" lon="-1.291175"><ele>1353</ele></trkpt><trkpt lat="43.034436" lon="-1.291728"><ele>1363</ele></trkpt><trkpt lat="43.033566" lon="-1.291774"><ele>1383</ele></trkpt><trkpt lat="43.032706" lon="-1.291851"><ele>1387</ele></trkpt><trkpt lat="43.031997" lon="-1.292568"><ele>1399</ele></trkpt><trkpt lat="43.031349" lon="-1.293396"><ele>1407</ele></trkpt><trkpt lat="43.030813" lon="-1.294307"><ele>1428</ele></trkpt><trkpt lat="43.030406" lon="-1.295364"><ele>1426</ele></trkpt><trkpt lat="43.02973" lon="-1.296133"><ele>1425</ele></trkpt><trkpt lat="43.028839" lon="-1.296122"><ele>1421</ele></trkpt><trkpt lat="43.027984" lon="-1.295755"><ele>1417</ele></trkpt><trkpt lat="43.02712" lon="-1.29542"><ele>1421</ele></trkpt><trkpt lat="43.026242" lon="-1.295428"><ele>1429</ele></trkpt><trkpt lat="43.025765" lon="-1.296273"><ele>1422</ele></trkpt><trkpt lat="43.025047" lon="-1.297009"><ele>1391</ele></trkpt><trkpt lat="43.024281" lon="-1.29765"><ele>1360</ele></trkpt><trkpt lat="43.023455" lon="-1.298134"><ele>1330</ele></trkpt><trkpt lat="43.02258" lon="-1.298407"><ele>1296</ele></trkpt><trkpt lat="43.021729" lon="-1.298456"><ele>1272</ele></trkpt><trkpt lat="43.02107" lon="-1.299285"><ele>1265</ele></trkpt><trkpt lat="43.020465" lon="-1.300117"><ele>1250</ele></trkpt><trkpt lat="43.020137" lon="-1.299333"><ele>1247</ele></trkpt><trkpt lat="43.01995" lon="-1.298945"><ele>1236</ele></trkpt><trkpt lat="43.019116" lon="-1.299355"><ele>1214</ele></trkpt><trkpt lat="43.018349" lon="-1.29985"><ele>1190</ele></trkpt><trkpt lat="43.018077" lon="-1.301013"><ele>1181</ele></trkpt><trkpt lat="43.017726" lon="-1.30209"><ele>1165</ele></trkpt><trkpt lat="43.017027" lon="-1.302546"><ele>1149</ele></trkpt><trkpt lat="43.016656" lon="-1.303665"><ele>1144</ele></trkpt><trkpt lat="43.016183" lon="-1.304696"><ele>1149</ele></trkpt><trkpt lat="43.015608" lon="-1.305615"><ele>1154</ele></trkpt><trkpt lat="43.015056" lon="-1.306583"><ele>1150</ele></trkpt><trkpt lat="43.014387" lon="-1.307372"><ele>1143</ele></trkpt><trkpt lat="43.013562" lon="-1.307863"><ele>1132</ele></trkpt><trkpt lat="43.012894" lon="-1.30867"><ele>1125</ele></trkpt><trkpt lat="43.012082" lon="-1.308909"><ele>1114</ele></trkpt><trkpt lat="43.011389" lon="-1.308148"><ele>1087</ele></trkpt><trkpt lat="43.010519" lon="-1.307991"><ele>1075</ele></trkpt><trkpt lat="43.009648" lon="-1.308226"><ele>1054</ele></trkpt><trkpt lat="43.008847" lon="-1.308543"><ele>1033</ele></trkpt><trkpt lat="43.008425" lon="-1.309611"><ele>1029</ele></trkpt><trkpt lat="43.007697" lon="-1.310258"><ele>1007</ele></trkpt><trkpt lat="43.007509" lon="-1.31146"><ele>1000</ele></trkpt><trkpt lat="43.007149" lon="-1.312573"><ele>989</ele></trkpt><trkpt lat="43.006716" lon="-1.313611"><ele>969</ele></trkpt><trkpt lat="43.007057" lon="-1.314719"><ele>969</ele></trkpt><trkpt lat="43.007285" lon="-1.315885"><ele>960</ele></trkpt><trkpt lat="43.007668" lon="-1.316946"><ele>946</ele></trkpt><trkpt lat="43.008281" lon="-1.317839"><ele>939</ele></trkpt><trkpt lat="43.008887" lon="-1.318705"><ele>946</ele></trkpt><trkpt lat="43.008569" lon="-1.31953"><ele>948</ele></trkpt></trkseg></trk></gpx>