<?xml version="1.0" encoding="UTF-8"?>
<gpx version="1.1" creator="Mi Diario del Camino de Santiago" xmlns="http://www.topografix.com/GPX/1/1">
<metadata><name>Etapa 15: Castrojeriz - Frómista</name><copyright author="OpenStreetMap contributors"><license>https://opendatacommons.org/licenses/odbl/1-0/</license></copyright></metadata>
<trk><name>Etapa 15: Castrojeriz - Frómista</name><trkseg><trkpt lat="42.288445" lon="-4.140097"><ele>814</ele></trkpt><trkpt lat="42.288921" lon="-4.141125"><ele>812</ele></trkpt><trkpt lat="42.289417" lon="-4.142109"><ele>813</ele></trkpt><trkpt lat="42.289835" lon="-4.143182"><ele>810</ele></trkpt><trkpt lat="42.290201" lon="-4.144289"><ele>807</ele></trkpt><trkpt lat="42.290058" lon="-4.14533"><ele>800</ele></trkpt><trkpt lat="42.28995" lon="-4.146524"><ele>791</ele></trkpt><trkpt lat="42.289924" lon="-4.147739"><ele>788</ele></trkpt><trkpt lat="42.289909" lon="-4.148943"><ele>787</ele></trkpt><trkpt lat="42.290046" lon="-4.150144"><ele>784</ele></trkpt><trkpt lat="42.290006" lon="-4.151358"><ele>783</ele></trkpt><trkpt lat="42.289946" lon="-4.152571"><ele>782</ele></trkpt><trkpt lat="42.289889" lon="-4.153784"><ele>782</ele></trkpt><trkpt lat="42.289812" lon="-4.154994"><ele>779</ele></trkpt><trkpt lat="42.289748" lon="-4.156206"><ele>776</ele></trkpt><trkpt lat="42.289687" lon="-4.157418"><ele>774</ele></trkpt><trkpt lat="42.28981" lon="-4.158621"><ele>772</ele></trkpt><trkpt lat="42.289963" lon="-4.159817"><ele>771</ele></trkpt><trkpt lat="42.289967" lon="-4.161031"><ele>770</ele></trkpt><trkpt lat="42.289942" lon="-4.162246"><ele>770</ele></trkpt><trkpt lat="42.290164" lon="-4.163388"><ele>769</ele></trkpt><trkpt lat="42.290645" lon="-4.164409"><ele>769</ele></trkpt><trkpt lat="42.291091" lon="-4.165464"><ele>772</ele></trkpt><trkpt lat="42.290952" lon="-4.166656"><ele>776</ele></trkpt><trkpt lat="42.29084" lon="-4.16785"><ele>786</ele></trkpt><trkpt lat="42.29077" lon="-4.169027"><ele>803</ele></trkpt><trkpt lat="42.290423" lon="-4.169966"><ele>815</ele></trkpt><trkpt lat="42.290086" lon="-4.171047"><ele>829</ele></trkpt><trkpt lat="42.289669" lon="-4.172005"><ele>839</ele></trkpt><trkpt lat="42.289296" lon="-4.173074"><ele>854</ele></trkpt><trkpt lat="42.289025" lon="-4.174174"><ele>867</ele></trkpt><trkpt lat="42.288853" lon="-4.175353"><ele>879</ele></trkpt><trkpt lat="42.288546" lon="-4.176458"><ele>893</ele></trkpt><trkpt lat="42.288099" lon="-4.17745"><ele>897</ele></trkpt><trkpt lat="42.287542" lon="-4.17835"><ele>901</ele></trkpt><trkpt lat="42.287311" lon="-4.179478"><ele>909</ele></trkpt><trkpt lat="42.287361" lon="-4.180683"><ele>911</ele></trkpt><trkpt lat="42.287413" lon="-4.181896"><ele>911</ele></trkpt><trkpt lat="42.287284" lon="-4.183099"><ele>910</ele></trkpt><trkpt lat="42.287134" lon="-4.184296"><ele>909</ele></trkpt><trkpt lat="42.286697" lon="-4.185354"><ele>901</ele></trkpt><trkpt lat="42.286413" lon="-4.186499"><ele>881</ele></trkpt><trkpt lat="42.286172" lon="-4.18767"><ele>863</ele></trkpt><trkpt lat="42.285917" lon="-4.188788"><ele>847</ele></trkpt><trkpt lat="42.286025" lon="-4.189989"><ele>839</ele></trkpt><trkpt lat="42.286102" lon="-4.191199"><ele>834</ele></trkpt><trkpt lat="42.286178" lon="-4.19241"><ele>830</ele></trkpt><trkpt lat="42.28617" lon="-4.193624"><ele>828</ele></trkpt><trkpt lat="42.286054" lon="-4.194824"><ele>826</ele></trkpt><trkpt lat="42.286027" lon="-4.196038"><ele>821</ele></trkpt><trkpt lat="42.286016" lon="-4.197253"><ele>820</ele></trkpt><trkpt lat="42.286048" lon="-4.198464"><ele>817</ele></trkpt><trkpt lat="42.286165" lon="-4.199669"><ele>816</ele></trkpt><trkpt lat="42.286321" lon="-4.200865"><ele>813</ele></trkpt><trkpt lat="42.286023" lon="-4.201909"><ele>807</ele></trkpt><trkpt lat="42.285807" lon="-4.203081"><ele>800</ele></trkpt><trkpt lat="42.28574" lon="-4.204289"><ele>798</ele></trkpt><trkpt lat="42.285753" lon="-4.205504"><ele>796</ele></trkpt><trkpt lat="42.285715" lon="-4.206717"><ele>796</ele></trkpt><trkpt lat="42.285642" lon="-4.207928"><ele>795</ele></trkpt><trkpt lat="42.285559" lon="-4.209137"><ele>793</ele></trkpt><trkpt lat="42.285422" lon="-4.210338"><ele>794</ele></trkpt><trkpt lat="42.285059" lon="-4.211449"><ele>794</ele></trkpt><trkpt lat="42.284728" lon="-4.212578"><ele>793</ele></trkpt><trkpt lat="42.284413" lon="-4.213717"><ele>793</ele></trkpt><trkpt lat="42.284068" lon="-4.21484"><ele>792</ele></trkpt><trkpt lat="42.283727" lon="-4.215963"><ele>790</ele></trkpt><trkpt lat="42.28354" lon="-4.217151"><ele>789</ele></trkpt><trkpt lat="42.283433" lon="-4.218357"><ele>789</ele></trkpt><trkpt lat="42.283288" lon="-4.219557"><ele>789</ele></trkpt><trkpt lat="42.283123" lon="-4.220751"><ele>789</ele></trkpt><trkpt lat="42.28287" lon="-4.221918"><ele>787</ele></trkpt><trkpt lat="42.282594" lon="-4.223074"><ele>788</ele></trkpt><trkpt lat="42.28219" lon="-4.22416"><ele>790</ele></trkpt><trkpt lat="42.281866" lon="-4.225293"><ele>794</ele></trkpt><trkpt lat="42.281359" lon="-4.226291"><ele>793</ele></trkpt><trkpt lat="42.281188" lon="-4.227436"><ele>799</ele></trkpt><trkpt lat="42.281285" lon="-4.228644"><ele>800</ele></trkpt><trkpt lat="42.281394" lon="-4.229851"><ele>798</ele></trkpt><trkpt lat="42.281502" lon="-4.231057"><ele>797</ele></trkpt><trkpt lat="42.281609" lon="-4.232264"><ele>797</ele></trkpt><trkpt lat="42.281693" lon="-4.233474"><ele>797</ele></trkpt><trkpt lat="42.281706" lon="-4.234688"><ele>796</ele></trkpt><trkpt lat="42.281626" lon="-4.235898"><ele>792</ele></trkpt><trkpt lat="42.281544" lon="-4.23707"><ele>788</ele></trkpt><trkpt lat="42.281228" lon="-4.238205"><ele>784</ele></trkpt><trkpt lat="42.280826" lon="-4.239292"><ele>782</ele></trkpt><trkpt lat="42.280354" lon="-4.240326"><ele>778</ele></trkpt><trkpt lat="42.279888" lon="-4.241365"><ele>774</ele></trkpt><trkpt lat="42.27934" lon="-4.242328"><ele>767</ele></trkpt><trkpt lat="42.278902" lon="-4.243383"><ele>766</ele></trkpt><trkpt lat="42.278688" lon="-4.24456"><ele>765</ele></trkpt><trkpt lat="42.278293" lon="-4.245616"><ele>765</ele></trkpt><trkpt lat="42.277837" lon="-4.246664"><ele>766</ele></trkpt><trkpt lat="42.277508" lon="-4.247739"><ele>767</ele></trkpt><trkpt lat="42.277874" lon="-4.2488"><ele>766</ele></trkpt><trkpt lat="42.278596" lon="-4.249523"><ele>766</ele></trkpt><trkpt lat="42.279405" lon="-4.250046"><ele>766</ele></trkpt><trkpt lat="42.280295" lon="-4.25006"><ele>765</ele></trkpt><trkpt lat="42.281183" lon="-4.250238"><ele>766</ele></trkpt><trkpt lat="42.282037" lon="-4.250596"><ele>766</ele></trkpt><trkpt lat="42.282726" lon="-4.251367"><ele>765</ele></trkpt><trkpt lat="42.28338" lon="-4.2522"><ele>764</ele></trkpt><trkpt lat="42.284123" lon="-4.252866"><ele>767</ele></trkpt><trkpt lat="42.284888" lon="-4.253494"><ele>768</ele></trkpt><trkpt lat="42.285462" lon="-4.254421"><ele>769</ele></trkpt><trkpt lat="42.286129" lon="-4.255231"><ele>769</ele></trkpt><trkpt lat="42.28672" lon="-4.256089"><ele>770</ele></trkpt><trkpt lat="42.287028" lon="-4.256989"><ele>771</ele></trkpt><trkpt lat="42.287275" lon="-4.258133"><ele>772</ele></trkpt><trkpt lat="42.287263" lon="-4.259347"><ele>772</ele></trkpt><trkpt lat="42.28715" lon="-4.260553"><ele>770</ele></trkpt><trkpt lat="42.286981" lon="-4.261737"><ele>767</ele></trkpt><trkpt lat="42.286441" lon="-4.262707"><ele>768</ele></trkpt><trkpt lat="42.285873" lon="-4.263649"><ele>769</ele></trkpt><trkpt lat="42.285414" lon="-4.264679"><ele>769</ele></trkpt><trkpt lat="42.285085" lon="-4.265811"><ele>768</ele></trkpt><trkpt lat="42.284745" lon="-4.266936"><ele>771</ele></trkpt><trkpt lat="42.2844" lon="-4.268059"><ele>773</ele></trkpt><trkpt lat="42.284128" lon="-4.269217"><ele>774</ele></trkpt><trkpt lat="42.283783" lon="-4.270339"><ele>775</ele></trkpt><trkpt lat="42.283434" lon="-4.27146"><ele>775</ele></trkpt><trkpt lat="42.283081" lon="-4.272578"><ele>776</ele></trkpt><trkpt lat="42.282728" lon="-4.273695"><ele>778</ele></trkpt><trkpt lat="42.282429" lon="-4.27484"><ele>779</ele></trkpt><trkpt lat="42.282209" lon="-4.276018"><ele>778</ele></trkpt><trkpt lat="42.282033" lon="-4.277206"><ele>779</ele></trkpt><trkpt lat="42.281811" lon="-4.278384"><ele>780</ele></trkpt><trkpt lat="42.28159" lon="-4.279563"><ele>780</ele></trkpt><trkpt lat="42.281378" lon="-4.280744"><ele>781</ele></trkpt><trkpt lat="42.281218" lon="-4.28194"><ele>781</ele></trkpt><trkpt lat="42.280973" lon="-4.283106"><ele>785</ele></trkpt><trkpt lat="42.280807" lon="-4.284296"><ele>787</ele></trkpt><trkpt lat="42.280791" lon="-4.285509"><ele>790</ele></trkpt><trkpt lat="42.280895" lon="-4.286692"><ele>791</ele></trkpt><trkpt lat="42.280473" lon="-4.287766"><ele>794</ele></trkpt><trkpt lat="42.280071" lon="-4.288853"><ele>797</ele></trkpt><trkpt lat="42.279685" lon="-4.289951"><ele>797</ele></trkpt><trkpt lat="42.279304" lon="-4.291051"><ele>796</ele></trkpt><trkpt lat="42.279062" lon="-4.292214"><ele>799</ele></trkpt><trkpt lat="42.279036" lon="-4.293429"><ele>802</ele></trkpt><trkpt lat="42.278978" lon="-4.294641"><ele>804</ele></trkpt><trkpt lat="42.278858" lon="-4.295845"><ele>806</ele></trkpt><trkpt lat="42.278588" lon="-4.296983"><ele>806</ele></trkpt><trkpt lat="42.278038" lon="-4.297926"><ele>807</ele></trkpt><trkpt lat="42.277706" lon="-4.299056"><ele>809</ele></trkpt><trkpt lat="42.277372" lon="-4.300184"><ele>811</ele></trkpt><trkpt lat="42.277016" lon="-4.301301"><ele>816</ele></trkpt><trkpt lat="42.276589" lon="-4.302367"><ele>823</ele></trkpt><trkpt lat="42.276192" lon="-4.303455"><ele>829</ele></trkpt><trkpt lat="42.275854" lon="-4.304581"><ele>825</ele></trkpt><trkpt lat="42.275572" lon="-4.305735"><ele>819</ele></trkpt><trkpt lat="42.275292" lon="-4.30689"><ele>815</ele></trkpt><trkpt lat="42.275006" lon="-4.308042"><ele>812</ele></trkpt><trkpt lat="42.27465" lon="-4.309156"><ele>811</ele></trkpt><trkpt lat="42.274277" lon="-4.310257"><ele>809</ele></trkpt><trkpt lat="42.273828" lon="-4.31131"><ele>807</ele></trkpt><trkpt lat="42.273391" lon="-4.312372"><ele>804</ele></trkpt><trkpt lat="42.272918" lon="-4.313406"><ele>804</ele></trkpt><trkpt lat="42.272464" lon="-4.314454"><ele>804</ele></trkpt><trkpt lat="42.27208" lon="-4.315552"><ele>800</ele></trkpt><trkpt lat="42.271769" lon="-4.316691"><ele>800</ele></trkpt><trkpt lat="42.271531" lon="-4.317863"><ele>799</ele></trkpt><trkpt lat="42.271289" lon="-4.319033"><ele>797</ele></trkpt><trkpt lat="42.271045" lon="-4.320203"><ele>797</ele></trkpt><trkpt lat="42.270803" lon="-4.321373"><ele>798</ele></trkpt><trkpt lat="42.270561" lon="-4.322544"><ele>799</ele></trkpt><trkpt lat="42.270297" lon="-4.323706"><ele>798</ele></trkpt><trkpt lat="42.27002" lon="-4.324862"><ele>797</ele></trkpt><trkpt lat="42.269667" lon="-4.325979"><ele>795</ele></trkpt><trkpt lat="42.269272" lon="-4.327071"><ele>794</ele></trkpt><trkpt lat="42.268868" lon="-4.328157"><ele>791</ele></trkpt><trkpt lat="42.268461" lon="-4.32924"><ele>791</ele></trkpt><trkpt lat="42.268051" lon="-4.330322"><ele>791</ele></trkpt><trkpt lat="42.267581" lon="-4.331358"><ele>790</ele></trkpt><trkpt lat="42.267108" lon="-4.332392"><ele>789</ele></trkpt><trkpt lat="42.266641" lon="-4.33343"><ele>786</ele></trkpt><trkpt lat="42.266177" lon="-4.334469"><ele>784</ele></trkpt><trkpt lat="42.265719" lon="-4.335516"><ele>786</ele></trkpt><trkpt lat="42.265252" lon="-4.336554"><ele>786</ele></trkpt><trkpt lat="42.264746" lon="-4.337559"><ele>787</ele></trkpt><trkpt lat="42.26424" lon="-4.338564"><ele>789</ele></trkpt><trkpt lat="42.263729" lon="-4.339563"><ele>789</ele></trkpt><trkpt lat="42.263208" lon="-4.340553"><ele>787</ele></trkpt><trkpt lat="42.262764" lon="-4.341608"><ele>788</ele></trkpt><trkpt lat="42.262408" lon="-4.342724"><ele>786</ele></trkpt><trkpt lat="42.26197" lon="-4.343781"><ele>785</ele></trkpt><trkpt lat="42.261429" lon="-4.344752"><ele>783</ele></trkpt><trkpt lat="42.260791" lon="-4.345578"><ele>782</ele></trkpt><trkpt lat="42.259959" lon="-4.346023"><ele>781</ele></trkpt><trkpt lat="42.259483" lon="-4.346823"><ele>782</ele></trkpt><trkpt lat="42.25948" lon="-4.347538"><ele>782</ele></trkpt><trkpt lat="42.260244" lon="-4.348179"><ele>784</ele></trkpt><trkpt lat="42.261019" lon="-4.348769"><ele>785</ele></trkpt><trkpt lat="42.261564" lon="-4.349704"><ele>786</ele></trkpt><trkpt lat="42.262248" lon="-4.35049"><ele>787</ele></trkpt><trkpt lat="42.262995" lon="-4.351127"><ele>786</ele></trkpt><trkpt lat="42.262595" lon="-4.352173"><ele>785</ele></trkpt><trkpt lat="42.262136" lon="-4.353218"><ele>784</ele></trkpt><trkpt lat="42.261636" lon="-4.354225"><ele>785</ele></trkpt><trkpt lat="42.261084" lon="-4.355184"><ele>785</ele></trkpt><trkpt lat="42.260531" lon="-4.356143"><ele>785</ele></trkpt><trkpt lat="42.25998" lon="-4.357103"><ele>786</ele></trkpt><trkpt lat="42.259447" lon="-4.358078"><ele>787</ele></trkpt><trkpt lat="42.259202" lon="-4.359247"><ele>789</ele></trkpt><trkpt lat="42.258984" lon="-4.360424"><ele>790</ele></trkpt><trkpt lat="42.258877" lon="-4.361631"><ele>789</ele></trkpt><trkpt lat="42.258736" lon="-4.362831"><ele>789</ele></trkpt><trkpt lat="42.258441" lon="-4.363962"><ele>789</ele></trkpt><trkpt lat="42.258308" lon="-4.365145"><ele>789</ele></trkpt><trkpt lat="42.258315" lon="-4.36636"><ele>789</ele></trkpt><trkpt lat="42.258322" lon="-4.367575"><ele>789</ele></trkpt><trkpt lat="42.258327" lon="-4.36879"><ele>788</ele></trkpt><trkpt lat="42.25833" lon="-4.370005"><ele>788</ele></trkpt><trkpt lat="42.258332" lon="-4.37122"><ele>787</ele></trkpt><trkpt lat="42.258335" lon="-4.372436"><ele>787</ele></trkpt><trkpt lat="42.258336" lon="-4.373651"><ele>786</ele></trkpt><trkpt lat="42.258308" lon="-4.374865"><ele>786</ele></trkpt><trkpt lat="42.258273" lon="-4.376078"><ele>788</ele></trkpt><trkpt lat="42.258319" lon="-4.377292"><ele>788</ele></trkpt><trkpt lat="42.258323" lon="-4.378507"><ele>786</ele></trkpt><trkpt lat="42.258322" lon="-4.379722"><ele>787</ele></trkpt><trkpt lat="42.258425" lon="-4.38092"><ele>786</ele></trkpt><trkpt lat="42.258718" lon="-4.382069"><ele>786</ele></trkpt><trkpt lat="42.259014" lon="-4.383216"><ele>787</ele></trkpt><trkpt lat="42.259309" lon="-4.384364"><ele>786</ele></trkpt><trkpt lat="42.259616" lon="-4.385505"><ele>788</ele></trkpt><trkpt lat="42.26027" lon="-4.386313"><ele>787</ele></trkpt><trkpt lat="42.261027" lon="-4.38697"><ele>786</ele></trkpt><trkpt lat="42.261785" lon="-4.387624"><ele>786</ele></trkpt><trkpt lat="42.262542" lon="-4.388279"><ele>786</ele></trkpt><trkpt lat="42.263133" lon="-4.389144"><ele>786</ele></trkpt><trkpt lat="42.26335" lon="-4.390323"><ele>785</ele></trkpt><trkpt lat="42.263557" lon="-4.391506"><ele>785</ele></trkpt><trkpt lat="42.263774" lon="-4.392685"><ele>785</ele></trkpt><trkpt lat="42.263978" lon="-4.393868"><ele>786</ele></trkpt><trkpt lat="42.264186" lon="-4.39505"><ele>785</ele></trkpt><trkpt lat="42.264406" lon="-4.396229"><ele>786</ele></trkpt><trkpt lat="42.2646" lon="-4.397414"><ele>785</ele></trkpt><trkpt lat="42.264182" lon="-4.398425"><ele>785</ele></trkpt><trkpt lat="42.263973" lon="-4.399199"><ele>785</ele></trkpt><trkpt lat="42.26468" lon="-4.399658"><ele>789</ele></trkpt><trkpt lat="42.265305" lon="-4.400501"><ele>787</ele></trkpt><trkpt lat="42.265996" lon="-4.401018"><ele>785</ele></trkpt><trkpt lat="42.266359" lon="-4.402099"><ele>781</ele></trkpt><trkpt lat="42.266289" lon="-4.40331"><ele>780</ele></trkpt><trkpt lat="42.266212" lon="-4.404521"><ele>778</ele></trkpt><trkpt lat="42.266123" lon="-4.40573"><ele>780</ele></trkpt><trkpt lat="42.266071" lon="-4.406403"><ele>780</ele></trkpt></trkseg></trk></gpx>