<?xml version="1.0" encoding="UTF-8"?>
<gpx version="1.1" creator="Mi Diario del Camino de Santiago" xmlns="http://www.topografix.com/GPX/1/1">
<metadata><name>Etapa 8: Logroño - Nájera</name><copyright author="OpenStreetMap contributors"><license>https://opendatacommons.org/licenses/odbl/1-0/</license></copyright></metadata>
<trk><name>Etapa 8: Logroño - Nájera</name><trkseg><trkpt lat="42.467783" lon="-2.446197"><ele>383</ele></trkpt><trkpt lat="42.467665" lon="-2.447348"><ele>384</ele></trkpt><trkpt lat="42.467397" lon="-2.448493"><ele>386</ele></trkpt><trkpt lat="42.467019" lon="-2.449586"><ele>391</ele></trkpt><trkpt lat="42.466522" lon="-2.450118"><ele>392</ele></trkpt><trkpt lat="42.466084" lon="-2.4508"><ele>399</ele></trkpt><trkpt lat="42.465907" lon="-2.451593"><ele>404</ele></trkpt><trkpt lat="42.465627" lon="-2.452749"><ele>403</ele></trkpt><trkpt lat="42.46535" lon="-2.453908"><ele>400</ele></trkpt><trkpt lat="42.465079" lon="-2.454554"><ele>399</ele></trkpt><trkpt lat="42.464875" lon="-2.455648"><ele>398</ele></trkpt><trkpt lat="42.464664" lon="-2.456794"><ele>398</ele></trkpt><trkpt lat="42.46435" lon="-2.457771"><ele>395</ele></trkpt><trkpt lat="42.46416" lon="-2.45887"><ele>397</ele></trkpt><trkpt lat="42.463903" lon="-2.459871"><ele>395</ele></trkpt><trkpt lat="42.463657" lon="-2.46092"><ele>394</ele></trkpt><trkpt lat="42.463301" lon="-2.461976"><ele>397</ele></trkpt><trkpt lat="42.462585" lon="-2.462001"><ele>396</ele></trkpt><trkpt lat="42.461786" lon="-2.461629"><ele>396</ele></trkpt><trkpt lat="42.460977" lon="-2.461458"><ele>395</ele></trkpt><trkpt lat="42.460321" lon="-2.462094"><ele>395</ele></trkpt><trkpt lat="42.45997" lon="-2.463201"><ele>400</ele></trkpt><trkpt lat="42.459696" lon="-2.464362"><ele>403</ele></trkpt><trkpt lat="42.459419" lon="-2.465522"><ele>402</ele></trkpt><trkpt lat="42.459158" lon="-2.466683"><ele>404</ele></trkpt><trkpt lat="42.459038" lon="-2.467866"><ele>406</ele></trkpt><trkpt lat="42.458227" lon="-2.468197"><ele>407</ele></trkpt><trkpt lat="42.458326" lon="-2.469408"><ele>407</ele></trkpt><trkpt lat="42.458165" lon="-2.470584"><ele>408</ele></trkpt><trkpt lat="42.4577" lon="-2.471619"><ele>409</ele></trkpt><trkpt lat="42.457372" lon="-2.472667"><ele>411</ele></trkpt><trkpt lat="42.456869" lon="-2.472974"><ele>411</ele></trkpt><trkpt lat="42.456446" lon="-2.473959"><ele>411</ele></trkpt><trkpt lat="42.456264" lon="-2.475137"><ele>411</ele></trkpt><trkpt lat="42.456015" lon="-2.476289"><ele>411</ele></trkpt><trkpt lat="42.45574" lon="-2.477445"><ele>410</ele></trkpt><trkpt lat="42.45524" lon="-2.478077"><ele>408</ele></trkpt><trkpt lat="42.455038" lon="-2.479264"><ele>409</ele></trkpt><trkpt lat="42.454642" lon="-2.480334"><ele>408</ele></trkpt><trkpt lat="42.454155" lon="-2.481359"><ele>409</ele></trkpt><trkpt lat="42.453748" lon="-2.482445"><ele>410</ele></trkpt><trkpt lat="42.453447" lon="-2.483588"><ele>409</ele></trkpt><trkpt lat="42.453263" lon="-2.484781"><ele>410</ele></trkpt><trkpt lat="42.453109" lon="-2.485981"><ele>410</ele></trkpt><trkpt lat="42.452908" lon="-2.487152"><ele>412</ele></trkpt><trkpt lat="42.452465" lon="-2.488213"><ele>413</ele></trkpt><trkpt lat="42.45205" lon="-2.489295"><ele>414</ele></trkpt><trkpt lat="42.45165" lon="-2.490383"><ele>415</ele></trkpt><trkpt lat="42.451368" lon="-2.49154"><ele>416</ele></trkpt><trkpt lat="42.451055" lon="-2.492682"><ele>417</ele></trkpt><trkpt lat="42.450754" lon="-2.493829"><ele>417</ele></trkpt><trkpt lat="42.450398" lon="-2.494948"><ele>420</ele></trkpt><trkpt lat="42.449947" lon="-2.49553"><ele>422</ele></trkpt><trkpt lat="42.449925" lon="-2.49674"><ele>424</ele></trkpt><trkpt lat="42.4497" lon="-2.497856"><ele>425</ele></trkpt><trkpt lat="42.448879" lon="-2.498213"><ele>429</ele></trkpt><trkpt lat="42.448387" lon="-2.499109"><ele>428</ele></trkpt><trkpt lat="42.447809" lon="-2.499903"><ele>431</ele></trkpt><trkpt lat="42.447147" lon="-2.500571"><ele>433</ele></trkpt><trkpt lat="42.447498" lon="-2.501667"><ele>433</ele></trkpt><trkpt lat="42.447893" lon="-2.502762"><ele>434</ele></trkpt><trkpt lat="42.448045" lon="-2.503847"><ele>439</ele></trkpt><trkpt lat="42.447287" lon="-2.504033"><ele>438</ele></trkpt><trkpt lat="42.446967" lon="-2.505079"><ele>440</ele></trkpt><trkpt lat="42.446717" lon="-2.506136"><ele>437</ele></trkpt><trkpt lat="42.44695" lon="-2.507291"><ele>441</ele></trkpt><trkpt lat="42.447046" lon="-2.508453"><ele>444</ele></trkpt><trkpt lat="42.44655" lon="-2.50946"><ele>443</ele></trkpt><trkpt lat="42.446115" lon="-2.510522"><ele>442</ele></trkpt><trkpt lat="42.445584" lon="-2.511482"><ele>443</ele></trkpt><trkpt lat="42.44512" lon="-2.512523"><ele>443</ele></trkpt><trkpt lat="42.444569" lon="-2.513379"><ele>445</ele></trkpt><trkpt lat="42.444171" lon="-2.512359"><ele>442</ele></trkpt><trkpt lat="42.443575" lon="-2.512665"><ele>444</ele></trkpt><trkpt lat="42.442875" lon="-2.513278"><ele>447</ele></trkpt><trkpt lat="42.441984" lon="-2.51326"><ele>445</ele></trkpt><trkpt lat="42.441315" lon="-2.513713"><ele>444</ele></trkpt><trkpt lat="42.441483" lon="-2.514793"><ele>447</ele></trkpt><trkpt lat="42.440584" lon="-2.51482"><ele>448</ele></trkpt><trkpt lat="42.439698" lon="-2.515"><ele>449</ele></trkpt><trkpt lat="42.438866" lon="-2.515239"><ele>453</ele></trkpt><trkpt lat="42.438145" lon="-2.514535"><ele>451</ele></trkpt><trkpt lat="42.43749" lon="-2.514945"><ele>455</ele></trkpt><trkpt lat="42.436853" lon="-2.515763"><ele>467</ele></trkpt><trkpt lat="42.436786" lon="-2.51669"><ele>473</ele></trkpt><trkpt lat="42.437414" lon="-2.51756"><ele>476</ele></trkpt><trkpt lat="42.437864" lon="-2.518602"><ele>484</ele></trkpt><trkpt lat="42.438309" lon="-2.519654"><ele>492</ele></trkpt><trkpt lat="42.438801" lon="-2.52066"><ele>497</ele></trkpt><trkpt lat="42.439262" lon="-2.521689"><ele>505</ele></trkpt><trkpt lat="42.439624" lon="-2.5228"><ele>512</ele></trkpt><trkpt lat="42.440086" lon="-2.523825"><ele>513</ele></trkpt><trkpt lat="42.439904" lon="-2.525012"><ele>519</ele></trkpt><trkpt lat="42.439821" lon="-2.526225"><ele>519</ele></trkpt><trkpt lat="42.439748" lon="-2.527439"><ele>515</ele></trkpt><trkpt lat="42.439587" lon="-2.528637"><ele>513</ele></trkpt><trkpt lat="42.439399" lon="-2.529821"><ele>512</ele></trkpt><trkpt lat="42.439185" lon="-2.531004"><ele>509</ele></trkpt><trkpt lat="42.438875" lon="-2.532145"><ele>505</ele></trkpt><trkpt lat="42.438786" lon="-2.533356"><ele>503</ele></trkpt><trkpt lat="42.438615" lon="-2.53455"><ele>501</ele></trkpt><trkpt lat="42.438408" lon="-2.535728"><ele>498</ele></trkpt><trkpt lat="42.438042" lon="-2.536841"><ele>495</ele></trkpt><trkpt lat="42.437762" lon="-2.537997"><ele>495</ele></trkpt><trkpt lat="42.437533" lon="-2.539169"><ele>495</ele></trkpt><trkpt lat="42.437034" lon="-2.540181"><ele>492</ele></trkpt><trkpt lat="42.436646" lon="-2.541262"><ele>487</ele></trkpt><trkpt lat="42.436439" lon="-2.542441"><ele>479</ele></trkpt><trkpt lat="42.436248" lon="-2.543624"><ele>472</ele></trkpt><trkpt lat="42.436098" lon="-2.544826"><ele>472</ele></trkpt><trkpt lat="42.435905" lon="-2.546015"><ele>470</ele></trkpt><trkpt lat="42.435733" lon="-2.54721"><ele>469</ele></trkpt><trkpt lat="42.435556" lon="-2.54839"><ele>467</ele></trkpt><trkpt lat="42.435914" lon="-2.549492"><ele>466</ele></trkpt><trkpt lat="42.435386" lon="-2.550404"><ele>466</ele></trkpt><trkpt lat="42.434864" lon="-2.551363"><ele>468</ele></trkpt><trkpt lat="42.43456" lon="-2.552509"><ele>468</ele></trkpt><trkpt lat="42.434204" lon="-2.553627"><ele>468</ele></trkpt><trkpt lat="42.433867" lon="-2.554757"><ele>469</ele></trkpt><trkpt lat="42.433553" lon="-2.555897"><ele>470</ele></trkpt><trkpt lat="42.433227" lon="-2.557033"><ele>472</ele></trkpt><trkpt lat="42.432917" lon="-2.558177"><ele>477</ele></trkpt><trkpt lat="42.432601" lon="-2.559251"><ele>490</ele></trkpt><trkpt lat="42.431878" lon="-2.559223"><ele>496</ele></trkpt><trkpt lat="42.431023" lon="-2.559424"><ele>508</ele></trkpt><trkpt lat="42.430144" lon="-2.559661"><ele>513</ele></trkpt><trkpt lat="42.429584" lon="-2.560583"><ele>516</ele></trkpt><trkpt lat="42.429454" lon="-2.561783"><ele>515</ele></trkpt><trkpt lat="42.430035" lon="-2.56258"><ele>518</ele></trkpt><trkpt lat="42.430809" lon="-2.563124"><ele>517</ele></trkpt><trkpt lat="42.430735" lon="-2.564338"><ele>507</ele></trkpt><trkpt lat="42.430538" lon="-2.565518"><ele>502</ele></trkpt><trkpt lat="42.430336" lon="-2.566706"><ele>502</ele></trkpt><trkpt lat="42.430136" lon="-2.567894"><ele>504</ele></trkpt><trkpt lat="42.42972" lon="-2.568965"><ele>505</ele></trkpt><trkpt lat="42.429239" lon="-2.569994"><ele>505</ele></trkpt><trkpt lat="42.428751" lon="-2.571018"><ele>506</ele></trkpt><trkpt lat="42.428261" lon="-2.57204"><ele>506</ele></trkpt><trkpt lat="42.427771" lon="-2.573062"><ele>506</ele></trkpt><trkpt lat="42.427234" lon="-2.573969"><ele>510</ele></trkpt><trkpt lat="42.426759" lon="-2.575004"><ele>512</ele></trkpt><trkpt lat="42.426299" lon="-2.57605"><ele>516</ele></trkpt><trkpt lat="42.425822" lon="-2.577066"><ele>519</ele></trkpt><trkpt lat="42.425118" lon="-2.577795"><ele>522</ele></trkpt><trkpt lat="42.42438" lon="-2.578472"><ele>525</ele></trkpt><trkpt lat="42.423569" lon="-2.578999"><ele>528</ele></trkpt><trkpt lat="42.422799" lon="-2.579615"><ele>532</ele></trkpt><trkpt lat="42.422021" lon="-2.5802"><ele>535</ele></trkpt><trkpt lat="42.421379" lon="-2.58104"><ele>538</ele></trkpt><trkpt lat="42.420758" lon="-2.581913"><ele>542</ele></trkpt><trkpt lat="42.420008" lon="-2.582574"><ele>545</ele></trkpt><trkpt lat="42.419449" lon="-2.583451"><ele>548</ele></trkpt><trkpt lat="42.418875" lon="-2.584375"><ele>550</ele></trkpt><trkpt lat="42.418151" lon="-2.585088"><ele>554</ele></trkpt><trkpt lat="42.417429" lon="-2.585814"><ele>558</ele></trkpt><trkpt lat="42.416715" lon="-2.586549"><ele>562</ele></trkpt><trkpt lat="42.415996" lon="-2.587255"><ele>565</ele></trkpt><trkpt lat="42.415142" lon="-2.587635"><ele>570</ele></trkpt><trkpt lat="42.415175" lon="-2.588756"><ele>571</ele></trkpt><trkpt lat="42.415058" lon="-2.589955"><ele>574</ele></trkpt><trkpt lat="42.414973" lon="-2.591168"><ele>577</ele></trkpt><trkpt lat="42.414828" lon="-2.592366"><ele>579</ele></trkpt><trkpt lat="42.414668" lon="-2.593552"><ele>578</ele></trkpt><trkpt lat="42.414901" lon="-2.594682"><ele>572</ele></trkpt><trkpt lat="42.415511" lon="-2.595575"><ele>566</ele></trkpt><trkpt lat="42.416046" lon="-2.59654"><ele>566</ele></trkpt><trkpt lat="42.416404" lon="-2.597654"><ele>564</ele></trkpt><trkpt lat="42.416997" lon="-2.598079"><ele>562</ele></trkpt><trkpt lat="42.416765" lon="-2.59907"><ele>564</ele></trkpt><trkpt lat="42.416279" lon="-2.600095"><ele>568</ele></trkpt><trkpt lat="42.415839" lon="-2.601157"><ele>570</ele></trkpt><trkpt lat="42.415449" lon="-2.602254"><ele>573</ele></trkpt><trkpt lat="42.415046" lon="-2.603343"><ele>574</ele></trkpt><trkpt lat="42.414659" lon="-2.604442"><ele>575</ele></trkpt><trkpt lat="42.414267" lon="-2.605538"><ele>577</ele></trkpt><trkpt lat="42.413871" lon="-2.606632"><ele>578</ele></trkpt><trkpt lat="42.413471" lon="-2.607723"><ele>579</ele></trkpt><trkpt lat="42.413089" lon="-2.608825"><ele>586</ele></trkpt><trkpt lat="42.412772" lon="-2.609965"><ele>589</ele></trkpt><trkpt lat="42.412519" lon="-2.611133"><ele>590</ele></trkpt><trkpt lat="42.412323" lon="-2.612321"><ele>592</ele></trkpt><trkpt lat="42.412212" lon="-2.613529"><ele>594</ele></trkpt><trkpt lat="42.411753" lon="-2.614162"><ele>596</ele></trkpt><trkpt lat="42.411273" lon="-2.615053"><ele>597</ele></trkpt><trkpt lat="42.410836" lon="-2.616113"><ele>601</ele></trkpt><trkpt lat="42.410273" lon="-2.617063"><ele>606</ele></trkpt><trkpt lat="42.409986" lon="-2.618198"><ele>609</ele></trkpt><trkpt lat="42.409445" lon="-2.619109"><ele>612</ele></trkpt><trkpt lat="42.408963" lon="-2.620133"><ele>614</ele></trkpt><trkpt lat="42.408617" lon="-2.621211"><ele>617</ele></trkpt><trkpt lat="42.408039" lon="-2.622112"><ele>620</ele></trkpt><trkpt lat="42.407333" lon="-2.622812"><ele>622</ele></trkpt><trkpt lat="42.406549" lon="-2.623405"><ele>626</ele></trkpt><trkpt lat="42.405852" lon="-2.624172"><ele>631</ele></trkpt><trkpt lat="42.405496" lon="-2.625141"><ele>634</ele></trkpt><trkpt lat="42.405872" lon="-2.626091"><ele>632</ele></trkpt><trkpt lat="42.406494" lon="-2.62696"><ele>627</ele></trkpt><trkpt lat="42.407304" lon="-2.62748"><ele>620</ele></trkpt><trkpt lat="42.408039" lon="-2.628181"><ele>619</ele></trkpt><trkpt lat="42.408156" lon="-2.629294"><ele>621</ele></trkpt><trkpt lat="42.408372" lon="-2.630468"><ele>623</ele></trkpt><trkpt lat="42.408694" lon="-2.631557"><ele>624</ele></trkpt><trkpt lat="42.409408" lon="-2.632283"><ele>623</ele></trkpt><trkpt lat="42.410076" lon="-2.633054"><ele>624</ele></trkpt><trkpt lat="42.410754" lon="-2.633819"><ele>625</ele></trkpt><trkpt lat="42.411302" lon="-2.634715"><ele>626</ele></trkpt><trkpt lat="42.411435" lon="-2.635907"><ele>628</ele></trkpt><trkpt lat="42.41147" lon="-2.637114"><ele>631</ele></trkpt><trkpt lat="42.411488" lon="-2.638319"><ele>634</ele></trkpt><trkpt lat="42.411332" lon="-2.639511"><ele>641</ele></trkpt><trkpt lat="42.411334" lon="-2.640725"><ele>649</ele></trkpt><trkpt lat="42.411411" lon="-2.641923"><ele>661</ele></trkpt><trkpt lat="42.412009" lon="-2.642787"><ele>667</ele></trkpt><trkpt lat="42.412456" lon="-2.643827"><ele>662</ele></trkpt><trkpt lat="42.412415" lon="-2.645027"><ele>658</ele></trkpt><trkpt lat="42.412455" lon="-2.646242"><ele>652</ele></trkpt><trkpt lat="42.412568" lon="-2.647447"><ele>645</ele></trkpt><trkpt lat="42.412591" lon="-2.648614"><ele>637</ele></trkpt><trkpt lat="42.411991" lon="-2.649503"><ele>624</ele></trkpt><trkpt lat="42.411237" lon="-2.650146"><ele>618</ele></trkpt><trkpt lat="42.411107" lon="-2.65115"><ele>617</ele></trkpt><trkpt lat="42.410936" lon="-2.652314"><ele>619</ele></trkpt><trkpt lat="42.410804" lon="-2.653494"><ele>617</ele></trkpt><trkpt lat="42.410667" lon="-2.654677"><ele>619</ele></trkpt><trkpt lat="42.410777" lon="-2.655885"><ele>616</ele></trkpt><trkpt lat="42.410909" lon="-2.65709"><ele>618</ele></trkpt><trkpt lat="42.411074" lon="-2.658286"><ele>614</ele></trkpt><trkpt lat="42.411238" lon="-2.659483"><ele>610</ele></trkpt><trkpt lat="42.411344" lon="-2.660688"><ele>606</ele></trkpt><trkpt lat="42.411412" lon="-2.661899"><ele>608</ele></trkpt><trkpt lat="42.41139" lon="-2.663098"><ele>609</ele></trkpt><trkpt lat="42.411685" lon="-2.66422"><ele>603</ele></trkpt><trkpt lat="42.41179" lon="-2.665429"><ele>597</ele></trkpt><trkpt lat="42.412006" lon="-2.666611"><ele>595</ele></trkpt><trkpt lat="42.412214" lon="-2.667795"><ele>593</ele></trkpt><trkpt lat="42.412503" lon="-2.668948"><ele>591</ele></trkpt><trkpt lat="42.412826" lon="-2.670084"><ele>588</ele></trkpt><trkpt lat="42.413197" lon="-2.671194"><ele>584</ele></trkpt><trkpt lat="42.41339" lon="-2.672379"><ele>574</ele></trkpt><trkpt lat="42.413593" lon="-2.673544"><ele>574</ele></trkpt><trkpt lat="42.413694" lon="-2.674737"><ele>577</ele></trkpt><trkpt lat="42.41409" lon="-2.675819"><ele>582</ele></trkpt><trkpt lat="42.414634" lon="-2.676789"><ele>580</ele></trkpt><trkpt lat="42.414977" lon="-2.677886"><ele>582</ele></trkpt><trkpt lat="42.414846" lon="-2.679078"><ele>581</ele></trkpt><trkpt lat="42.414579" lon="-2.680238"><ele>578</ele></trkpt><trkpt lat="42.414389" lon="-2.681418"><ele>574</ele></trkpt><trkpt lat="42.414317" lon="-2.682632"><ele>569</ele></trkpt><trkpt lat="42.414073" lon="-2.683786"><ele>566</ele></trkpt><trkpt lat="42.41375" lon="-2.684923"><ele>563</ele></trkpt><trkpt lat="42.413516" lon="-2.686093"><ele>562</ele></trkpt><trkpt lat="42.413334" lon="-2.687276"><ele>559</ele></trkpt><trkpt lat="42.413393" lon="-2.688489"><ele>558</ele></trkpt><trkpt lat="42.413384" lon="-2.689703"><ele>555</ele></trkpt><trkpt lat="42.413292" lon="-2.690913"><ele>554</ele></trkpt><trkpt lat="42.41324" lon="-2.692121"><ele>551</ele></trkpt><trkpt lat="42.413456" lon="-2.693302"><ele>545</ele></trkpt><trkpt lat="42.413822" lon="-2.694386"><ele>540</ele></trkpt><trkpt lat="42.41414" lon="-2.69537"><ele>537</ele></trkpt><trkpt lat="42.414153" lon="-2.696555"><ele>536</ele></trkpt><trkpt lat="42.414269" lon="-2.697722"><ele>534</ele></trkpt><trkpt lat="42.414483" lon="-2.698708"><ele>534</ele></trkpt><trkpt lat="42.415251" lon="-2.69933"><ele>530</ele></trkpt><trkpt lat="42.416104" lon="-2.699691"><ele>529</ele></trkpt><trkpt lat="42.415668" lon="-2.700546"><ele>529</ele></trkpt><trkpt lat="42.415537" lon="-2.701748"><ele>527</ele></trkpt><trkpt lat="42.415437" lon="-2.702925"><ele>526</ele></trkpt><trkpt lat="42.415605" lon="-2.704119"><ele>526</ele></trkpt><trkpt lat="42.41574" lon="-2.705322"><ele>526</ele></trkpt><trkpt lat="42.41583" lon="-2.706534"><ele>528</ele></trkpt><trkpt lat="42.415898" lon="-2.707745"><ele>528</ele></trkpt><trkpt lat="42.416045" lon="-2.708947"><ele>527</ele></trkpt><trkpt lat="42.416168" lon="-2.710097"><ele>525</ele></trkpt><trkpt lat="42.416411" lon="-2.71126"><ele>521</ele></trkpt><trkpt lat="42.416605" lon="-2.712448"><ele>519</ele></trkpt><trkpt lat="42.416871" lon="-2.713612"><ele>517</ele></trkpt><trkpt lat="42.417163" lon="-2.714763"><ele>516</ele></trkpt><trkpt lat="42.417651" lon="-2.715586"><ele>514</ele></trkpt><trkpt lat="42.417812" lon="-2.716713"><ele>512</ele></trkpt><trkpt lat="42.418019" lon="-2.717891"><ele>510</ele></trkpt><trkpt lat="42.41842" lon="-2.718979"><ele>509</ele></trkpt><trkpt lat="42.418545" lon="-2.720183"><ele>509</ele></trkpt><trkpt lat="42.418593" lon="-2.721398"><ele>508</ele></trkpt><trkpt lat="42.418489" lon="-2.722608"><ele>509</ele></trkpt><trkpt lat="42.418397" lon="-2.723819"><ele>507</ele></trkpt><trkpt lat="42.418227" lon="-2.724971"><ele>506</ele></trkpt><trkpt lat="42.418322" lon="-2.726133"><ele>504</ele></trkpt><trkpt lat="42.418109" lon="-2.727317"><ele>502</ele></trkpt><trkpt lat="42.417892" lon="-2.728498"><ele>496</ele></trkpt><trkpt lat="42.417494" lon="-2.72959"><ele>494</ele></trkpt><trkpt lat="42.41704" lon="-2.73063"><ele>491</ele></trkpt><trkpt lat="42.417186" lon="-2.731701"><ele>489</ele></trkpt><trkpt lat="42.417383" lon="-2.732772"><ele>486</ele></trkpt><trkpt lat="42.417277" lon="-2.733736"><ele>489</ele></trkpt><trkpt lat="42.416536" lon="-2.734306"><ele>492</ele></trkpt><trkpt lat="42.416485" lon="-2.735252"><ele>497</ele></trkpt></trkseg></trk></gpx>