<?xml version="1.0" encoding="UTF-8"?>
<gpx version="1.1" creator="Mi Diario del Camino de Santiago" xmlns="http://www.topografix.com/GPX/1/1">
<metadata><name>Etapa 14: Hornillos del Camino - Castrojeriz</name><copyright author="OpenStreetMap contributors"><license>https://opendatacommons.org/licenses/odbl/1-0/</license></copyright></metadata>
<trk><name>Etapa 14: Hornillos del Camino - Castrojeriz</name><trkseg><trkpt lat="42.338479" lon="-3.926268"><ele>824</ele></trkpt><trkpt lat="42.338496" lon="-3.92745"><ele>826</ele></trkpt><trkpt lat="42.338104" lon="-3.928541"><ele>828</ele></trkpt><trkpt lat="42.337699" lon="-3.929625"><ele>830</ele></trkpt><trkpt lat="42.337705" lon="-3.930766"><ele>831</ele></trkpt><trkpt lat="42.33788" lon="-3.931959"><ele>829</ele></trkpt><trkpt lat="42.337928" lon="-3.933171"><ele>833</ele></trkpt><trkpt lat="42.33757" lon="-3.93428"><ele>835</ele></trkpt><trkpt lat="42.337243" lon="-3.93541"><ele>837</ele></trkpt><trkpt lat="42.337024" lon="-3.936588"><ele>839</ele></trkpt><trkpt lat="42.336736" lon="-3.937702"><ele>842</ele></trkpt><trkpt lat="42.336328" lon="-3.938787"><ele>845</ele></trkpt><trkpt lat="42.336058" lon="-3.939945"><ele>844</ele></trkpt><trkpt lat="42.33584" lon="-3.941124"><ele>847</ele></trkpt><trkpt lat="42.335537" lon="-3.942268"><ele>849</ele></trkpt><trkpt lat="42.335192" lon="-3.943375"><ele>854</ele></trkpt><trkpt lat="42.334612" lon="-3.944305"><ele>858</ele></trkpt><trkpt lat="42.334142" lon="-3.945319"><ele>856</ele></trkpt><trkpt lat="42.333789" lon="-3.946434"><ele>862</ele></trkpt><trkpt lat="42.333426" lon="-3.947544"><ele>863</ele></trkpt><trkpt lat="42.333019" lon="-3.948625"><ele>866</ele></trkpt><trkpt lat="42.332489" lon="-3.949608"><ele>872</ele></trkpt><trkpt lat="42.332301" lon="-3.950687"><ele>874</ele></trkpt><trkpt lat="42.331649" lon="-3.951517"><ele>880</ele></trkpt><trkpt lat="42.33107" lon="-3.952445"><ele>883</ele></trkpt><trkpt lat="42.330517" lon="-3.953402"><ele>886</ele></trkpt><trkpt lat="42.329928" lon="-3.954318"><ele>888</ele></trkpt><trkpt lat="42.329389" lon="-3.955292"><ele>893</ele></trkpt><trkpt lat="42.328903" lon="-3.956315"><ele>895</ele></trkpt><trkpt lat="42.328519" lon="-3.95741"><ele>899</ele></trkpt><trkpt lat="42.32826" lon="-3.958573"><ele>905</ele></trkpt><trkpt lat="42.328239" lon="-3.959784"><ele>908</ele></trkpt><trkpt lat="42.328399" lon="-3.960978"><ele>912</ele></trkpt><trkpt lat="42.328556" lon="-3.962174"><ele>924</ele></trkpt><trkpt lat="42.328609" lon="-3.96338"><ele>933</ele></trkpt><trkpt lat="42.328578" lon="-3.964551"><ele>933</ele></trkpt><trkpt lat="42.328489" lon="-3.965762"><ele>934</ele></trkpt><trkpt lat="42.328241" lon="-3.966928"><ele>933</ele></trkpt><trkpt lat="42.328011" lon="-3.968103"><ele>934</ele></trkpt><trkpt lat="42.327884" lon="-3.969305"><ele>935</ele></trkpt><trkpt lat="42.327637" lon="-3.970457"><ele>935</ele></trkpt><trkpt lat="42.327485" lon="-3.971655"><ele>934</ele></trkpt><trkpt lat="42.327439" lon="-3.972869"><ele>934</ele></trkpt><trkpt lat="42.327461" lon="-3.974084"><ele>935</ele></trkpt><trkpt lat="42.327629" lon="-3.975277"><ele>935</ele></trkpt><trkpt lat="42.327742" lon="-3.976484"><ele>934</ele></trkpt><trkpt lat="42.32778" lon="-3.977697"><ele>932</ele></trkpt><trkpt lat="42.327782" lon="-3.978913"><ele>932</ele></trkpt><trkpt lat="42.327802" lon="-3.980129"><ele>929</ele></trkpt><trkpt lat="42.327814" lon="-3.981343"><ele>926</ele></trkpt><trkpt lat="42.32763" lon="-3.982471"><ele>921</ele></trkpt><trkpt lat="42.327069" lon="-3.983415"><ele>918</ele></trkpt><trkpt lat="42.326562" lon="-3.984392"><ele>909</ele></trkpt><trkpt lat="42.326338" lon="-3.98557"><ele>902</ele></trkpt><trkpt lat="42.326156" lon="-3.986761"><ele>893</ele></trkpt><trkpt lat="42.325932" lon="-3.987904"><ele>888</ele></trkpt><trkpt lat="42.325988" lon="-3.989113"><ele>890</ele></trkpt><trkpt lat="42.326064" lon="-3.990323"><ele>895</ele></trkpt><trkpt lat="42.326105" lon="-3.991537"><ele>901</ele></trkpt><trkpt lat="42.326062" lon="-3.992747"><ele>906</ele></trkpt><trkpt lat="42.325631" lon="-3.993784"><ele>914</ele></trkpt><trkpt lat="42.325336" lon="-3.994891"><ele>919</ele></trkpt><trkpt lat="42.325019" lon="-3.996008"><ele>923</ele></trkpt><trkpt lat="42.32453" lon="-3.997"><ele>924</ele></trkpt><trkpt lat="42.324098" lon="-3.998065"><ele>926</ele></trkpt><trkpt lat="42.323754" lon="-3.999181"><ele>927</ele></trkpt><trkpt lat="42.323442" lon="-4.000318"><ele>929</ele></trkpt><trkpt lat="42.323168" lon="-4.001476"><ele>930</ele></trkpt><trkpt lat="42.322957" lon="-4.002651"><ele>929</ele></trkpt><trkpt lat="42.322679" lon="-4.003807"><ele>928</ele></trkpt><trkpt lat="42.322466" lon="-4.004988"><ele>927</ele></trkpt><trkpt lat="42.322228" lon="-4.006159"><ele>926</ele></trkpt><trkpt lat="42.321936" lon="-4.007309"><ele>926</ele></trkpt><trkpt lat="42.321636" lon="-4.008455"><ele>926</ele></trkpt><trkpt lat="42.321337" lon="-4.0096"><ele>925</ele></trkpt><trkpt lat="42.32108" lon="-4.010765"><ele>926</ele></trkpt><trkpt lat="42.320817" lon="-4.011927"><ele>925</ele></trkpt><trkpt lat="42.320572" lon="-4.013097"><ele>925</ele></trkpt><trkpt lat="42.320344" lon="-4.014274"><ele>924</ele></trkpt><trkpt lat="42.320097" lon="-4.015442"><ele>926</ele></trkpt><trkpt lat="42.319771" lon="-4.016575"><ele>928</ele></trkpt><trkpt lat="42.319371" lon="-4.017661"><ele>926</ele></trkpt><trkpt lat="42.318965" lon="-4.018747"><ele>928</ele></trkpt><trkpt lat="42.318568" lon="-4.019837"><ele>928</ele></trkpt><trkpt lat="42.318162" lon="-4.020923"><ele>928</ele></trkpt><trkpt lat="42.317747" lon="-4.022002"><ele>926</ele></trkpt><trkpt lat="42.317315" lon="-4.023068"><ele>925</ele></trkpt><trkpt lat="42.316853" lon="-4.024112"><ele>924</ele></trkpt><trkpt lat="42.316392" lon="-4.025156"><ele>924</ele></trkpt><trkpt lat="42.315942" lon="-4.026208"><ele>922</ele></trkpt><trkpt lat="42.315469" lon="-4.02724"><ele>921</ele></trkpt><trkpt lat="42.315055" lon="-4.028319"><ele>919</ele></trkpt><trkpt lat="42.314668" lon="-4.029416"><ele>917</ele></trkpt><trkpt lat="42.314134" lon="-4.03029"><ele>920</ele></trkpt><trkpt lat="42.313984" lon="-4.031465"><ele>918</ele></trkpt><trkpt lat="42.313732" lon="-4.032631"><ele>919</ele></trkpt><trkpt lat="42.313612" lon="-4.033835"><ele>919</ele></trkpt><trkpt lat="42.313363" lon="-4.035002"><ele>920</ele></trkpt><trkpt lat="42.313147" lon="-4.036182"><ele>920</ele></trkpt><trkpt lat="42.312925" lon="-4.037361"><ele>919</ele></trkpt><trkpt lat="42.312634" lon="-4.038483"><ele>919</ele></trkpt><trkpt lat="42.312488" lon="-4.039678"><ele>914</ele></trkpt><trkpt lat="42.312598" lon="-4.04086"><ele>905</ele></trkpt><trkpt lat="42.312741" lon="-4.042048"><ele>897</ele></trkpt><trkpt lat="42.312724" lon="-4.043248"><ele>886</ele></trkpt><trkpt lat="42.312699" lon="-4.044462"><ele>876</ele></trkpt><trkpt lat="42.312748" lon="-4.045651"><ele>867</ele></trkpt><trkpt lat="42.313266" lon="-4.046637"><ele>863</ele></trkpt><trkpt lat="42.313654" lon="-4.047702"><ele>856</ele></trkpt><trkpt lat="42.313873" lon="-4.048868"><ele>852</ele></trkpt><trkpt lat="42.313932" lon="-4.050025"><ele>848</ele></trkpt><trkpt lat="42.313733" lon="-4.051198"><ele>846</ele></trkpt><trkpt lat="42.313877" lon="-4.052398"><ele>847</ele></trkpt><trkpt lat="42.313995" lon="-4.053579"><ele>851</ele></trkpt><trkpt lat="42.313721" lon="-4.054737"><ele>850</ele></trkpt><trkpt lat="42.313506" lon="-4.055916"><ele>851</ele></trkpt><trkpt lat="42.313213" lon="-4.05706"><ele>850</ele></trkpt><trkpt lat="42.312841" lon="-4.058166"><ele>854</ele></trkpt><trkpt lat="42.312468" lon="-4.059267"><ele>855</ele></trkpt><trkpt lat="42.312128" lon="-4.060389"><ele>856</ele></trkpt><trkpt lat="42.311645" lon="-4.061402"><ele>858</ele></trkpt><trkpt lat="42.311186" lon="-4.062445"><ele>856</ele></trkpt><trkpt lat="42.310857" lon="-4.063556"><ele>853</ele></trkpt><trkpt lat="42.310604" lon="-4.064691"><ele>848</ele></trkpt><trkpt lat="42.310687" lon="-4.065894"><ele>850</ele></trkpt><trkpt lat="42.310656" lon="-4.067104"><ele>847</ele></trkpt><trkpt lat="42.310633" lon="-4.068295"><ele>842</ele></trkpt><trkpt lat="42.310777" lon="-4.069477"><ele>836</ele></trkpt><trkpt lat="42.3107" lon="-4.070637"><ele>829</ele></trkpt><trkpt lat="42.310198" lon="-4.071634"><ele>829</ele></trkpt><trkpt lat="42.309877" lon="-4.072764"><ele>831</ele></trkpt><trkpt lat="42.309687" lon="-4.07395"><ele>829</ele></trkpt><trkpt lat="42.309577" lon="-4.075148"><ele>831</ele></trkpt><trkpt lat="42.309246" lon="-4.076277"><ele>827</ele></trkpt><trkpt lat="42.309045" lon="-4.077457"><ele>826</ele></trkpt><trkpt lat="42.308678" lon="-4.078564"><ele>828</ele></trkpt><trkpt lat="42.308424" lon="-4.079722"><ele>829</ele></trkpt><trkpt lat="42.308062" lon="-4.080833"><ele>824</ele></trkpt><trkpt lat="42.307638" lon="-4.0819"><ele>822</ele></trkpt><trkpt lat="42.307177" lon="-4.082941"><ele>822</ele></trkpt><trkpt lat="42.306715" lon="-4.08398"><ele>819</ele></trkpt><trkpt lat="42.306069" lon="-4.084816"><ele>821</ele></trkpt><trkpt lat="42.305476" lon="-4.085727"><ele>818</ele></trkpt><trkpt lat="42.304797" lon="-4.08652"><ele>820</ele></trkpt><trkpt lat="42.304193" lon="-4.087415"><ele>821</ele></trkpt><trkpt lat="42.303395" lon="-4.087505"><ele>815</ele></trkpt><trkpt lat="42.30283" lon="-4.088133"><ele>812</ele></trkpt><trkpt lat="42.302428" lon="-4.08922"><ele>811</ele></trkpt><trkpt lat="42.302004" lon="-4.090293"><ele>813</ele></trkpt><trkpt lat="42.301582" lon="-4.091325"><ele>818</ele></trkpt><trkpt lat="42.30077" lon="-4.091844"><ele>819</ele></trkpt><trkpt lat="42.299957" lon="-4.092363"><ele>823</ele></trkpt><trkpt lat="42.29915" lon="-4.0929"><ele>820</ele></trkpt><trkpt lat="42.298371" lon="-4.093499"><ele>808</ele></trkpt><trkpt lat="42.297591" lon="-4.094105"><ele>811</ele></trkpt><trkpt lat="42.296831" lon="-4.094745"><ele>817</ele></trkpt><trkpt lat="42.296057" lon="-4.095362"><ele>815</ele></trkpt><trkpt lat="42.295332" lon="-4.096039"><ele>812</ele></trkpt><trkpt lat="42.29465" lon="-4.096827"><ele>812</ele></trkpt><trkpt lat="42.293988" lon="-4.097645"><ele>816</ele></trkpt><trkpt lat="42.293344" lon="-4.098494"><ele>814</ele></trkpt><trkpt lat="42.292671" lon="-4.099099"><ele>812</ele></trkpt><trkpt lat="42.292264" lon="-4.100183"><ele>808</ele></trkpt><trkpt lat="42.29194" lon="-4.101273"><ele>806</ele></trkpt><trkpt lat="42.291632" lon="-4.102405"><ele>806</ele></trkpt><trkpt lat="42.291583" lon="-4.10361"><ele>805</ele></trkpt><trkpt lat="42.291631" lon="-4.104824"><ele>803</ele></trkpt><trkpt lat="42.291676" lon="-4.106039"><ele>798</ele></trkpt><trkpt lat="42.291725" lon="-4.107241"><ele>797</ele></trkpt><trkpt lat="42.291765" lon="-4.108455"><ele>798</ele></trkpt><trkpt lat="42.291813" lon="-4.109669"><ele>797</ele></trkpt><trkpt lat="42.291861" lon="-4.110883"><ele>795</ele></trkpt><trkpt lat="42.29191" lon="-4.112097"><ele>793</ele></trkpt><trkpt lat="42.291956" lon="-4.113311"><ele>794</ele></trkpt><trkpt lat="42.292" lon="-4.114525"><ele>793</ele></trkpt><trkpt lat="42.292043" lon="-4.11574"><ele>793</ele></trkpt><trkpt lat="42.292079" lon="-4.116955"><ele>793</ele></trkpt><trkpt lat="42.292118" lon="-4.118169"><ele>792</ele></trkpt><trkpt lat="42.292164" lon="-4.119383"><ele>791</ele></trkpt><trkpt lat="42.292216" lon="-4.120597"><ele>792</ele></trkpt><trkpt lat="42.292242" lon="-4.121812"><ele>789</ele></trkpt><trkpt lat="42.292318" lon="-4.123019"><ele>786</ele></trkpt><trkpt lat="42.292257" lon="-4.124182"><ele>784</ele></trkpt><trkpt lat="42.292077" lon="-4.125372"><ele>786</ele></trkpt><trkpt lat="42.292107" lon="-4.126576"><ele>789</ele></trkpt><trkpt lat="42.292433" lon="-4.127607"><ele>793</ele></trkpt><trkpt lat="42.292486" lon="-4.128739"><ele>792</ele></trkpt><trkpt lat="42.292312" lon="-4.129743"><ele>794</ele></trkpt><trkpt lat="42.292424" lon="-4.130947"><ele>797</ele></trkpt><trkpt lat="42.29214" lon="-4.131923"><ele>805</ele></trkpt><trkpt lat="42.291331" lon="-4.132441"><ele>809</ele></trkpt><trkpt lat="42.290476" lon="-4.132819"><ele>807</ele></trkpt><trkpt lat="42.289726" lon="-4.133485"><ele>803</ele></trkpt><trkpt lat="42.289092" lon="-4.134337"><ele>810</ele></trkpt><trkpt lat="42.288659" lon="-4.135398"><ele>811</ele></trkpt><trkpt lat="42.288362" lon="-4.136542"><ele>816</ele></trkpt><trkpt lat="42.288084" lon="-4.137697"><ele>814</ele></trkpt><trkpt lat="42.288077" lon="-4.138861"><ele>814</ele></trkpt><trkpt lat="42.288381" lon="-4.139982"><ele>814</ele></trkpt></trkseg></trk></gpx>