<?xml version="1.0" encoding="UTF-8"?>
<gpx version="1.1" creator="Mi Diario del Camino de Santiago" xmlns="http://www.topografix.com/GPX/1/1">
<metadata><name>Etapa 5: Puente la Reina - Estella</name><copyright author="OpenStreetMap contributors"><license>https://opendatacommons.org/licenses/odbl/1-0/</license></copyright></metadata>
<trk><name>Etapa 5: Puente la Reina - Estella</name><trkseg><trkpt lat="42.673039" lon="-1.810695"><ele>350</ele></trkpt><trkpt lat="42.672705" lon="-1.811827"><ele>350</ele></trkpt><trkpt lat="42.672417" lon="-1.812985"><ele>349</ele></trkpt><trkpt lat="42.672185" lon="-1.814167"><ele>351</ele></trkpt><trkpt lat="42.671979" lon="-1.815357"><ele>349</ele></trkpt><trkpt lat="42.671731" lon="-1.816533"><ele>351</ele></trkpt><trkpt lat="42.671528" lon="-1.817725"><ele>344</ele></trkpt><trkpt lat="42.671119" lon="-1.818802"><ele>337</ele></trkpt><trkpt lat="42.670514" lon="-1.819309"><ele>340</ele></trkpt><trkpt lat="42.669637" lon="-1.819164"><ele>343</ele></trkpt><trkpt lat="42.669065" lon="-1.820052"><ele>354</ele></trkpt><trkpt lat="42.668714" lon="-1.821179"><ele>351</ele></trkpt><trkpt lat="42.668331" lon="-1.822284"><ele>347</ele></trkpt><trkpt lat="42.668014" lon="-1.823404"><ele>346</ele></trkpt><trkpt lat="42.667685" lon="-1.82454"><ele>342</ele></trkpt><trkpt lat="42.667289" lon="-1.825638"><ele>340</ele></trkpt><trkpt lat="42.666812" lon="-1.826642"><ele>339</ele></trkpt><trkpt lat="42.666611" lon="-1.827797"><ele>340</ele></trkpt><trkpt lat="42.666312" lon="-1.828949"><ele>346</ele></trkpt><trkpt lat="42.665814" lon="-1.829956"><ele>344</ele></trkpt><trkpt lat="42.665549" lon="-1.831124"><ele>342</ele></trkpt><trkpt lat="42.665133" lon="-1.832205"><ele>333</ele></trkpt><trkpt lat="42.664684" lon="-1.833264"><ele>337</ele></trkpt><trkpt lat="42.664323" lon="-1.834359"><ele>342</ele></trkpt><trkpt lat="42.664157" lon="-1.835559"><ele>346</ele></trkpt><trkpt lat="42.664034" lon="-1.836769"><ele>345</ele></trkpt><trkpt lat="42.663841" lon="-1.837948"><ele>347</ele></trkpt><trkpt lat="42.663581" lon="-1.839107"><ele>348</ele></trkpt><trkpt lat="42.663321" lon="-1.84021"><ele>346</ele></trkpt><trkpt lat="42.662691" lon="-1.841081"><ele>343</ele></trkpt><trkpt lat="42.662053" lon="-1.841912"><ele>346</ele></trkpt><trkpt lat="42.661721" lon="-1.843038"><ele>347</ele></trkpt><trkpt lat="42.66146" lon="-1.844202"><ele>345</ele></trkpt><trkpt lat="42.661477" lon="-1.845327"><ele>343</ele></trkpt><trkpt lat="42.662149" lon="-1.846129"><ele>353</ele></trkpt><trkpt lat="42.662901" lon="-1.846739"><ele>365</ele></trkpt><trkpt lat="42.663748" lon="-1.847094"><ele>371</ele></trkpt><trkpt lat="42.664505" lon="-1.847725"><ele>375</ele></trkpt><trkpt lat="42.665242" lon="-1.84841"><ele>400</ele></trkpt><trkpt lat="42.665801" lon="-1.849275"><ele>417</ele></trkpt><trkpt lat="42.66598" lon="-1.850462"><ele>423</ele></trkpt><trkpt lat="42.666382" lon="-1.851547"><ele>435</ele></trkpt><trkpt lat="42.666785" lon="-1.852627"><ele>455</ele></trkpt><trkpt lat="42.667222" lon="-1.853678"><ele>471</ele></trkpt><trkpt lat="42.667492" lon="-1.854845"><ele>478</ele></trkpt><trkpt lat="42.667778" lon="-1.856002"><ele>471</ele></trkpt><trkpt lat="42.668001" lon="-1.857179"><ele>470</ele></trkpt><trkpt lat="42.668493" lon="-1.858186"><ele>472</ele></trkpt><trkpt lat="42.668956" lon="-1.859164"><ele>473</ele></trkpt><trkpt lat="42.669192" lon="-1.860248"><ele>464</ele></trkpt><trkpt lat="42.669166" lon="-1.861454"><ele>456</ele></trkpt><trkpt lat="42.668909" lon="-1.862537"><ele>452</ele></trkpt><trkpt lat="42.668948" lon="-1.863729"><ele>453</ele></trkpt><trkpt lat="42.668717" lon="-1.864711"><ele>451</ele></trkpt><trkpt lat="42.668828" lon="-1.865922"><ele>455</ele></trkpt><trkpt lat="42.668979" lon="-1.867127"><ele>458</ele></trkpt><trkpt lat="42.669261" lon="-1.868282"><ele>455</ele></trkpt><trkpt lat="42.669419" lon="-1.86947"><ele>451</ele></trkpt><trkpt lat="42.669511" lon="-1.870614"><ele>450</ele></trkpt><trkpt lat="42.669978" lon="-1.871641"><ele>453</ele></trkpt><trkpt lat="42.670224" lon="-1.872815"><ele>454</ele></trkpt><trkpt lat="42.670606" lon="-1.87388"><ele>453</ele></trkpt><trkpt lat="42.670875" lon="-1.875042"><ele>444</ele></trkpt><trkpt lat="42.671104" lon="-1.876216"><ele>444</ele></trkpt><trkpt lat="42.6711" lon="-1.877378"><ele>447</ele></trkpt><trkpt lat="42.67101" lon="-1.87855"><ele>443</ele></trkpt><trkpt lat="42.671253" lon="-1.879718"><ele>439</ele></trkpt><trkpt lat="42.671803" lon="-1.880677"><ele>440</ele></trkpt><trkpt lat="42.672435" lon="-1.881532"><ele>443</ele></trkpt><trkpt lat="42.673065" lon="-1.882405"><ele>447</ele></trkpt><trkpt lat="42.67377" lon="-1.883159"><ele>451</ele></trkpt><trkpt lat="42.674281" lon="-1.884138"><ele>455</ele></trkpt><trkpt lat="42.674722" lon="-1.885193"><ele>462</ele></trkpt><trkpt lat="42.675009" lon="-1.886336"><ele>467</ele></trkpt><trkpt lat="42.675262" lon="-1.88751"><ele>468</ele></trkpt><trkpt lat="42.675595" lon="-1.888629"><ele>467</ele></trkpt><trkpt lat="42.675839" lon="-1.889538"><ele>471</ele></trkpt><trkpt lat="42.676014" lon="-1.890551"><ele>484</ele></trkpt><trkpt lat="42.675437" lon="-1.891191"><ele>489</ele></trkpt><trkpt lat="42.67529" lon="-1.892054"><ele>487</ele></trkpt><trkpt lat="42.675381" lon="-1.893185"><ele>475</ele></trkpt><trkpt lat="42.676" lon="-1.89407"><ele>459</ele></trkpt><trkpt lat="42.676794" lon="-1.894642"><ele>449</ele></trkpt><trkpt lat="42.677564" lon="-1.895269"><ele>454</ele></trkpt><trkpt lat="42.677169" lon="-1.895996"><ele>454</ele></trkpt><trkpt lat="42.677688" lon="-1.896761"><ele>459</ele></trkpt><trkpt lat="42.678083" lon="-1.897476"><ele>460</ele></trkpt><trkpt lat="42.677787" lon="-1.898589"><ele>454</ele></trkpt><trkpt lat="42.677832" lon="-1.899797"><ele>454</ele></trkpt><trkpt lat="42.677921" lon="-1.901008"><ele>453</ele></trkpt><trkpt lat="42.678124" lon="-1.902198"><ele>448</ele></trkpt><trkpt lat="42.678222" lon="-1.903406"><ele>442</ele></trkpt><trkpt lat="42.678409" lon="-1.904584"><ele>437</ele></trkpt><trkpt lat="42.678959" lon="-1.905549"><ele>435</ele></trkpt><trkpt lat="42.679249" lon="-1.906638"><ele>427</ele></trkpt><trkpt lat="42.679204" lon="-1.907819"><ele>430</ele></trkpt><trkpt lat="42.679099" lon="-1.909025"><ele>439</ele></trkpt><trkpt lat="42.67926" lon="-1.910224"><ele>443</ele></trkpt><trkpt lat="42.679243" lon="-1.911435"><ele>444</ele></trkpt><trkpt lat="42.679218" lon="-1.91265"><ele>438</ele></trkpt><trkpt lat="42.6796" lon="-1.913719"><ele>436</ele></trkpt><trkpt lat="42.679668" lon="-1.914911"><ele>433</ele></trkpt><trkpt lat="42.679519" lon="-1.916117"><ele>430</ele></trkpt><trkpt lat="42.679074" lon="-1.917116"><ele>433</ele></trkpt><trkpt lat="42.679222" lon="-1.918315"><ele>431</ele></trkpt><trkpt lat="42.679228" lon="-1.919398"><ele>422</ele></trkpt><trkpt lat="42.679285" lon="-1.920459"><ele>410</ele></trkpt><trkpt lat="42.679295" lon="-1.921623"><ele>402</ele></trkpt><trkpt lat="42.679502" lon="-1.92281"><ele>399</ele></trkpt><trkpt lat="42.679738" lon="-1.923986"><ele>393</ele></trkpt><trkpt lat="42.680023" lon="-1.925145"><ele>389</ele></trkpt><trkpt lat="42.680293" lon="-1.926312"><ele>388</ele></trkpt><trkpt lat="42.679927" lon="-1.927328"><ele>386</ele></trkpt><trkpt lat="42.679874" lon="-1.928502"><ele>388</ele></trkpt><trkpt lat="42.679208" lon="-1.929045"><ele>385</ele></trkpt><trkpt lat="42.678949" lon="-1.93021"><ele>392</ele></trkpt><trkpt lat="42.679012" lon="-1.931266"><ele>390</ele></trkpt><trkpt lat="42.679673" lon="-1.932085"><ele>386</ele></trkpt><trkpt lat="42.680399" lon="-1.932802"><ele>387</ele></trkpt><trkpt lat="42.680672" lon="-1.933917"><ele>390</ele></trkpt><trkpt lat="42.680839" lon="-1.935115"><ele>391</ele></trkpt><trkpt lat="42.681305" lon="-1.936139"><ele>388</ele></trkpt><trkpt lat="42.680915" lon="-1.937209"><ele>389</ele></trkpt><trkpt lat="42.680076" lon="-1.937611"><ele>399</ele></trkpt><trkpt lat="42.679254" lon="-1.938045"><ele>405</ele></trkpt><trkpt lat="42.678437" lon="-1.938342"><ele>411</ele></trkpt><trkpt lat="42.677735" lon="-1.938618"><ele>412</ele></trkpt><trkpt lat="42.677036" lon="-1.939347"><ele>415</ele></trkpt><trkpt lat="42.676359" lon="-1.940148"><ele>423</ele></trkpt><trkpt lat="42.675587" lon="-1.940763"><ele>424</ele></trkpt><trkpt lat="42.675185" lon="-1.941832"><ele>431</ele></trkpt><trkpt lat="42.67458" lon="-1.94269"><ele>444</ele></trkpt><trkpt lat="42.673864" lon="-1.943415"><ele>452</ele></trkpt><trkpt lat="42.673262" lon="-1.944283"><ele>461</ele></trkpt><trkpt lat="42.67265" lon="-1.945179"><ele>459</ele></trkpt><trkpt lat="42.67205" lon="-1.946086"><ele>463</ele></trkpt><trkpt lat="42.671471" lon="-1.947012"><ele>457</ele></trkpt><trkpt lat="42.671035" lon="-1.948062"><ele>456</ele></trkpt><trkpt lat="42.670518" lon="-1.949044"><ele>465</ele></trkpt><trkpt lat="42.66996" lon="-1.950002"><ele>472</ele></trkpt><trkpt lat="42.669483" lon="-1.951002"><ele>474</ele></trkpt><trkpt lat="42.66905" lon="-1.952063"><ele>478</ele></trkpt><trkpt lat="42.668649" lon="-1.953158"><ele>480</ele></trkpt><trkpt lat="42.668277" lon="-1.954271"><ele>478</ele></trkpt><trkpt lat="42.667907" lon="-1.955367"><ele>477</ele></trkpt><trkpt lat="42.667662" lon="-1.956544"><ele>477</ele></trkpt><trkpt lat="42.667442" lon="-1.957716"><ele>480</ele></trkpt><trkpt lat="42.667116" lon="-1.958848"><ele>482</ele></trkpt><trkpt lat="42.666841" lon="-1.960011"><ele>488</ele></trkpt><trkpt lat="42.66643" lon="-1.961004"><ele>490</ele></trkpt><trkpt lat="42.665671" lon="-1.961106"><ele>490</ele></trkpt><trkpt lat="42.665146" lon="-1.962093"><ele>488</ele></trkpt><trkpt lat="42.664716" lon="-1.963132"><ele>485</ele></trkpt><trkpt lat="42.664561" lon="-1.964316"><ele>477</ele></trkpt><trkpt lat="42.664682" lon="-1.965519"><ele>475</ele></trkpt><trkpt lat="42.664596" lon="-1.966736"><ele>472</ele></trkpt><trkpt lat="42.664463" lon="-1.967944"><ele>469</ele></trkpt><trkpt lat="42.6644" lon="-1.969161"><ele>462</ele></trkpt><trkpt lat="42.664015" lon="-1.970257"><ele>459</ele></trkpt><trkpt lat="42.663921" lon="-1.971459"><ele>457</ele></trkpt><trkpt lat="42.663871" lon="-1.97268"><ele>457</ele></trkpt><trkpt lat="42.663824" lon="-1.973901"><ele>452</ele></trkpt><trkpt lat="42.663783" lon="-1.975123"><ele>449</ele></trkpt><trkpt lat="42.663203" lon="-1.975669"><ele>446</ele></trkpt><trkpt lat="42.66307" lon="-1.976824"><ele>442</ele></trkpt><trkpt lat="42.663344" lon="-1.977988"><ele>442</ele></trkpt><trkpt lat="42.663634" lon="-1.979145"><ele>440</ele></trkpt><trkpt lat="42.663732" lon="-1.98035"><ele>439</ele></trkpt><trkpt lat="42.663504" lon="-1.981513"><ele>436</ele></trkpt><trkpt lat="42.663519" lon="-1.982736"><ele>436</ele></trkpt><trkpt lat="42.663581" lon="-1.983953"><ele>433</ele></trkpt><trkpt lat="42.663487" lon="-1.98514"><ele>431</ele></trkpt><trkpt lat="42.663551" lon="-1.986322"><ele>429</ele></trkpt><trkpt lat="42.66314" lon="-1.987227"><ele>428</ele></trkpt><trkpt lat="42.662625" lon="-1.988224"><ele>427</ele></trkpt><trkpt lat="42.662085" lon="-1.989189"><ele>427</ele></trkpt><trkpt lat="42.661346" lon="-1.989846"><ele>426</ele></trkpt><trkpt lat="42.661143" lon="-1.990679"><ele>425</ele></trkpt><trkpt lat="42.660304" lon="-1.991111"><ele>423</ele></trkpt><trkpt lat="42.659511" lon="-1.991592"><ele>421</ele></trkpt><trkpt lat="42.658928" lon="-1.992281"><ele>427</ele></trkpt><trkpt lat="42.658482" lon="-1.993299"><ele>433</ele></trkpt><trkpt lat="42.658338" lon="-1.994373"><ele>440</ele></trkpt><trkpt lat="42.658983" lon="-1.995175"><ele>441</ele></trkpt><trkpt lat="42.659611" lon="-1.996021"><ele>440</ele></trkpt><trkpt lat="42.659974" lon="-1.997137"><ele>441</ele></trkpt><trkpt lat="42.660286" lon="-1.998258"><ele>440</ele></trkpt><trkpt lat="42.660646" lon="-1.999376"><ele>441</ele></trkpt><trkpt lat="42.660777" lon="-2.000585"><ele>444</ele></trkpt><trkpt lat="42.660966" lon="-2.001777"><ele>446</ele></trkpt><trkpt lat="42.661389" lon="-2.002822"><ele>449</ele></trkpt><trkpt lat="42.661263" lon="-2.004018"><ele>450</ele></trkpt><trkpt lat="42.661221" lon="-2.005214"><ele>446</ele></trkpt><trkpt lat="42.661429" lon="-2.006344"><ele>435</ele></trkpt><trkpt lat="42.66129" lon="-2.007254"><ele>419</ele></trkpt><trkpt lat="42.660623" lon="-2.007882"><ele>415</ele></trkpt><trkpt lat="42.659874" lon="-2.008352"><ele>418</ele></trkpt><trkpt lat="42.660545" lon="-2.009084"><ele>410</ele></trkpt><trkpt lat="42.660789" lon="-2.010162"><ele>413</ele></trkpt><trkpt lat="42.661269" lon="-2.01119"><ele>422</ele></trkpt><trkpt lat="42.662039" lon="-2.011761"><ele>427</ele></trkpt><trkpt lat="42.662739" lon="-2.012516"><ele>430</ele></trkpt><trkpt lat="42.663349" lon="-2.013408"><ele>428</ele></trkpt><trkpt lat="42.663392" lon="-2.014616"><ele>424</ele></trkpt><trkpt lat="42.663148" lon="-2.015777"><ele>424</ele></trkpt><trkpt lat="42.662974" lon="-2.016958"><ele>424</ele></trkpt><trkpt lat="42.662606" lon="-2.018059"><ele>424</ele></trkpt><trkpt lat="42.662698" lon="-2.019226"><ele>426</ele></trkpt><trkpt lat="42.663114" lon="-2.020301"><ele>426</ele></trkpt><trkpt lat="42.663578" lon="-2.021256"><ele>427</ele></trkpt><trkpt lat="42.664409" lon="-2.021719"><ele>425</ele></trkpt><trkpt lat="42.665265" lon="-2.022027"><ele>426</ele></trkpt><trkpt lat="42.666143" lon="-2.022143"><ele>423</ele></trkpt><trkpt lat="42.666953" lon="-2.02266"><ele>421</ele></trkpt><trkpt lat="42.66781" lon="-2.02303"><ele>421</ele></trkpt><trkpt lat="42.668634" lon="-2.023487"><ele>427</ele></trkpt><trkpt lat="42.669464" lon="-2.023898"><ele>425</ele></trkpt><trkpt lat="42.669806" lon="-2.024935"><ele>424</ele></trkpt><trkpt lat="42.669835" lon="-2.026157"><ele>424</ele></trkpt><trkpt lat="42.669872" lon="-2.027374"><ele>423</ele></trkpt><trkpt lat="42.669661" lon="-2.02856"><ele>428</ele></trkpt><trkpt lat="42.669205" lon="-2.029581"><ele>428</ele></trkpt></trkseg></trk></gpx>