<?xml version="1.0" encoding="UTF-8"?>
<gpx version="1.1" creator="Mi Diario del Camino de Santiago" xmlns="http://www.topografix.com/GPX/1/1">
<metadata><name>Etapa 22A: San Martín del Camino - Astorga</name><copyright author="OpenStreetMap contributors"><license>https://opendatacommons.org/licenses/odbl/1-0/</license></copyright></metadata>
<trk><name>Etapa 22A: San Martín del Camino - Astorga</name><trkseg><trkpt lat="42.494787" lon="-5.809015"><ele>868</ele></trkpt><trkpt lat="42.494214" lon="-5.809955"><ele>867</ele></trkpt><trkpt lat="42.493702" lon="-5.810955"><ele>862</ele></trkpt><trkpt lat="42.493211" lon="-5.811977"><ele>856</ele></trkpt><trkpt lat="42.492721" lon="-5.813"><ele>851</ele></trkpt><trkpt lat="42.492749" lon="-5.81391"><ele>853</ele></trkpt><trkpt lat="42.492253" lon="-5.814927"><ele>851</ele></trkpt><trkpt lat="42.491683" lon="-5.815864"><ele>849</ele></trkpt><trkpt lat="42.491052" lon="-5.816675"><ele>847</ele></trkpt><trkpt lat="42.490529" lon="-5.817667"><ele>845</ele></trkpt><trkpt lat="42.490002" lon="-5.818655"><ele>846</ele></trkpt><trkpt lat="42.489475" lon="-5.819643"><ele>847</ele></trkpt><trkpt lat="42.488948" lon="-5.820631"><ele>847</ele></trkpt><trkpt lat="42.48842" lon="-5.821619"><ele>845</ele></trkpt><trkpt lat="42.487893" lon="-5.822607"><ele>846</ele></trkpt><trkpt lat="42.487357" lon="-5.823586"><ele>846</ele></trkpt><trkpt lat="42.486836" lon="-5.82458"><ele>846</ele></trkpt><trkpt lat="42.486333" lon="-5.825581"><ele>845</ele></trkpt><trkpt lat="42.485952" lon="-5.826632"><ele>845</ele></trkpt><trkpt lat="42.485601" lon="-5.827753"><ele>845</ele></trkpt><trkpt lat="42.485313" lon="-5.828905"><ele>845</ele></trkpt><trkpt lat="42.484657" lon="-5.82906"><ele>844</ele></trkpt><trkpt lat="42.484071" lon="-5.829754"><ele>843</ele></trkpt><trkpt lat="42.483541" lon="-5.83074"><ele>844</ele></trkpt><trkpt lat="42.483014" lon="-5.831728"><ele>841</ele></trkpt><trkpt lat="42.482502" lon="-5.832729"><ele>839</ele></trkpt><trkpt lat="42.481963" lon="-5.833707"><ele>839</ele></trkpt><trkpt lat="42.48143" lon="-5.834688"><ele>840</ele></trkpt><trkpt lat="42.480915" lon="-5.835686"><ele>840</ele></trkpt><trkpt lat="42.480397" lon="-5.836647"><ele>841</ele></trkpt><trkpt lat="42.479868" lon="-5.837633"><ele>842</ele></trkpt><trkpt lat="42.479338" lon="-5.838618"><ele>840</ele></trkpt><trkpt lat="42.478808" lon="-5.839604"><ele>840</ele></trkpt><trkpt lat="42.478279" lon="-5.840589"><ele>839</ele></trkpt><trkpt lat="42.477749" lon="-5.841575"><ele>839</ele></trkpt><trkpt lat="42.47722" lon="-5.842561"><ele>839</ele></trkpt><trkpt lat="42.476708" lon="-5.843563"><ele>835</ele></trkpt><trkpt lat="42.476182" lon="-5.844552"><ele>833</ele></trkpt><trkpt lat="42.475648" lon="-5.845533"><ele>832</ele></trkpt><trkpt lat="42.475119" lon="-5.846518"><ele>832</ele></trkpt><trkpt lat="42.474589" lon="-5.847504"><ele>833</ele></trkpt><trkpt lat="42.474059" lon="-5.848489"><ele>831</ele></trkpt><trkpt lat="42.473521" lon="-5.849462"><ele>830</ele></trkpt><trkpt lat="42.472993" lon="-5.85045"><ele>829</ele></trkpt><trkpt lat="42.472465" lon="-5.851437"><ele>830</ele></trkpt><trkpt lat="42.471937" lon="-5.852424"><ele>829</ele></trkpt><trkpt lat="42.471409" lon="-5.853411"><ele>828</ele></trkpt><trkpt lat="42.47088" lon="-5.854397"><ele>829</ele></trkpt><trkpt lat="42.470351" lon="-5.855383"><ele>829</ele></trkpt><trkpt lat="42.469822" lon="-5.856369"><ele>828</ele></trkpt><trkpt lat="42.469292" lon="-5.857353"><ele>828</ele></trkpt><trkpt lat="42.468761" lon="-5.858338"><ele>828</ele></trkpt><trkpt lat="42.468234" lon="-5.859326"><ele>828</ele></trkpt><trkpt lat="42.467707" lon="-5.860314"><ele>827</ele></trkpt><trkpt lat="42.467181" lon="-5.861302"><ele>830</ele></trkpt><trkpt lat="42.466649" lon="-5.862285"><ele>829</ele></trkpt><trkpt lat="42.466109" lon="-5.86326"><ele>828</ele></trkpt><trkpt lat="42.465587" lon="-5.864253"><ele>829</ele></trkpt><trkpt lat="42.46506" lon="-5.865241"><ele>829</ele></trkpt><trkpt lat="42.464566" lon="-5.866251"><ele>827</ele></trkpt><trkpt lat="42.464706" lon="-5.867447"><ele>828</ele></trkpt><trkpt lat="42.464555" lon="-5.868648"><ele>827</ele></trkpt><trkpt lat="42.464401" lon="-5.86985"><ele>828</ele></trkpt><trkpt lat="42.464254" lon="-5.871052"><ele>827</ele></trkpt><trkpt lat="42.464107" lon="-5.872255"><ele>825</ele></trkpt><trkpt lat="42.463944" lon="-5.873441"><ele>824</ele></trkpt><trkpt lat="42.463917" lon="-5.874658"><ele>824</ele></trkpt><trkpt lat="42.46392" lon="-5.875876"><ele>825</ele></trkpt><trkpt lat="42.463925" lon="-5.877095"><ele>821</ele></trkpt><trkpt lat="42.463992" lon="-5.87831"><ele>817</ele></trkpt><trkpt lat="42.464014" lon="-5.879521"><ele>820</ele></trkpt><trkpt lat="42.463832" lon="-5.880715"><ele>821</ele></trkpt><trkpt lat="42.463623" lon="-5.8819"><ele>821</ele></trkpt><trkpt lat="42.463541" lon="-5.88311"><ele>821</ele></trkpt><trkpt lat="42.463474" lon="-5.884325"><ele>821</ele></trkpt><trkpt lat="42.463342" lon="-5.885527"><ele>823</ele></trkpt><trkpt lat="42.46329" lon="-5.886742"><ele>821</ele></trkpt><trkpt lat="42.463043" lon="-5.887911"><ele>819</ele></trkpt><trkpt lat="42.463738" lon="-5.888427"><ele>818</ele></trkpt><trkpt lat="42.464353" lon="-5.889292"><ele>818</ele></trkpt><trkpt lat="42.464911" lon="-5.890249"><ele>818</ele></trkpt><trkpt lat="42.465471" lon="-5.891203"><ele>818</ele></trkpt><trkpt lat="42.466028" lon="-5.89216"><ele>818</ele></trkpt><trkpt lat="42.466564" lon="-5.893139"><ele>821</ele></trkpt><trkpt lat="42.467068" lon="-5.894148"><ele>820</ele></trkpt><trkpt lat="42.467181" lon="-5.895308"><ele>820</ele></trkpt><trkpt lat="42.467191" lon="-5.896511"><ele>820</ele></trkpt><trkpt lat="42.467337" lon="-5.897714"><ele>820</ele></trkpt><trkpt lat="42.467479" lon="-5.898918"><ele>820</ele></trkpt><trkpt lat="42.467618" lon="-5.900122"><ele>821</ele></trkpt><trkpt lat="42.467755" lon="-5.901327"><ele>821</ele></trkpt><trkpt lat="42.467898" lon="-5.902531"><ele>820</ele></trkpt><trkpt lat="42.468041" lon="-5.903735"><ele>823</ele></trkpt><trkpt lat="42.468143" lon="-5.904946"><ele>825</ele></trkpt><trkpt lat="42.468244" lon="-5.906157"><ele>823</ele></trkpt><trkpt lat="42.468354" lon="-5.907367"><ele>823</ele></trkpt><trkpt lat="42.468449" lon="-5.908573"><ele>824</ele></trkpt><trkpt lat="42.46877" lon="-5.909711"><ele>827</ele></trkpt><trkpt lat="42.469391" lon="-5.910458"><ele>828</ele></trkpt><trkpt lat="42.470014" lon="-5.9112"><ele>828</ele></trkpt><trkpt lat="42.470213" lon="-5.912121"><ele>828</ele></trkpt><trkpt lat="42.470691" lon="-5.913122"><ele>829</ele></trkpt><trkpt lat="42.47055" lon="-5.914144"><ele>830</ele></trkpt><trkpt lat="42.470708" lon="-5.915225"><ele>834</ele></trkpt><trkpt lat="42.470062" lon="-5.91601"><ele>836</ele></trkpt><trkpt lat="42.469324" lon="-5.916667"><ele>837</ele></trkpt><trkpt lat="42.468586" lon="-5.917364"><ele>840</ele></trkpt><trkpt lat="42.46783" lon="-5.917933"><ele>841</ele></trkpt><trkpt lat="42.466951" lon="-5.918191"><ele>840</ele></trkpt><trkpt lat="42.466073" lon="-5.918456"><ele>839</ele></trkpt><trkpt lat="42.465196" lon="-5.918727"><ele>837</ele></trkpt><trkpt lat="42.464316" lon="-5.91898"><ele>838</ele></trkpt><trkpt lat="42.46362" lon="-5.919487"><ele>839</ele></trkpt><trkpt lat="42.463783" lon="-5.920675"><ele>849</ele></trkpt><trkpt lat="42.464132" lon="-5.921799"><ele>861</ele></trkpt><trkpt lat="42.464482" lon="-5.922922"><ele>867</ele></trkpt><trkpt lat="42.464436" lon="-5.924116"><ele>871</ele></trkpt><trkpt lat="42.464062" lon="-5.925221"><ele>865</ele></trkpt><trkpt lat="42.463631" lon="-5.92629"><ele>857</ele></trkpt><trkpt lat="42.463131" lon="-5.927303"><ele>852</ele></trkpt><trkpt lat="42.462614" lon="-5.9283"><ele>848</ele></trkpt><trkpt lat="42.461833" lon="-5.928753"><ele>846</ele></trkpt><trkpt lat="42.46095" lon="-5.928983"><ele>845</ele></trkpt><trkpt lat="42.460222" lon="-5.929617"><ele>847</ele></trkpt><trkpt lat="42.459439" lon="-5.930185"><ele>848</ele></trkpt><trkpt lat="42.458584" lon="-5.930287"><ele>848</ele></trkpt><trkpt lat="42.457692" lon="-5.930188"><ele>849</ele></trkpt><trkpt lat="42.456857" lon="-5.929775"><ele>848</ele></trkpt><trkpt lat="42.455994" lon="-5.929451"><ele>847</ele></trkpt><trkpt lat="42.455111" lon="-5.929296"><ele>845</ele></trkpt><trkpt lat="42.454218" lon="-5.929425"><ele>843</ele></trkpt><trkpt lat="42.453349" lon="-5.929461"><ele>842</ele></trkpt><trkpt lat="42.452493" lon="-5.929117"><ele>841</ele></trkpt><trkpt lat="42.451638" lon="-5.928742"><ele>839</ele></trkpt><trkpt lat="42.45079" lon="-5.928337"><ele>837</ele></trkpt><trkpt lat="42.45052" lon="-5.929378"><ele>839</ele></trkpt><trkpt lat="42.45025" lon="-5.93054"><ele>844</ele></trkpt><trkpt lat="42.449975" lon="-5.931686"><ele>850</ele></trkpt><trkpt lat="42.449868" lon="-5.932828"><ele>855</ele></trkpt><trkpt lat="42.449614" lon="-5.933996"><ele>858</ele></trkpt><trkpt lat="42.449346" lon="-5.93516"><ele>861</ele></trkpt><trkpt lat="42.449075" lon="-5.936322"><ele>862</ele></trkpt><trkpt lat="42.448782" lon="-5.937474"><ele>859</ele></trkpt><trkpt lat="42.448431" lon="-5.938596"><ele>855</ele></trkpt><trkpt lat="42.44811" lon="-5.939735"><ele>852</ele></trkpt><trkpt lat="42.447794" lon="-5.940875"><ele>849</ele></trkpt><trkpt lat="42.44746" lon="-5.941937"><ele>848</ele></trkpt><trkpt lat="42.44712" lon="-5.942897"><ele>848</ele></trkpt><trkpt lat="42.446741" lon="-5.943898"><ele>847</ele></trkpt><trkpt lat="42.446448" lon="-5.945049"><ele>849</ele></trkpt><trkpt lat="42.446325" lon="-5.946244"><ele>853</ele></trkpt><trkpt lat="42.446408" lon="-5.947458"><ele>858</ele></trkpt><trkpt lat="42.446483" lon="-5.948672"><ele>863</ele></trkpt><trkpt lat="42.446563" lon="-5.949886"><ele>867</ele></trkpt><trkpt lat="42.446647" lon="-5.9511"><ele>870</ele></trkpt><trkpt lat="42.446747" lon="-5.952311"><ele>874</ele></trkpt><trkpt lat="42.446823" lon="-5.953525"><ele>878</ele></trkpt><trkpt lat="42.446891" lon="-5.95474"><ele>881</ele></trkpt><trkpt lat="42.446891" lon="-5.955959"><ele>883</ele></trkpt><trkpt lat="42.447025" lon="-5.957161"><ele>878</ele></trkpt><trkpt lat="42.447088" lon="-5.958377"><ele>871</ele></trkpt><trkpt lat="42.447146" lon="-5.959593"><ele>866</ele></trkpt><trkpt lat="42.447208" lon="-5.960809"><ele>864</ele></trkpt><trkpt lat="42.447272" lon="-5.962025"><ele>863</ele></trkpt><trkpt lat="42.447335" lon="-5.96324"><ele>862</ele></trkpt><trkpt lat="42.447399" lon="-5.964456"><ele>861</ele></trkpt><trkpt lat="42.447464" lon="-5.965672"><ele>862</ele></trkpt><trkpt lat="42.447543" lon="-5.966886"><ele>866</ele></trkpt><trkpt lat="42.447606" lon="-5.968101"><ele>868</ele></trkpt><trkpt lat="42.447651" lon="-5.969319"><ele>873</ele></trkpt><trkpt lat="42.447701" lon="-5.970535"><ele>877</ele></trkpt><trkpt lat="42.447756" lon="-5.971752"><ele>881</ele></trkpt><trkpt lat="42.447813" lon="-5.972968"><ele>883</ele></trkpt><trkpt lat="42.447887" lon="-5.974183"><ele>885</ele></trkpt><trkpt lat="42.447944" lon="-5.975399"><ele>890</ele></trkpt><trkpt lat="42.448006" lon="-5.976615"><ele>896</ele></trkpt><trkpt lat="42.448071" lon="-5.97783"><ele>902</ele></trkpt><trkpt lat="42.448126" lon="-5.979047"><ele>905</ele></trkpt><trkpt lat="42.448174" lon="-5.980264"><ele>909</ele></trkpt><trkpt lat="42.448473" lon="-5.981374"><ele>911</ele></trkpt><trkpt lat="42.449026" lon="-5.982335"><ele>910</ele></trkpt><trkpt lat="42.449626" lon="-5.982953"><ele>911</ele></trkpt><trkpt lat="42.450231" lon="-5.983803"><ele>912</ele></trkpt><trkpt lat="42.450835" lon="-5.984705"><ele>911</ele></trkpt><trkpt lat="42.451461" lon="-5.985319"><ele>912</ele></trkpt><trkpt lat="42.451848" lon="-5.986372"><ele>913</ele></trkpt><trkpt lat="42.452393" lon="-5.987342"><ele>913</ele></trkpt><trkpt lat="42.452879" lon="-5.988358"><ele>914</ele></trkpt><trkpt lat="42.453337" lon="-5.989391"><ele>914</ele></trkpt><trkpt lat="42.453525" lon="-5.990576"><ele>913</ele></trkpt><trkpt lat="42.453408" lon="-5.991776"><ele>912</ele></trkpt><trkpt lat="42.453339" lon="-5.992974"><ele>913</ele></trkpt><trkpt lat="42.453346" lon="-5.994192"><ele>912</ele></trkpt><trkpt lat="42.453332" lon="-5.995409"><ele>915</ele></trkpt><trkpt lat="42.453461" lon="-5.996614"><ele>914</ele></trkpt><trkpt lat="42.453636" lon="-5.99781"><ele>914</ele></trkpt><trkpt lat="42.453775" lon="-5.999014"><ele>914</ele></trkpt><trkpt lat="42.453918" lon="-6.000217"><ele>911</ele></trkpt><trkpt lat="42.454201" lon="-6.001363"><ele>901</ele></trkpt><trkpt lat="42.454406" lon="-6.00254"><ele>886</ele></trkpt><trkpt lat="42.454526" lon="-6.003731"><ele>876</ele></trkpt><trkpt lat="42.454409" lon="-6.00494"><ele>869</ele></trkpt><trkpt lat="42.454312" lon="-6.006143"><ele>863</ele></trkpt><trkpt lat="42.454355" lon="-6.007358"><ele>860</ele></trkpt><trkpt lat="42.454312" lon="-6.008507"><ele>857</ele></trkpt><trkpt lat="42.454285" lon="-6.009725"><ele>856</ele></trkpt><trkpt lat="42.454269" lon="-6.010944"><ele>854</ele></trkpt><trkpt lat="42.454248" lon="-6.012162"><ele>855</ele></trkpt><trkpt lat="42.454205" lon="-6.01338"><ele>854</ele></trkpt><trkpt lat="42.454185" lon="-6.014598"><ele>851</ele></trkpt><trkpt lat="42.454306" lon="-6.015803"><ele>850</ele></trkpt><trkpt lat="42.45435" lon="-6.017019"><ele>847</ele></trkpt><trkpt lat="42.454394" lon="-6.018236"><ele>841</ele></trkpt><trkpt lat="42.454463" lon="-6.019451"><ele>838</ele></trkpt><trkpt lat="42.45453" lon="-6.020667"><ele>838</ele></trkpt><trkpt lat="42.454632" lon="-6.021824"><ele>838</ele></trkpt><trkpt lat="42.454431" lon="-6.022943"><ele>838</ele></trkpt><trkpt lat="42.453839" lon="-6.02381"><ele>839</ele></trkpt><trkpt lat="42.45388" lon="-6.025027"><ele>838</ele></trkpt><trkpt lat="42.454321" lon="-6.025773"><ele>840</ele></trkpt><trkpt lat="42.454377" lon="-6.026989"><ele>838</ele></trkpt><trkpt lat="42.454464" lon="-6.028203"><ele>837</ele></trkpt><trkpt lat="42.454529" lon="-6.029418"><ele>837</ele></trkpt><trkpt lat="42.454589" lon="-6.030634"><ele>836</ele></trkpt><trkpt lat="42.454653" lon="-6.03185"><ele>839</ele></trkpt><trkpt lat="42.454701" lon="-6.033067"><ele>840</ele></trkpt><trkpt lat="42.454811" lon="-6.034276"><ele>843</ele></trkpt><trkpt lat="42.454952" lon="-6.03548"><ele>840</ele></trkpt><trkpt lat="42.455098" lon="-6.036682"><ele>840</ele></trkpt><trkpt lat="42.45528" lon="-6.037876"><ele>839</ele></trkpt><trkpt lat="42.455447" lon="-6.039074"><ele>840</ele></trkpt><trkpt lat="42.455608" lon="-6.040273"><ele>841</ele></trkpt><trkpt lat="42.455771" lon="-6.041472"><ele>841</ele></trkpt><trkpt lat="42.455915" lon="-6.042672"><ele>840</ele></trkpt><trkpt lat="42.455888" lon="-6.043829"><ele>840</ele></trkpt><trkpt lat="42.455207" lon="-6.044422"><ele>840</ele></trkpt><trkpt lat="42.454528" lon="-6.044552"><ele>840</ele></trkpt><trkpt lat="42.454633" lon="-6.044611"><ele>840</ele></trkpt><trkpt lat="42.454481" lon="-6.044748"><ele>840</ele></trkpt><trkpt lat="42.454695" lon="-6.045411"><ele>841</ele></trkpt><trkpt lat="42.454749" lon="-6.046628"><ele>842</ele></trkpt><trkpt lat="42.454742" lon="-6.047782"><ele>841</ele></trkpt><trkpt lat="42.454274" lon="-6.048331"><ele>841</ele></trkpt><trkpt lat="42.453756" lon="-6.049217"><ele>844</ele></trkpt><trkpt lat="42.453416" lon="-6.050275"><ele>855</ele></trkpt><trkpt lat="42.452921" lon="-6.050391"><ele>857</ele></trkpt><trkpt lat="42.45307" lon="-6.051411"><ele>865</ele></trkpt><trkpt lat="42.453805" lon="-6.052076"><ele>868</ele></trkpt><trkpt lat="42.45441" lon="-6.052873"><ele>872</ele></trkpt><trkpt lat="42.454876" lon="-6.053506"><ele>873</ele></trkpt><trkpt lat="42.455686" lon="-6.054036"><ele>873</ele></trkpt><trkpt lat="42.456307" lon="-6.054814"><ele>871</ele></trkpt><trkpt lat="42.456725" lon="-6.055777"><ele>871</ele></trkpt><trkpt lat="42.457332" lon="-6.055543"><ele>869</ele></trkpt><trkpt lat="42.457503" lon="-6.056704"><ele>872</ele></trkpt></trkseg></trk></gpx>