<?xml version="1.0" encoding="UTF-8"?>
<gpx version="1.1" creator="Mi Diario del Camino de Santiago" xmlns="http://www.topografix.com/GPX/1/1">
<metadata><name>Etapa 2: Roncesvalles - Zubiri</name><copyright author="OpenStreetMap contributors"><license>https://opendatacommons.org/licenses/odbl/1-0/</license></copyright></metadata>
<trk><name>Etapa 2: Roncesvalles - Zubiri</name><trkseg><trkpt lat="43.008661" lon="-1.319749"><ele>950</ele></trkpt><trkpt lat="43.007856" lon="-1.319603"><ele>942</ele></trkpt><trkpt lat="43.006964" lon="-1.319447"><ele>942</ele></trkpt><trkpt lat="43.006068" lon="-1.319355"><ele>942</ele></trkpt><trkpt lat="43.005191" lon="-1.319544"><ele>939</ele></trkpt><trkpt lat="43.004381" lon="-1.320075"><ele>939</ele></trkpt><trkpt lat="43.003573" lon="-1.320613"><ele>940</ele></trkpt><trkpt lat="43.002827" lon="-1.321289"><ele>938</ele></trkpt><trkpt lat="43.002191" lon="-1.322133"><ele>933</ele></trkpt><trkpt lat="43.001814" lon="-1.323246"><ele>931</ele></trkpt><trkpt lat="43.001516" lon="-1.324403"><ele>930</ele></trkpt><trkpt lat="43.000962" lon="-1.325359"><ele>928</ele></trkpt><trkpt lat="43.000423" lon="-1.326338"><ele>924</ele></trkpt><trkpt lat="42.999943" lon="-1.327367"><ele>922</ele></trkpt><trkpt lat="42.999071" lon="-1.327631"><ele>922</ele></trkpt><trkpt lat="42.998213" lon="-1.327998"><ele>923</ele></trkpt><trkpt lat="42.997481" lon="-1.328682"><ele>922</ele></trkpt><trkpt lat="42.996883" lon="-1.329594"><ele>916</ele></trkpt><trkpt lat="42.996305" lon="-1.330363"><ele>908</ele></trkpt><trkpt lat="42.995422" lon="-1.330132"><ele>900</ele></trkpt><trkpt lat="42.994541" lon="-1.329887"><ele>906</ele></trkpt><trkpt lat="42.993796" lon="-1.329689"><ele>908</ele></trkpt><trkpt lat="42.993068" lon="-1.330412"><ele>901</ele></trkpt><trkpt lat="42.99236" lon="-1.331165"><ele>899</ele></trkpt><trkpt lat="42.991885" lon="-1.332208"><ele>897</ele></trkpt><trkpt lat="42.991429" lon="-1.333267"><ele>895</ele></trkpt><trkpt lat="42.990964" lon="-1.334319"><ele>896</ele></trkpt><trkpt lat="42.990309" lon="-1.335115"><ele>896</ele></trkpt><trkpt lat="42.989528" lon="-1.335726"><ele>894</ele></trkpt><trkpt lat="42.988727" lon="-1.336283"><ele>894</ele></trkpt><trkpt lat="42.988574" lon="-1.337157"><ele>886</ele></trkpt><trkpt lat="42.988643" lon="-1.338299"><ele>879</ele></trkpt><trkpt lat="42.988888" lon="-1.339469"><ele>881</ele></trkpt><trkpt lat="42.989261" lon="-1.340587"><ele>882</ele></trkpt><trkpt lat="42.989458" lon="-1.341687"><ele>881</ele></trkpt><trkpt lat="42.989682" lon="-1.342809"><ele>883</ele></trkpt><trkpt lat="42.989641" lon="-1.344026"><ele>883</ele></trkpt><trkpt lat="42.989559" lon="-1.345196"><ele>882</ele></trkpt><trkpt lat="42.989302" lon="-1.346273"><ele>881</ele></trkpt><trkpt lat="42.98933" lon="-1.347502"><ele>881</ele></trkpt><trkpt lat="42.989433" lon="-1.348716"><ele>882</ele></trkpt><trkpt lat="42.98968" lon="-1.349898"><ele>881</ele></trkpt><trkpt lat="42.989931" lon="-1.351079"><ele>882</ele></trkpt><trkpt lat="42.989904" lon="-1.352287"><ele>884</ele></trkpt><trkpt lat="42.98976" lon="-1.353501"><ele>884</ele></trkpt><trkpt lat="42.989639" lon="-1.354719"><ele>884</ele></trkpt><trkpt lat="42.989277" lon="-1.355736"><ele>884</ele></trkpt><trkpt lat="42.98937" lon="-1.356937"><ele>888</ele></trkpt><trkpt lat="42.989568" lon="-1.358131"><ele>892</ele></trkpt><trkpt lat="42.989569" lon="-1.359355"><ele>893</ele></trkpt><trkpt lat="42.989125" lon="-1.360363"><ele>893</ele></trkpt><trkpt lat="42.988516" lon="-1.36086"><ele>898</ele></trkpt><trkpt lat="42.987709" lon="-1.361355"><ele>913</ele></trkpt><trkpt lat="42.986882" lon="-1.361841"><ele>931</ele></trkpt><trkpt lat="42.986324" lon="-1.362653"><ele>932</ele></trkpt><trkpt lat="42.985641" lon="-1.363317"><ele>930</ele></trkpt><trkpt lat="42.984839" lon="-1.363871"><ele>916</ele></trkpt><trkpt lat="42.984089" lon="-1.364541"><ele>904</ele></trkpt><trkpt lat="42.983398" lon="-1.365328"><ele>896</ele></trkpt><trkpt lat="42.982698" lon="-1.3661"><ele>892</ele></trkpt><trkpt lat="42.981998" lon="-1.366871"><ele>887</ele></trkpt><trkpt lat="42.981192" lon="-1.367391"><ele>877</ele></trkpt><trkpt lat="42.980628" lon="-1.368338"><ele>873</ele></trkpt><trkpt lat="42.980012" lon="-1.369137"><ele>871</ele></trkpt><trkpt lat="42.979193" lon="-1.369575"><ele>871</ele></trkpt><trkpt lat="42.979404" lon="-1.370672"><ele>871</ele></trkpt><trkpt lat="42.979723" lon="-1.371821"><ele>874</ele></trkpt><trkpt lat="42.979629" lon="-1.372758"><ele>874</ele></trkpt><trkpt lat="42.978901" lon="-1.373477"><ele>872</ele></trkpt><trkpt lat="42.97821" lon="-1.374256"><ele>878</ele></trkpt><trkpt lat="42.977774" lon="-1.375324"><ele>892</ele></trkpt><trkpt lat="42.977334" lon="-1.376394"><ele>903</ele></trkpt><trkpt lat="42.976871" lon="-1.377448"><ele>910</ele></trkpt><trkpt lat="42.976416" lon="-1.378509"><ele>915</ele></trkpt><trkpt lat="42.975955" lon="-1.379512"><ele>922</ele></trkpt><trkpt lat="42.975683" lon="-1.380684"><ele>936</ele></trkpt><trkpt lat="42.975712" lon="-1.381706"><ele>944</ele></trkpt><trkpt lat="42.976544" lon="-1.382053"><ele>944</ele></trkpt><trkpt lat="42.977282" lon="-1.382745"><ele>946</ele></trkpt><trkpt lat="42.977966" lon="-1.383537"><ele>943</ele></trkpt><trkpt lat="42.978693" lon="-1.384249"><ele>936</ele></trkpt><trkpt lat="42.979293" lon="-1.385164"><ele>930</ele></trkpt><trkpt lat="42.979766" lon="-1.386179"><ele>930</ele></trkpt><trkpt lat="42.980235" lon="-1.387175"><ele>930</ele></trkpt><trkpt lat="42.979975" lon="-1.388241"><ele>926</ele></trkpt><trkpt lat="42.979472" lon="-1.38925"><ele>912</ele></trkpt><trkpt lat="42.979079" lon="-1.390352"><ele>903</ele></trkpt><trkpt lat="42.978607" lon="-1.391391"><ele>889</ele></trkpt><trkpt lat="42.978191" lon="-1.392476"><ele>876</ele></trkpt><trkpt lat="42.977846" lon="-1.393602"><ele>867</ele></trkpt><trkpt lat="42.977773" lon="-1.394821"><ele>865</ele></trkpt><trkpt lat="42.977656" lon="-1.396032"><ele>857</ele></trkpt><trkpt lat="42.977256" lon="-1.397122"><ele>841</ele></trkpt><trkpt lat="42.977519" lon="-1.398197"><ele>833</ele></trkpt><trkpt lat="42.976925" lon="-1.398402"><ele>823</ele></trkpt><trkpt lat="42.976233" lon="-1.398939"><ele>821</ele></trkpt><trkpt lat="42.975594" lon="-1.399796"><ele>831</ele></trkpt><trkpt lat="42.974953" lon="-1.40064"><ele>832</ele></trkpt><trkpt lat="42.974234" lon="-1.401375"><ele>829</ele></trkpt><trkpt lat="42.973744" lon="-1.402395"><ele>822</ele></trkpt><trkpt lat="42.973129" lon="-1.403284"><ele>808</ele></trkpt><trkpt lat="42.972476" lon="-1.404073"><ele>794</ele></trkpt><trkpt lat="42.971828" lon="-1.404557"><ele>783</ele></trkpt><trkpt lat="42.971235" lon="-1.40525"><ele>770</ele></trkpt><trkpt lat="42.970864" lon="-1.406176"><ele>756</ele></trkpt><trkpt lat="42.971165" lon="-1.407246"><ele>759</ele></trkpt><trkpt lat="42.971158" lon="-1.408396"><ele>770</ele></trkpt><trkpt lat="42.970894" lon="-1.409567"><ele>776</ele></trkpt><trkpt lat="42.97049" lon="-1.410654"><ele>777</ele></trkpt><trkpt lat="42.970218" lon="-1.411811"><ele>781</ele></trkpt><trkpt lat="42.970131" lon="-1.41302"><ele>784</ele></trkpt><trkpt lat="42.969863" lon="-1.414159"><ele>784</ele></trkpt><trkpt lat="42.969497" lon="-1.415236"><ele>780</ele></trkpt><trkpt lat="42.969169" lon="-1.416362"><ele>781</ele></trkpt><trkpt lat="42.968509" lon="-1.416996"><ele>781</ele></trkpt><trkpt lat="42.967795" lon="-1.417669"><ele>782</ele></trkpt><trkpt lat="42.967428" lon="-1.418511"><ele>781</ele></trkpt><trkpt lat="42.967482" lon="-1.419666"><ele>775</ele></trkpt><trkpt lat="42.967539" lon="-1.420885"><ele>776</ele></trkpt><trkpt lat="42.967491" lon="-1.422112"><ele>784</ele></trkpt><trkpt lat="42.967341" lon="-1.423311"><ele>787</ele></trkpt><trkpt lat="42.967117" lon="-1.424477"><ele>783</ele></trkpt><trkpt lat="42.966665" lon="-1.425536"><ele>779</ele></trkpt><trkpt lat="42.966257" lon="-1.426631"><ele>771</ele></trkpt><trkpt lat="42.96591" lon="-1.427765"><ele>764</ele></trkpt><trkpt lat="42.965914" lon="-1.428775"><ele>759</ele></trkpt><trkpt lat="42.965553" lon="-1.429862"><ele>753</ele></trkpt><trkpt lat="42.965327" lon="-1.43105"><ele>750</ele></trkpt><trkpt lat="42.964886" lon="-1.432118"><ele>750</ele></trkpt><trkpt lat="42.964326" lon="-1.433076"><ele>746</ele></trkpt><trkpt lat="42.963852" lon="-1.434112"><ele>745</ele></trkpt><trkpt lat="42.963617" lon="-1.435251"><ele>745</ele></trkpt><trkpt lat="42.963197" lon="-1.436265"><ele>737</ele></trkpt><trkpt lat="42.962827" lon="-1.437379"><ele>735</ele></trkpt><trkpt lat="42.962225" lon="-1.438128"><ele>744</ele></trkpt><trkpt lat="42.961897" lon="-1.439268"><ele>756</ele></trkpt><trkpt lat="42.961658" lon="-1.440446"><ele>770</ele></trkpt><trkpt lat="42.961348" lon="-1.441588"><ele>782</ele></trkpt><trkpt lat="42.961177" lon="-1.442785"><ele>790</ele></trkpt><trkpt lat="42.960916" lon="-1.443815"><ele>796</ele></trkpt><trkpt lat="42.960754" lon="-1.444954"><ele>812</ele></trkpt><trkpt lat="42.960457" lon="-1.446076"><ele>826</ele></trkpt><trkpt lat="42.960194" lon="-1.447206"><ele>828</ele></trkpt><trkpt lat="42.959893" lon="-1.448341"><ele>828</ele></trkpt><trkpt lat="42.960151" lon="-1.449483"><ele>828</ele></trkpt><trkpt lat="42.960685" lon="-1.450354"><ele>836</ele></trkpt><trkpt lat="42.961282" lon="-1.451158"><ele>849</ele></trkpt><trkpt lat="42.96102" lon="-1.45226"><ele>841</ele></trkpt><trkpt lat="42.960216" lon="-1.452707"><ele>829</ele></trkpt><trkpt lat="42.959329" lon="-1.452801"><ele>833</ele></trkpt><trkpt lat="42.958633" lon="-1.453447"><ele>840</ele></trkpt><trkpt lat="42.958706" lon="-1.454661"><ele>834</ele></trkpt><trkpt lat="42.958002" lon="-1.454872"><ele>830</ele></trkpt><trkpt lat="42.95711" lon="-1.454874"><ele>826</ele></trkpt><trkpt lat="42.956212" lon="-1.454883"><ele>829</ele></trkpt><trkpt lat="42.95555" lon="-1.455595"><ele>830</ele></trkpt><trkpt lat="42.955322" lon="-1.456783"><ele>837</ele></trkpt><trkpt lat="42.954695" lon="-1.457639"><ele>836</ele></trkpt><trkpt lat="42.954041" lon="-1.458477"><ele>831</ele></trkpt><trkpt lat="42.953755" lon="-1.459431"><ele>826</ele></trkpt><trkpt lat="42.953862" lon="-1.460632"><ele>816</ele></trkpt><trkpt lat="42.953768" lon="-1.461819"><ele>813</ele></trkpt><trkpt lat="42.953476" lon="-1.46296"><ele>822</ele></trkpt><trkpt lat="42.9528" lon="-1.463767"><ele>823</ele></trkpt><trkpt lat="42.952191" lon="-1.464656"><ele>830</ele></trkpt><trkpt lat="42.951362" lon="-1.465112"><ele>836</ele></trkpt><trkpt lat="42.95058" lon="-1.464617"><ele>844</ele></trkpt><trkpt lat="42.950058" lon="-1.463703"><ele>840</ele></trkpt><trkpt lat="42.949637" lon="-1.464746"><ele>854</ele></trkpt><trkpt lat="42.949193" lon="-1.465803"><ele>859</ele></trkpt><trkpt lat="42.94854" lon="-1.466644"><ele>855</ele></trkpt><trkpt lat="42.947756" lon="-1.467225"><ele>841</ele></trkpt><trkpt lat="42.946906" lon="-1.467611"><ele>835</ele></trkpt><trkpt lat="42.946041" lon="-1.46793"><ele>824</ele></trkpt><trkpt lat="42.945295" lon="-1.468446"><ele>815</ele></trkpt><trkpt lat="42.94449" lon="-1.468989"><ele>808</ele></trkpt><trkpt lat="42.94363" lon="-1.469327"><ele>809</ele></trkpt><trkpt lat="42.942799" lon="-1.46975"><ele>809</ele></trkpt><trkpt lat="42.94202" lon="-1.470356"><ele>806</ele></trkpt><trkpt lat="42.941222" lon="-1.470806"><ele>798</ele></trkpt><trkpt lat="42.940381" lon="-1.471207"><ele>793</ele></trkpt><trkpt lat="42.939607" lon="-1.471821"><ele>790</ele></trkpt><trkpt lat="42.938917" lon="-1.472601"><ele>791</ele></trkpt><trkpt lat="42.938389" lon="-1.47359"><ele>785</ele></trkpt><trkpt lat="42.938006" lon="-1.474699"><ele>781</ele></trkpt><trkpt lat="42.937747" lon="-1.475872"><ele>780</ele></trkpt><trkpt lat="42.937505" lon="-1.477047"><ele>774</ele></trkpt><trkpt lat="42.937612" lon="-1.478247"><ele>775</ele></trkpt><trkpt lat="42.937798" lon="-1.47944"><ele>772</ele></trkpt><trkpt lat="42.938052" lon="-1.480618"><ele>767</ele></trkpt><trkpt lat="42.938263" lon="-1.481805"><ele>758</ele></trkpt><trkpt lat="42.938546" lon="-1.482936"><ele>749</ele></trkpt><trkpt lat="42.938561" lon="-1.484"><ele>738</ele></trkpt><trkpt lat="42.938668" lon="-1.485114"><ele>725</ele></trkpt><trkpt lat="42.939056" lon="-1.486218"><ele>720</ele></trkpt><trkpt lat="42.939626" lon="-1.487141"><ele>709</ele></trkpt><trkpt lat="42.939442" lon="-1.488264"><ele>701</ele></trkpt><trkpt lat="42.938866" lon="-1.489172"><ele>687</ele></trkpt><trkpt lat="42.938353" lon="-1.490162"><ele>671</ele></trkpt><trkpt lat="42.938089" lon="-1.491332"><ele>666</ele></trkpt><trkpt lat="42.937897" lon="-1.492522"><ele>663</ele></trkpt><trkpt lat="42.937505" lon="-1.493584"><ele>646</ele></trkpt><trkpt lat="42.936727" lon="-1.494185"><ele>614</ele></trkpt><trkpt lat="42.935975" lon="-1.49484"><ele>622</ele></trkpt><trkpt lat="42.935177" lon="-1.495386"><ele>628</ele></trkpt><trkpt lat="42.934322" lon="-1.495761"><ele>631</ele></trkpt><trkpt lat="42.933455" lon="-1.496068"><ele>630</ele></trkpt><trkpt lat="42.932724" lon="-1.496689"><ele>620</ele></trkpt><trkpt lat="42.932025" lon="-1.49732"><ele>608</ele></trkpt><trkpt lat="42.931457" lon="-1.49819"><ele>587</ele></trkpt><trkpt lat="42.930808" lon="-1.498994"><ele>568</ele></trkpt><trkpt lat="42.93041" lon="-1.500077"><ele>552</ele></trkpt><trkpt lat="42.930221" lon="-1.501266"><ele>542</ele></trkpt><trkpt lat="42.930116" lon="-1.502438"><ele>532</ele></trkpt></trkseg></trk></gpx>